{
  "type": "Feature",
  "properties": {
    "code": "5B/CY-005",
    "summit": "Moutti tis Tremethousaras"
  },
  "geometry": {
    "type": "Polygon",
    "coordinates": [
      [
        [32.6801079584775, 34.9953920415225],
        [32.6803847750865, 34.9953920415225],
        [32.6806615916955, 34.9953920415225],
        [32.6809384083045, 34.9951152249135],
        [32.6812152249135, 34.9948384083045],
        [32.6814920415225, 34.9948384083045],
        [32.6817688581315, 34.9945615916955],
        [32.6817688581315, 34.9942847750865],
        [32.6814920415225, 34.9940079584775],
        [32.6812152249135, 34.9940079584775],
        [32.6809384083045, 34.9942847750865],
        [32.6806615916955, 34.9942847750865],
        [32.6803847750865, 34.9945615916955],
        [32.6801079584775, 34.9948384083045],
        [32.6798311418685, 34.9951152249135],
        [32.6795543252595, 34.9951152249135],
        [32.6792775086505, 34.9953920415225],
        [32.6790006920415, 34.9953920415225],
        [32.6787238754325, 34.9953920415225],
        [32.6784470588235, 34.9953920415225],
        [32.6781702422145, 34.9956688581315],
        [32.6778934256055, 34.9959456747405],
        [32.6776166089965, 34.9962224913495],
        [32.6773397923875, 34.9964993079585],
        [32.6770629757785, 34.9967761245675],
        [32.6770629757785, 34.9970529411765],
        [32.6773397923875, 34.9970529411765],
        [32.6776166089965, 34.9970529411765],
        [32.6778934256055, 34.9970529411765],
        [32.6781702422145, 34.9973297577855],
        [32.6784470588235, 34.9973297577855],
        [32.6784470588235, 34.9970529411765],
        [32.6784470588235, 34.9967761245675],
        [32.6784470588235, 34.9964993079585],
        [32.6787238754325, 34.9962224913495],
        [32.6790006920415, 34.9959456747405],
        [32.6792775086505, 34.9956688581315],
        [32.6795543252595, 34.9953920415225],
        [32.6798311418685, 34.9953920415225],
        [32.6801079584775, 34.9953920415225],
        [32.6801079584775, 34.9953920415225]
      ]
    ]
  }
}
