{
  "type": "Feature",
  "properties": {
    "code": "5B/CY-008",
    "summit": "Kokkinokremmos"
  },
  "geometry": {
    "type": "Polygon",
    "coordinates": [
      [
        [32.7373847750865, 34.9532006920415],
        [32.7373847750865, 34.9529238754325],
        [32.7373847750865, 34.9526470588235],
        [32.7376615916955, 34.9523702422145],
        [32.7376615916955, 34.9520934256055],
        [32.7376615916955, 34.9518166089965],
        [32.7376615916955, 34.9515397923875],
        [32.7379384083045, 34.9512629757785],
        [32.7376615916955, 34.9509861591695],
        [32.7373847750865, 34.9509861591695],
        [32.7371079584775, 34.9507093425606],
        [32.7371079584775, 34.9504325259516],
        [32.7368311418685, 34.9501557093426],
        [32.7365543252595, 34.9498788927336],
        [32.7362775086505, 34.9496020761246],
        [32.7360006920415, 34.9498788927336],
        [32.7360006920415, 34.9501557093426],
        [32.7360006920415, 34.9504325259516],
        [32.7362775086505, 34.9507093425606],
        [32.7362775086505, 34.9509861591695],
        [32.7362775086505, 34.9512629757785],
        [32.7362775086505, 34.9515397923875],
        [32.7365543252595, 34.9518166089965],
        [32.7368311418685, 34.9520934256055],
        [32.7368311418685, 34.9523702422145],
        [32.7368311418685, 34.9526470588235],
        [32.7371079584775, 34.9529238754325],
        [32.7371079584775, 34.9532006920415],
        [32.7368311418685, 34.9534775086505],
        [32.7368311418685, 34.9537543252595],
        [32.7365543252595, 34.9540311418685],
        [32.7365543252595, 34.9543079584775],
        [32.7365543252595, 34.9545847750865],
        [32.7368311418685, 34.9548615916955],
        [32.7371079584775, 34.9551384083045],
        [32.7371079584775, 34.9554152249135],
        [32.7373847750865, 34.9556920415225],
        [32.7373847750865, 34.9559688581315],
        [32.7376615916955, 34.9562456747405],
        [32.7379384083045, 34.9562456747405],
        [32.7382152249135, 34.9562456747405],
        [32.7384920415225, 34.9559688581315],
        [32.7384920415225, 34.9556920415225],
        [32.7384920415225, 34.9554152249135],
        [32.7382152249135, 34.9551384083045],
        [32.7382152249135, 34.9548615916955],
        [32.7379384083045, 34.9545847750865],
        [32.7376615916955, 34.9543079584775],
        [32.7376615916955, 34.9540311418685],
        [32.7376615916955, 34.9537543252595],
        [32.7376615916955, 34.9534775086505],
        [32.7373847750865, 34.9532006920415],
        [32.7373847750865, 34.9532006920415]
      ]
    ]
  }
}
