{
  "type": "Feature",
  "properties": {
    "code": "5B/CY-042",
    "summit": "CY042 no name"
  },
  "geometry": {
    "type": "Polygon",
    "coordinates": [
      [
        [32.4476716262976, 34.8560238754325],
        [32.4473948096886, 34.8563006920415],
        [32.4473948096886, 34.8565775086505],
        [32.4473948096886, 34.8568543252595],
        [32.4473948096886, 34.8571311418685],
        [32.4473948096886, 34.8574079584775],
        [32.4476716262976, 34.8574079584775],
        [32.4479484429066, 34.8574079584775],
        [32.4482252595156, 34.8574079584775],
        [32.4485020761246, 34.8574079584775],
        [32.4487788927336, 34.8574079584775],
        [32.4490557093426, 34.8576847750865],
        [32.4493325259516, 34.8574079584775],
        [32.4496093425605, 34.8571311418685],
        [32.4498861591695, 34.8571311418685],
        [32.4501629757785, 34.8568543252595],
        [32.4504397923875, 34.8571311418685],
        [32.4507166089965, 34.8571311418685],
        [32.4509934256055, 34.8574079584775],
        [32.4509934256055, 34.8576847750865],
        [32.4509934256055, 34.8579615916955],
        [32.4509934256055, 34.8582384083045],
        [32.4509934256055, 34.8585152249135],
        [32.4507166089965, 34.8587920415225],
        [32.4507166089965, 34.8590688581315],
        [32.4509934256055, 34.8593456747405],
        [32.4512702422145, 34.8593456747405],
        [32.4515470588235, 34.8593456747405],
        [32.4518238754325, 34.8596224913495],
        [32.4521006920415, 34.8596224913495],
        [32.4523775086505, 34.8596224913495],
        [32.4526543252595, 34.8593456747405],
        [32.4529311418685, 34.8593456747405],
        [32.4532079584775, 34.8590688581315],
        [32.4534847750865, 34.8590688581315],
        [32.4537615916955, 34.8587920415225],
        [32.4540384083045, 34.8587920415225],
        [32.4543152249135, 34.8585152249135],
        [32.4545920415225, 34.8585152249135],
        [32.4548688581315, 34.8585152249135],
        [32.4551456747405, 34.8585152249135],
        [32.4554224913495, 34.8585152249135],
        [32.4556993079585, 34.8585152249135],
        [32.4559761245675, 34.8585152249135],
        [32.4562529411765, 34.8582384083045],
        [32.4565297577855, 34.8582384083045],
        [32.4568065743945, 34.8579615916955],
        [32.4570833910035, 34.8579615916955],
        [32.4573602076125, 34.8579615916955],
        [32.4576370242214, 34.8576847750865],
        [32.4576370242214, 34.8574079584775],
        [32.4576370242214, 34.8571311418685],
        [32.4579138408305, 34.8568543252595],
        [32.4581906574394, 34.8568543252595],
        [32.4584674740484, 34.8568543252595],
        [32.4587442906574, 34.8565775086505],
        [32.4590211072664, 34.8565775086505],
        [32.4592979238754, 34.8563006920415],
        [32.4592979238754, 34.8560238754325],
        [32.4595747404844, 34.8557470588235],
        [32.4592979238754, 34.8554702422145],
        [32.4592979238754, 34.8551934256055],
        [32.4592979238754, 34.8549166089965],
        [32.4595747404844, 34.8546397923875],
        [32.4595747404844, 34.8543629757786],
        [32.4595747404844, 34.8540861591695],
        [32.4595747404844, 34.8538093425606],
        [32.4592979238754, 34.8538093425606],
        [32.4590211072664, 34.8538093425606],
        [32.4587442906574, 34.8538093425606],
        [32.4584674740484, 34.8538093425606],
        [32.4581906574394, 34.8538093425606],
        [32.4579138408305, 34.8538093425606],
        [32.4576370242214, 34.8535325259516],
        [32.4573602076125, 34.8532557093426],
        [32.4573602076125, 34.8529788927336],
        [32.4576370242214, 34.8527020761246],
        [32.4576370242214, 34.8524252595156],
        [32.4579138408305, 34.8521484429066],
        [32.4576370242214, 34.8518716262976],
        [32.4573602076125, 34.8518716262976],
        [32.4570833910035, 34.8518716262976],
        [32.4568065743945, 34.8518716262976],
        [32.4565297577855, 34.8515948096886],
        [32.4562529411765, 34.8515948096886],
        [32.4559761245675, 34.8515948096886],
        [32.4556993079585, 34.8515948096886],
        [32.4554224913495, 34.8515948096886],
        [32.4551456747405, 34.8515948096886],
        [32.4548688581315, 34.8515948096886],
        [32.4545920415225, 34.8515948096886],
        [32.4543152249135, 34.8513179930796],
        [32.4540384083045, 34.8513179930796],
        [32.4537615916955, 34.8513179930796],
        [32.4534847750865, 34.8513179930796],
        [32.4532079584775, 34.8513179930796],
        [32.4529311418685, 34.8513179930796],
        [32.4529311418685, 34.8515948096886],
        [32.4529311418685, 34.8518716262976],
        [32.4529311418685, 34.8521484429066],
        [32.4529311418685, 34.8524252595156],
        [32.4526543252595, 34.8527020761246],
        [32.4523775086505, 34.8527020761246],
        [32.4521006920415, 34.8527020761246],
        [32.4518238754325, 34.8527020761246],
        [32.4515470588235, 34.8527020761246],
        [32.4512702422145, 34.8529788927336],
        [32.4512702422145, 34.8532557093426],
        [32.4515470588235, 34.8535325259516],
        [32.4515470588235, 34.8538093425606],
        [32.4518238754325, 34.8540861591695],
        [32.4515470588235, 34.8543629757786],
        [32.4512702422145, 34.8546397923875],
        [32.4512702422145, 34.8549166089965],
        [32.4515470588235, 34.8549166089965],
        [32.4518238754325, 34.8551934256055],
        [32.4521006920415, 34.8554702422145],
        [32.4521006920415, 34.8557470588235],
        [32.4518238754325, 34.8560238754325],
        [32.4515470588235, 34.8563006920415],
        [32.4512702422145, 34.8563006920415],
        [32.4509934256055, 34.8563006920415],
        [32.4507166089965, 34.8563006920415],
        [32.4504397923875, 34.8560238754325],
        [32.4501629757785, 34.8560238754325],
        [32.4498861591695, 34.8560238754325],
        [32.4496093425605, 34.8557470588235],
        [32.4493325259516, 34.8554702422145],
        [32.4490557093426, 34.8551934256055],
        [32.4487788927336, 34.8549166089965],
        [32.4485020761246, 34.8549166089965],
        [32.4482252595156, 34.8546397923875],
        [32.4479484429066, 34.8546397923875],
        [32.4476716262976, 34.8546397923875],
        [32.4473948096886, 34.8546397923875],
        [32.4471179930796, 34.8549166089965],
        [32.4473948096886, 34.8551934256055],
        [32.4476716262976, 34.8554702422145],
        [32.4476716262976, 34.8557470588235],
        [32.4476716262976, 34.8560238754325],
        [32.4476716262976, 34.8560238754325]
      ]
    ]
  }
}
