{
  "type": "Feature",
  "properties": {
    "code": "5B/CY-046",
    "summit": "Pipis"
  },
  "geometry": {
    "type": "Polygon",
    "coordinates": [
      [
        [33.4284384083045, 34.9367920415225],
        [33.4287152249135, 34.9365152249135],
        [33.4287152249135, 34.9362384083045],
        [33.4289920415225, 34.9359615916955],
        [33.4292688581315, 34.9356847750865],
        [33.4289920415225, 34.9354079584775],
        [33.4287152249135, 34.9354079584775],
        [33.4284384083045, 34.9356847750865],
        [33.4281615916955, 34.9356847750865],
        [33.4278847750865, 34.9359615916955],
        [33.4276079584775, 34.9362384083045],
        [33.4276079584775, 34.9365152249135],
        [33.4273311418685, 34.9367920415225],
        [33.4273311418685, 34.9370688581315],
        [33.4276079584775, 34.9373456747405],
        [33.4276079584775, 34.9376224913495],
        [33.4276079584775, 34.9378993079585],
        [33.4276079584775, 34.9381761245675],
        [33.4276079584775, 34.9384529411765],
        [33.4278847750865, 34.9381761245675],
        [33.4278847750865, 34.9378993079585],
        [33.4278847750865, 34.9376224913495],
        [33.4278847750865, 34.9373456747405],
        [33.4281615916955, 34.9370688581315],
        [33.4284384083045, 34.9367920415225],
        [33.4284384083045, 34.9367920415225]
      ]
    ]
  }
}
