{
  "type": "Feature",
  "properties": {
    "code": "5B/CY-020",
    "summit": "Moutti tou Tragouna"
  },
  "geometry": {
    "type": "Polygon",
    "coordinates": [
      [
        [32.7315615916955, 35.0851456747405],
        [32.7318384083045, 35.0848688581315],
        [32.7321152249135, 35.0845920415225],
        [32.7321152249135, 35.0843152249135],
        [32.7318384083045, 35.0840384083045],
        [32.7318384083045, 35.0837615916955],
        [32.7315615916955, 35.0837615916955],
        [32.7312847750865, 35.0834847750865],
        [32.7310079584775, 35.0834847750865],
        [32.7307311418685, 35.0834847750865],
        [32.7304543252595, 35.0834847750865],
        [32.7301775086505, 35.0834847750865],
        [32.7301775086505, 35.0837615916955],
        [32.7304543252595, 35.0840384083045],
        [32.7307311418685, 35.0840384083045],
        [32.7310079584775, 35.0843152249135],
        [32.7310079584775, 35.0845920415225],
        [32.7310079584775, 35.0848688581315],
        [32.7312847750865, 35.0851456747405],
        [32.7315615916955, 35.0851456747405],
        [32.7315615916955, 35.0851456747405]
      ]
    ]
  }
}
