{
  "type": "Feature",
  "properties": {
    "code": "5B/CY-013",
    "summit": "Profitis Elias"
  },
  "geometry": {
    "type": "Polygon",
    "coordinates": [
      [
        [32.6348993079585, 34.9057224913495],
        [32.6351761245675, 34.9054456747405],
        [32.6351761245675, 34.9051688581315],
        [32.6348993079585, 34.9048920415225],
        [32.6348993079585, 34.9046152249135],
        [32.6346224913495, 34.9046152249135],
        [32.6343456747405, 34.9043384083045],
        [32.6340688581315, 34.9040615916955],
        [32.6343456747405, 34.9037847750865],
        [32.6343456747405, 34.9035079584775],
        [32.6343456747405, 34.9032311418685],
        [32.6340688581315, 34.9029543252595],
        [32.6337920415225, 34.9026775086505],
        [32.6337920415225, 34.9024006920415],
        [32.6335152249135, 34.9021238754325],
        [32.6332384083045, 34.9018470588235],
        [32.6329615916955, 34.9018470588235],
        [32.6326847750865, 34.9018470588235],
        [32.6324079584775, 34.9021238754325],
        [32.6321311418685, 34.9024006920415],
        [32.6318543252595, 34.9026775086505],
        [32.6315775086505, 34.9029543252595],
        [32.6313006920415, 34.9032311418685],
        [32.6310238754325, 34.9035079584775],
        [32.6310238754325, 34.9037847750865],
        [32.6313006920415, 34.9040615916955],
        [32.6315775086505, 34.9043384083045],
        [32.6313006920415, 34.9046152249135],
        [32.6310238754325, 34.9048920415225],
        [32.6313006920415, 34.9051688581315],
        [32.6315775086505, 34.9054456747405],
        [32.6318543252595, 34.9057224913495],
        [32.6321311418685, 34.9057224913495],
        [32.6324079584775, 34.9059993079585],
        [32.6326847750865, 34.9062761245675],
        [32.6329615916955, 34.9065529411765],
        [32.6332384083045, 34.9068297577855],
        [32.6335152249135, 34.9071065743945],
        [32.6337920415225, 34.9071065743945],
        [32.6340688581315, 34.9073833910035],
        [32.6343456747405, 34.9076602076125],
        [32.6346224913495, 34.9076602076125],
        [32.6348993079585, 34.9079370242215],
        [32.6351761245675, 34.9082138408304],
        [32.6354529411765, 34.9084906574394],
        [32.6357297577855, 34.9087674740484],
        [32.6360065743945, 34.9087674740484],
        [32.6362833910035, 34.9084906574394],
        [32.6362833910035, 34.9082138408304],
        [32.6365602076125, 34.9079370242215],
        [32.6368370242215, 34.9076602076125],
        [32.6371138408305, 34.9076602076125],
        [32.6368370242215, 34.9073833910035],
        [32.6365602076125, 34.9073833910035],
        [32.6362833910035, 34.9073833910035],
        [32.6360065743945, 34.9073833910035],
        [32.6357297577855, 34.9071065743945],
        [32.6357297577855, 34.9068297577855],
        [32.6357297577855, 34.9065529411765],
        [32.6357297577855, 34.9062761245675],
        [32.6354529411765, 34.9062761245675],
        [32.6351761245675, 34.9059993079585],
        [32.6348993079585, 34.9057224913495],
        [32.6348993079585, 34.9057224913495]
      ]
    ]
  }
}
