{
  "type": "Feature",
  "properties": {
    "code": "5B/CY-021",
    "summit": "Zalakas"
  },
  "geometry": {
    "type": "Polygon",
    "coordinates": [
      [
        [32.9287079584775, 34.8501297577855],
        [32.9289847750865, 34.8498529411765],
        [32.9292615916955, 34.8498529411765],
        [32.9292615916955, 34.8495761245675],
        [32.9289847750865, 34.8492993079585],
        [32.9289847750865, 34.8490224913495],
        [32.9289847750865, 34.8487456747405],
        [32.9292615916955, 34.8484688581315],
        [32.9295384083045, 34.8481920415225],
        [32.9298152249135, 34.8479152249135],
        [32.9300920415225, 34.8479152249135],
        [32.9303688581315, 34.8479152249135],
        [32.9306456747405, 34.8479152249135],
        [32.9309224913495, 34.8479152249135],
        [32.9311993079585, 34.8479152249135],
        [32.9314761245675, 34.8479152249135],
        [32.9314761245675, 34.8476384083045],
        [32.9311993079585, 34.8473615916955],
        [32.9309224913495, 34.8470847750865],
        [32.9306456747405, 34.8470847750865],
        [32.9303688581315, 34.8468079584775],
        [32.9300920415225, 34.8468079584775],
        [32.9298152249135, 34.8468079584775],
        [32.9295384083045, 34.8468079584775],
        [32.9292615916955, 34.8468079584775],
        [32.9289847750865, 34.8468079584775],
        [32.9287079584775, 34.8468079584775],
        [32.9284311418685, 34.8470847750865],
        [32.9284311418685, 34.8473615916955],
        [32.9287079584775, 34.8476384083045],
        [32.9287079584775, 34.8479152249135],
        [32.9287079584775, 34.8481920415225],
        [32.9287079584775, 34.8484688581315],
        [32.9287079584775, 34.8487456747405],
        [32.9287079584775, 34.8490224913495],
        [32.9284311418685, 34.8492993079585],
        [32.9284311418685, 34.8495761245675],
        [32.9281543252595, 34.8498529411765],
        [32.9284311418685, 34.8501297577855],
        [32.9287079584775, 34.8501297577855],
        [32.9287079584775, 34.8501297577855]
      ]
    ]
  }
}
