{
  "type": "Feature",
  "properties": {
    "code": "5B/CY-007",
    "summit": "Throni"
  },
  "geometry": {
    "type": "Polygon",
    "coordinates": [
      [
        [32.7312384083045, 34.9829384083045],
        [32.7312384083045, 34.9826615916955],
        [32.7309615916955, 34.9823847750865],
        [32.7306847750865, 34.9823847750865],
        [32.7304079584775, 34.9823847750865],
        [32.7304079584775, 34.9826615916955],
        [32.7304079584775, 34.9829384083045],
        [32.7306847750865, 34.9832152249135],
        [32.7309615916955, 34.9834920415225],
        [32.7312384083045, 34.9837688581315],
        [32.7312384083045, 34.9840456747405],
        [32.7315152249135, 34.9840456747405],
        [32.7317920415225, 34.9840456747405],
        [32.7317920415225, 34.9837688581315],
        [32.7315152249135, 34.9834920415225],
        [32.7315152249135, 34.9832152249135],
        [32.7312384083045, 34.9829384083045],
        [32.7312384083045, 34.9829384083045]
      ]
    ]
  }
}
