{
  "type": "Feature",
  "properties": {
    "code": "5B/CY-015",
    "summit": "Moutti tis Papadias"
  },
  "geometry": {
    "type": "Polygon",
    "coordinates": [
      [
        [32.7351615916955, 35.0237152249135],
        [32.7354384083045, 35.0237152249135],
        [32.7354384083045, 35.0234384083045],
        [32.7351615916955, 35.0231615916955],
        [32.7348847750865, 35.0231615916955],
        [32.7346079584775, 35.0231615916955],
        [32.7346079584775, 35.0234384083045],
        [32.7348847750865, 35.0237152249135],
        [32.7351615916955, 35.0237152249135],
        [32.7351615916955, 35.0237152249135]
      ]
    ]
  }
}
