{
  "type": "Feature",
  "properties": {
    "code": "5B/CY-043",
    "summit": "Kreatos"
  },
  "geometry": {
    "type": "Polygon",
    "coordinates": [
      [
        [33.1390079584775, 35.0465079584775],
        [33.1387311418685, 35.0465079584775],
        [33.1384543252595, 35.0465079584775],
        [33.1381775086505, 35.0465079584775],
        [33.1379006920415, 35.0467847750865],
        [33.1376238754325, 35.0467847750865],
        [33.1373470588235, 35.0467847750865],
        [33.1370702422145, 35.0467847750865],
        [33.1367934256055, 35.0467847750865],
        [33.1365166089965, 35.0470615916955],
        [33.1362397923875, 35.0470615916955],
        [33.1359629757785, 35.0473384083045],
        [33.1356861591695, 35.0473384083045],
        [33.1362397923875, 35.0478920415225],
        [33.1365166089965, 35.0478920415225],
        [33.1367934256055, 35.0481688581315],
        [33.1370702422145, 35.0481688581315],
        [33.1373470588235, 35.0481688581315],
        [33.1376238754325, 35.0481688581315],
        [33.1379006920415, 35.0484456747405],
        [33.1381775086505, 35.0484456747405],
        [33.1384543252595, 35.0484456747405],
        [33.1387311418685, 35.0484456747405],
        [33.1390079584775, 35.0481688581315],
        [33.1392847750865, 35.0481688581315],
        [33.1395615916955, 35.0481688581315],
        [33.1398384083045, 35.0481688581315],
        [33.1401152249135, 35.0481688581315],
        [33.1403920415225, 35.0478920415225],
        [33.1403920415225, 35.0476152249135],
        [33.1401152249135, 35.0473384083045],
        [33.1398384083045, 35.0470615916955],
        [33.1398384083045, 35.0467847750865],
        [33.1395615916955, 35.0467847750865],
        [33.1392847750865, 35.0465079584775],
        [33.1390079584775, 35.0465079584775],
        [33.1390079584775, 35.0465079584775]
      ]
    ]
  }
}
