{
  "type": "Feature",
  "properties": {
    "code": "5B/CY-014",
    "summit": "Sella"
  },
  "geometry": {
    "type": "Polygon",
    "coordinates": [
      [
        [32.7823543252595, 34.8629152249135],
        [32.7826311418685, 34.8629152249135],
        [32.7829079584775, 34.8629152249135],
        [32.7831847750865, 34.8629152249135],
        [32.7834615916955, 34.8629152249135],
        [32.7837384083045, 34.8629152249135],
        [32.7840152249135, 34.8629152249135],
        [32.7842920415225, 34.8626384083045],
        [32.7845688581315, 34.8626384083045],
        [32.7848456747405, 34.8623615916955],
        [32.7851224913495, 34.8620847750865],
        [32.7853993079585, 34.8620847750865],
        [32.7856761245675, 34.8618079584775],
        [32.7859529411765, 34.8618079584775],
        [32.7862297577855, 34.8618079584775],
        [32.7865065743945, 34.8615311418685],
        [32.7867833910035, 34.8615311418685],
        [32.7870602076125, 34.8612543252595],
        [32.7873370242215, 34.8612543252595],
        [32.7876138408305, 34.8609775086505],
        [32.7873370242215, 34.8609775086505],
        [32.7870602076125, 34.8609775086505],
        [32.7867833910035, 34.8609775086505],
        [32.7865065743945, 34.8609775086505],
        [32.7862297577855, 34.8609775086505],
        [32.7859529411765, 34.8609775086505],
        [32.7856761245675, 34.8609775086505],
        [32.7853993079585, 34.8612543252595],
        [32.7851224913495, 34.8612543252595],
        [32.7848456747405, 34.8612543252595],
        [32.7845688581315, 34.8612543252595],
        [32.7842920415225, 34.8612543252595],
        [32.7840152249135, 34.8609775086505],
        [32.7837384083045, 34.8609775086505],
        [32.7834615916955, 34.8609775086505],
        [32.7831847750865, 34.8609775086505],
        [32.7829079584775, 34.8609775086505],
        [32.7826311418685, 34.8612543252595],
        [32.7823543252595, 34.8612543252595],
        [32.7820775086505, 34.8612543252595],
        [32.7818006920415, 34.8612543252595],
        [32.7815238754325, 34.8615311418685],
        [32.7815238754325, 34.8618079584775],
        [32.7815238754325, 34.8620847750865],
        [32.7815238754325, 34.8623615916955],
        [32.7815238754325, 34.8626384083045],
        [32.7815238754325, 34.8629152249135],
        [32.7818006920415, 34.8629152249135],
        [32.7820775086505, 34.8631920415225],
        [32.7823543252595, 34.8629152249135],
        [32.7823543252595, 34.8629152249135]
      ]
    ]
  }
}
