{
  "type": "Feature",
  "properties": {
    "code": "5B/CY-026",
    "summit": "Moutti tou Chareri"
  },
  "geometry": {
    "type": "Polygon",
    "coordinates": [
      [
        [32.6807224913495, 35.0776529411765],
        [32.6809993079585, 35.0779297577855],
        [32.6809993079585, 35.0782065743945],
        [32.6809993079585, 35.0784833910035],
        [32.6809993079585, 35.0787602076125],
        [32.6807224913495, 35.0790370242214],
        [32.6807224913495, 35.0793138408305],
        [32.6807224913495, 35.0795906574394],
        [32.6809993079585, 35.0795906574394],
        [32.6812761245675, 35.0795906574394],
        [32.6815529411765, 35.0795906574394],
        [32.6818297577855, 35.0793138408305],
        [32.6821065743945, 35.0795906574394],
        [32.6823833910035, 35.0795906574394],
        [32.6823833910035, 35.0793138408305],
        [32.6823833910035, 35.0790370242214],
        [32.6821065743945, 35.0787602076125],
        [32.6818297577855, 35.0784833910035],
        [32.6818297577855, 35.0782065743945],
        [32.6815529411765, 35.0779297577855],
        [32.6812761245675, 35.0776529411765],
        [32.6812761245675, 35.0773761245675],
        [32.6809993079585, 35.0770993079585],
        [32.6807224913495, 35.0768224913495],
        [32.6804456747405, 35.0765456747405],
        [32.6801688581315, 35.0762688581315],
        [32.6801688581315, 35.0759920415225],
        [32.6801688581315, 35.0757152249135],
        [32.6801688581315, 35.0754384083045],
        [32.6798920415225, 35.0751615916955],
        [32.6796152249135, 35.0748847750865],
        [32.6793384083045, 35.0746079584775],
        [32.6793384083045, 35.0743311418685],
        [32.6790615916955, 35.0740543252595],
        [32.6790615916955, 35.0737775086505],
        [32.6790615916955, 35.0735006920415],
        [32.6790615916955, 35.0732238754325],
        [32.6787847750865, 35.0729470588235],
        [32.6785079584775, 35.0729470588235],
        [32.6782311418685, 35.0729470588235],
        [32.6779543252595, 35.0729470588235],
        [32.6779543252595, 35.0732238754325],
        [32.6779543252595, 35.0735006920415],
        [32.6776775086505, 35.0737775086505],
        [32.6776775086505, 35.0740543252595],
        [32.6776775086505, 35.0743311418685],
        [32.6779543252595, 35.0746079584775],
        [32.6782311418685, 35.0748847750865],
        [32.6782311418685, 35.0751615916955],
        [32.6785079584775, 35.0754384083045],
        [32.6785079584775, 35.0757152249135],
        [32.6785079584775, 35.0759920415225],
        [32.6787847750865, 35.0762688581315],
        [32.6790615916955, 35.0762688581315],
        [32.6793384083045, 35.0765456747405],
        [32.6796152249135, 35.0768224913495],
        [32.6798920415225, 35.0768224913495],
        [32.6801688581315, 35.0770993079585],
        [32.6804456747405, 35.0773761245675],
        [32.6807224913495, 35.0776529411765],
        [32.6807224913495, 35.0776529411765]
      ]
    ]
  }
}
