{
  "type": "Feature",
  "properties": {
    "code": "5B/CY-009",
    "summit": "Moutti tis Zacharous"
  },
  "geometry": {
    "type": "Polygon",
    "coordinates": [
      [
        [32.6218152249135, 35.0476615916955],
        [32.6215384083045, 35.0476615916955],
        [32.6212615916955, 35.0473847750865],
        [32.6209847750865, 35.0476615916955],
        [32.6207079584775, 35.0479384083045],
        [32.6207079584775, 35.0482152249135],
        [32.6209847750865, 35.0484920415225],
        [32.6212615916955, 35.0484920415225],
        [32.6215384083045, 35.0484920415225],
        [32.6218152249135, 35.0482152249135],
        [32.6220920415225, 35.0482152249135],
        [32.6220920415225, 35.0479384083045],
        [32.6218152249135, 35.0476615916955],
        [32.6218152249135, 35.0476615916955]
      ]
    ]
  }
}
