{
  "type": "Feature",
  "properties": {
    "code": "5B/CY-024",
    "summit": "Karramoudi"
  },
  "geometry": {
    "type": "Polygon",
    "coordinates": [
      [
        [32.7028847750865, 34.8720906574395],
        [32.7031615916955, 34.8723674740484],
        [32.7034384083045, 34.8723674740484],
        [32.7037152249135, 34.8723674740484],
        [32.7037152249135, 34.8720906574395],
        [32.7037152249135, 34.8718138408305],
        [32.7037152249135, 34.8715370242215],
        [32.7034384083045, 34.8712602076125],
        [32.7034384083045, 34.8709833910035],
        [32.7034384083045, 34.8707065743945],
        [32.7034384083045, 34.8704297577855],
        [32.7034384083045, 34.8701529411765],
        [32.7034384083045, 34.8698761245675],
        [32.7034384083045, 34.8695993079585],
        [32.7034384083045, 34.8693224913495],
        [32.7037152249135, 34.8690456747405],
        [32.7037152249135, 34.8687688581315],
        [32.7037152249135, 34.8684920415225],
        [32.7037152249135, 34.8682152249135],
        [32.7037152249135, 34.8679384083045],
        [32.7037152249135, 34.8676615916955],
        [32.7039920415225, 34.8673847750865],
        [32.7039920415225, 34.8671079584775],
        [32.7039920415225, 34.8668311418685],
        [32.7039920415225, 34.8665543252595],
        [32.7037152249135, 34.8665543252595],
        [32.7034384083045, 34.8662775086505],
        [32.7034384083045, 34.8660006920415],
        [32.7031615916955, 34.8657238754325],
        [32.7028847750865, 34.8654470588235],
        [32.7026079584775, 34.8654470588235],
        [32.7023311418685, 34.8654470588235],
        [32.7020543252595, 34.8654470588235],
        [32.7017775086505, 34.8654470588235],
        [32.7015006920415, 34.8657238754325],
        [32.7012238754325, 34.8660006920415],
        [32.7012238754325, 34.8662775086505],
        [32.7012238754325, 34.8665543252595],
        [32.7015006920415, 34.8668311418685],
        [32.7015006920415, 34.8671079584775],
        [32.7015006920415, 34.8673847750865],
        [32.7017775086505, 34.8676615916955],
        [32.7017775086505, 34.8679384083045],
        [32.7017775086505, 34.8682152249135],
        [32.7020543252595, 34.8684920415225],
        [32.7020543252595, 34.8687688581315],
        [32.7020543252595, 34.8690456747405],
        [32.7020543252595, 34.8693224913495],
        [32.7020543252595, 34.8695993079585],
        [32.7020543252595, 34.8698761245675],
        [32.7020543252595, 34.8701529411765],
        [32.7020543252595, 34.8704297577855],
        [32.7020543252595, 34.8707065743945],
        [32.7017775086505, 34.8709833910035],
        [32.7017775086505, 34.8712602076125],
        [32.7020543252595, 34.8715370242215],
        [32.7023311418685, 34.8718138408305],
        [32.7026079584775, 34.8720906574395],
        [32.7028847750865, 34.8720906574395],
        [32.7028847750865, 34.8720906574395]
      ]
    ]
  }
}
