{
  "type": "Feature",
  "properties": {
    "code": "5B/CY-004",
    "summit": "Kionia"
  },
  "geometry": {
    "type": "Polygon",
    "coordinates": [
      [
        [33.1920615916955, 34.9209920415225],
        [33.1923384083045, 34.9209920415225],
        [33.1926152249135, 34.9207152249135],
        [33.1926152249135, 34.9204384083045],
        [33.1926152249135, 34.9201615916955],
        [33.1926152249135, 34.9198847750865],
        [33.1923384083045, 34.9198847750865],
        [33.1920615916955, 34.9196079584775],
        [33.1917847750865, 34.9196079584775],
        [33.1915079584775, 34.9198847750865],
        [33.1915079584775, 34.9201615916955],
        [33.1915079584775, 34.9204384083045],
        [33.1915079584775, 34.9207152249135],
        [33.1915079584775, 34.9209920415225],
        [33.1915079584775, 34.9212688581315],
        [33.1917847750865, 34.9212688581315],
        [33.1920615916955, 34.9209920415225],
        [33.1920615916955, 34.9209920415225]
      ]
    ]
  }
}
