{
  "type": "Feature",
  "properties": {
    "code": "5B/CY-032",
    "summit": "Mosfileri"
  },
  "geometry": {
    "type": "Polygon",
    "coordinates": [
      [
        [32.9762384083045, 34.8026152249135],
        [32.9765152249135, 34.8026152249135],
        [32.9767920415225, 34.8026152249135],
        [32.9770688581315, 34.8026152249135],
        [32.9773456747405, 34.8026152249135],
        [32.9776224913495, 34.8023384083045],
        [32.9778993079585, 34.8023384083045],
        [32.9778993079585, 34.8020615916955],
        [32.9781761245675, 34.8017847750865],
        [32.9784529411765, 34.8015079584775],
        [32.9787297577855, 34.8012311418685],
        [32.9787297577855, 34.8009543252595],
        [32.9787297577855, 34.8006775086505],
        [32.9787297577855, 34.8004006920415],
        [32.9784529411765, 34.8004006920415],
        [32.9781761245675, 34.8004006920415],
        [32.9778993079585, 34.8006775086505],
        [32.9776224913495, 34.8009543252595],
        [32.9773456747405, 34.8012311418685],
        [32.9770688581315, 34.8015079584775],
        [32.9767920415225, 34.8015079584775],
        [32.9765152249135, 34.8015079584775],
        [32.9762384083045, 34.8015079584775],
        [32.9759615916955, 34.8017847750865],
        [32.9756847750865, 34.8017847750865],
        [32.9754079584775, 34.8017847750865],
        [32.9751311418685, 34.8017847750865],
        [32.9748543252595, 34.8017847750865],
        [32.9745775086505, 34.8015079584775],
        [32.9743006920415, 34.8017847750865],
        [32.9740238754325, 34.8017847750865],
        [32.9740238754325, 34.8020615916955],
        [32.9743006920415, 34.8023384083045],
        [32.9743006920415, 34.8026152249135],
        [32.9740238754325, 34.8028920415225],
        [32.9743006920415, 34.8028920415225],
        [32.9745775086505, 34.8028920415225],
        [32.9748543252595, 34.8028920415225],
        [32.9751311418685, 34.8028920415225],
        [32.9754079584775, 34.8028920415225],
        [32.9756847750865, 34.8028920415225],
        [32.9759615916955, 34.8026152249135],
        [32.9762384083045, 34.8026152249135],
        [32.9762384083045, 34.8026152249135]
      ]
    ]
  }
}
