{
  "type": "Feature",
  "properties": {
    "code": "5B/CY-010",
    "summit": "Mavrogenis"
  },
  "geometry": {
    "type": "Polygon",
    "coordinates": [
      [
        [32.7617847750865, 34.9714920415225],
        [32.7620615916955, 34.9714920415225],
        [32.7623384083045, 34.9712152249135],
        [32.7623384083045, 34.9709384083045],
        [32.7620615916955, 34.9706615916955],
        [32.7617847750865, 34.9706615916955],
        [32.7617847750865, 34.9709384083045],
        [32.7615079584775, 34.9712152249135],
        [32.7617847750865, 34.9714920415225],
        [32.7617847750865, 34.9714920415225]
      ]
    ]
  }
}
