{
  "type": "Feature",
  "properties": {
    "code": "5B/CY-047",
    "summit": "Neon appidhaki"
  },
  "geometry": {
    "type": "Polygon",
    "coordinates": [
      [
        [33.4596311418685, 34.9326615916955],
        [33.4599079584775, 34.9329384083045],
        [33.4599079584775, 34.9332152249135],
        [33.4601847750865, 34.9334920415225],
        [33.4604615916955, 34.9337688581315],
        [33.4607384083045, 34.9340456747405],
        [33.4610152249135, 34.9340456747405],
        [33.4612920415225, 34.9340456747405],
        [33.4615688581315, 34.9340456747405],
        [33.4618456747405, 34.9340456747405],
        [33.4621224913495, 34.9340456747405],
        [33.4623993079585, 34.9340456747405],
        [33.4626761245675, 34.9340456747405],
        [33.4629529411765, 34.9340456747405],
        [33.4632297577855, 34.9340456747405],
        [33.4635065743945, 34.9337688581315],
        [33.4635065743945, 34.9334920415225],
        [33.4632297577855, 34.9334920415225],
        [33.4629529411765, 34.9334920415225],
        [33.4626761245675, 34.9334920415225],
        [33.4623993079585, 34.9334920415225],
        [33.4621224913495, 34.9334920415225],
        [33.4618456747405, 34.9334920415225],
        [33.4615688581315, 34.9332152249135],
        [33.4612920415225, 34.9329384083045],
        [33.4612920415225, 34.9326615916955],
        [33.4612920415225, 34.9323847750865],
        [33.4612920415225, 34.9321079584775],
        [33.4610152249135, 34.9323847750865],
        [33.4607384083045, 34.9323847750865],
        [33.4604615916955, 34.9323847750865],
        [33.4601847750865, 34.9323847750865],
        [33.4599079584775, 34.9323847750865],
        [33.4596311418685, 34.9323847750865],
        [33.4596311418685, 34.9326615916955],
        [33.4596311418685, 34.9326615916955]
      ]
    ]
  }
}
