{
  "type": "Feature",
  "properties": {
    "code": "5B/CY-023",
    "summit": "Khondrovounaros"
  },
  "geometry": {
    "type": "Polygon",
    "coordinates": [
      [
        [32.5551384083045, 35.0703688581315],
        [32.5551384083045, 35.0700920415225],
        [32.5551384083045, 35.0698152249135],
        [32.5551384083045, 35.0695384083045],
        [32.5551384083045, 35.0692615916955],
        [32.5551384083045, 35.0689847750865],
        [32.5551384083045, 35.0687079584775],
        [32.5548615916955, 35.0689847750865],
        [32.5545847750865, 35.0692615916955],
        [32.5543079584775, 35.0695384083045],
        [32.5543079584775, 35.0698152249135],
        [32.5543079584775, 35.0700920415225],
        [32.5543079584775, 35.0703688581315],
        [32.5543079584775, 35.0706456747405],
        [32.5543079584775, 35.0709224913495],
        [32.5545847750865, 35.0706456747405],
        [32.5548615916955, 35.0703688581315],
        [32.5551384083045, 35.0703688581315],
        [32.5551384083045, 35.0703688581315]
      ]
    ]
  }
}
