
{
  "type": "Feature",
  "properties": {
    "summit": "Chionistra",
    "code": "5B/CY-001",
    "zone": "activation_25m"
  },
  "geometry": {
    "type": "Polygon",
    "coordinates": [[
      [32.863715068493, 34.93544109589],
      [32.86344109589, 34.93544109589],
      [32.863167123288, 34.93544109589],
      [32.862893150685, 34.93544109589],
      [32.862619178082, 34.93544109589],
      [32.862345205479, 34.93544109589],
      [32.862071232877, 34.935715068493],
      [32.862071232877, 34.935989041096],
      [32.862071232877, 34.936263013699],
      [32.862071232877, 34.936536986301],
      [32.862345205479, 34.936810958904],
      [32.862071232877, 34.937084931507],
      [32.861797260274, 34.93735890411],
      [32.861523287671, 34.937632876712],
      [32.861249315068, 34.937632876712],
      [32.860975342466, 34.937906849315],
      [32.860701369863, 34.937906849315],
      [32.86042739726, 34.937906849315],
      [32.860153424658, 34.937906849315],
      [32.859879452055, 34.937906849315],
      [32.859605479452, 34.938180821918],
      [32.859331506849, 34.938180821918],
      [32.859057534247, 34.938180821918],
      [32.858783561644, 34.938180821918],
      [32.858509589041, 34.938454794521],
      [32.858783561644, 34.938728767123],
      [32.859057534247, 34.939002739726],
      [32.859331506849, 34.939002739726],
      [32.859605479452, 34.939276712329],
      [32.859879452055, 34.939276712329],
      [32.860153424658, 34.939276712329],
      [32.86042739726, 34.939276712329],
      [32.860701369863, 34.939276712329],
      [32.860975342466, 34.939276712329],
      [32.861249315068, 34.939002739726],
      [32.861523287671, 34.939002739726],
      [32.861797260274, 34.938728767123],
      [32.862071232877, 34.938454794521],
      [32.862345205479, 34.938454794521],
      [32.862345205479, 34.938180821918],
      [32.862619178082, 34.937906849315],
      [32.862893150685, 34.937632876712],
      [32.863167123288, 34.937632876712],
      [32.86344109589, 34.93735890411],
      [32.863715068493, 34.93735890411],
      [32.863989041096, 34.93735890411],
      [32.864263013699, 34.93735890411],
      [32.864536986301, 34.937084931507],
      [32.864810958904, 34.936810958904],
      [32.865084931507, 34.936810958904],
      [32.86535890411, 34.936536986301],
      [32.865632876712, 34.936536986301],
      [32.865906849315, 34.936263013699],
      [32.865906849315, 34.935989041096],
      [32.863715068493, 34.93544109589]
    ]]
  }
}

