{
  "type": "Feature",
  "properties": {
    "code": "5B/CY-039",
    "summit": "Mersinia"
  },
  "geometry": {
    "type": "Polygon",
    "coordinates": [
      [
        [32.8301079584775, 34.7681456747405],
        [32.8303847750865, 34.7681456747405],
        [32.8306615916955, 34.7681456747405],
        [32.8309384083045, 34.7684224913495],
        [32.8312152249135, 34.7684224913495],
        [32.8314920415225, 34.7684224913495],
        [32.8317688581315, 34.7684224913495],
        [32.8320456747405, 34.7684224913495],
        [32.8323224913495, 34.7684224913495],
        [32.8325993079585, 34.7684224913495],
        [32.8328761245675, 34.7684224913495],
        [32.8331529411765, 34.7684224913495],
        [32.8334297577855, 34.7681456747405],
        [32.8337065743945, 34.7681456747405],
        [32.8339833910035, 34.7681456747405],
        [32.8342602076125, 34.7678688581315],
        [32.8342602076125, 34.7675920415225],
        [32.8345370242215, 34.7673152249135],
        [32.8348138408304, 34.7670384083045],
        [32.8350906574394, 34.7670384083045],
        [32.8353674740484, 34.7670384083045],
        [32.8356442906574, 34.7667615916955],
        [32.8356442906574, 34.7664847750865],
        [32.8356442906574, 34.7662079584775],
        [32.8359211072664, 34.7659311418685],
        [32.8361979238754, 34.7659311418685],
        [32.8364747404844, 34.7656543252595],
        [32.8367515570934, 34.7656543252595],
        [32.8367515570934, 34.7653775086505],
        [32.8367515570934, 34.7651006920415],
        [32.8364747404844, 34.7653775086505],
        [32.8361979238754, 34.7653775086505],
        [32.8359211072664, 34.7653775086505],
        [32.8356442906574, 34.7653775086505],
        [32.8353674740484, 34.7656543252595],
        [32.8350906574394, 34.7659311418685],
        [32.8348138408304, 34.7656543252595],
        [32.8345370242215, 34.7656543252595],
        [32.8342602076125, 34.7656543252595],
        [32.8339833910035, 34.7653775086505],
        [32.8337065743945, 34.7651006920415],
        [32.8334297577855, 34.7651006920415],
        [32.8331529411765, 34.7648238754325],
        [32.8328761245675, 34.7645470588235],
        [32.8325993079585, 34.7642702422145],
        [32.8323224913495, 34.7642702422145],
        [32.8320456747405, 34.7642702422145],
        [32.8317688581315, 34.7642702422145],
        [32.8314920415225, 34.7645470588235],
        [32.8312152249135, 34.7645470588235],
        [32.8309384083045, 34.7645470588235],
        [32.8306615916955, 34.7648238754325],
        [32.8303847750865, 34.7648238754325],
        [32.8301079584775, 34.7648238754325],
        [32.8298311418685, 34.7648238754325],
        [32.8295543252595, 34.7645470588235],
        [32.8295543252595, 34.7642702422145],
        [32.8292775086505, 34.7642702422145],
        [32.8290006920415, 34.7642702422145],
        [32.8290006920415, 34.7645470588235],
        [32.8287238754325, 34.7648238754325],
        [32.8284470588235, 34.7648238754325],
        [32.8284470588235, 34.7651006920415],
        [32.8281702422145, 34.7653775086505],
        [32.8278934256055, 34.7656543252595],
        [32.8276166089965, 34.7659311418685],
        [32.8273397923875, 34.7656543252595],
        [32.8270629757785, 34.7656543252595],
        [32.8267861591696, 34.7659311418685],
        [32.8265093425606, 34.7659311418685],
        [32.8262325259516, 34.7659311418685],
        [32.8259557093426, 34.7659311418685],
        [32.8256788927336, 34.7659311418685],
        [32.8254020761246, 34.7662079584775],
        [32.8254020761246, 34.7664847750865],
        [32.8251252595156, 34.7667615916955],
        [32.8248484429066, 34.7667615916955],
        [32.8245716262976, 34.7664847750865],
        [32.8242948096886, 34.7662079584775],
        [32.8240179930796, 34.7662079584775],
        [32.8237411764706, 34.7659311418685],
        [32.8234643598616, 34.7656543252595],
        [32.8231875432526, 34.7656543252595],
        [32.8229107266436, 34.7656543252595],
        [32.8226339100346, 34.7659311418685],
        [32.8223570934256, 34.7659311418685],
        [32.8220802768166, 34.7659311418685],
        [32.8218034602076, 34.7659311418685],
        [32.8215266435986, 34.7662079584775],
        [32.8212498269896, 34.7662079584775],
        [32.8209730103806, 34.7662079584775],
        [32.8206961937716, 34.7662079584775],
        [32.8204193771626, 34.7662079584775],
        [32.8206961937716, 34.7664847750865],
        [32.8209730103806, 34.7664847750865],
        [32.8212498269896, 34.7664847750865],
        [32.8215266435986, 34.7664847750865],
        [32.8218034602076, 34.7664847750865],
        [32.8220802768166, 34.7664847750865],
        [32.8223570934256, 34.7664847750865],
        [32.8226339100346, 34.7664847750865],
        [32.8229107266436, 34.7664847750865],
        [32.8231875432526, 34.7664847750865],
        [32.8234643598616, 34.7664847750865],
        [32.8237411764706, 34.7667615916955],
        [32.8240179930796, 34.7667615916955],
        [32.8242948096886, 34.7667615916955],
        [32.8245716262976, 34.7670384083045],
        [32.8248484429066, 34.7670384083045],
        [32.8251252595156, 34.7670384083045],
        [32.8254020761246, 34.7670384083045],
        [32.8256788927336, 34.7673152249135],
        [32.8259557093426, 34.7675920415225],
        [32.8262325259516, 34.7675920415225],
        [32.8265093425606, 34.7678688581315],
        [32.8267861591696, 34.7681456747405],
        [32.8270629757785, 34.7678688581315],
        [32.8273397923875, 34.7678688581315],
        [32.8276166089965, 34.7678688581315],
        [32.8278934256055, 34.7681456747405],
        [32.8281702422145, 34.7681456747405],
        [32.8284470588235, 34.7681456747405],
        [32.8287238754325, 34.7681456747405],
        [32.8290006920415, 34.7681456747405],
        [32.8292775086505, 34.7681456747405],
        [32.8295543252595, 34.7681456747405],
        [32.8298311418685, 34.7681456747405],
        [32.8301079584775, 34.7681456747405],
        [32.8301079584775, 34.7681456747405]
      ]
    ]
  }
}
