{
  "type": "Feature",
  "properties": {
    "code": "5B/CY-045",
    "summit": "Kokkinovouppos"
  },
  "geometry": {
    "type": "Polygon",
    "coordinates": [
      [
        [32.4862529411765, 35.0074006920415],
        [32.4859761245675, 35.0074006920415],
        [32.4856993079585, 35.0074006920415],
        [32.4854224913495, 35.0074006920415],
        [32.4851456747405, 35.0074006920415],
        [32.4848688581315, 35.0074006920415],
        [32.4845920415225, 35.0076775086505],
        [32.4843152249135, 35.0076775086505],
        [32.4840384083045, 35.0076775086505],
        [32.4837615916955, 35.0076775086505],
        [32.4834847750865, 35.0076775086505],
        [32.4832079584775, 35.0079543252595],
        [32.4829311418685, 35.0082311418685],
        [32.4826543252595, 35.0082311418685],
        [32.4823775086505, 35.0082311418685],
        [32.4821006920415, 35.0085079584775],
        [32.4818238754325, 35.0087847750865],
        [32.4818238754325, 35.0090615916955],
        [32.4818238754325, 35.0093384083045],
        [32.4815470588235, 35.0096152249135],
        [32.4812702422145, 35.0098920415225],
        [32.4812702422145, 35.0101688581315],
        [32.4809934256055, 35.0104456747405],
        [32.4809934256055, 35.0107224913495],
        [32.4809934256055, 35.0109993079585],
        [32.4809934256055, 35.0112761245675],
        [32.4812702422145, 35.0115529411765],
        [32.4815470588235, 35.0118297577855],
        [32.4818238754325, 35.0121065743945],
        [32.4821006920415, 35.0121065743945],
        [32.4823775086505, 35.0121065743945],
        [32.4826543252595, 35.0121065743945],
        [32.4829311418685, 35.0121065743945],
        [32.4832079584775, 35.0121065743945],
        [32.4834847750865, 35.0118297577855],
        [32.4837615916955, 35.0118297577855],
        [32.4840384083045, 35.0115529411765],
        [32.4843152249135, 35.0112761245675],
        [32.4845920415225, 35.0109993079585],
        [32.4848688581315, 35.0109993079585],
        [32.4851456747405, 35.0109993079585],
        [32.4854224913495, 35.0107224913495],
        [32.4856993079585, 35.0104456747405],
        [32.4859761245675, 35.0104456747405],
        [32.4862529411765, 35.0101688581315],
        [32.4865297577855, 35.0104456747405],
        [32.4868065743945, 35.0101688581315],
        [32.4865297577855, 35.0098920415225],
        [32.4868065743945, 35.0096152249135],
        [32.4870833910035, 35.0093384083045],
        [32.4873602076125, 35.0093384083045],
        [32.4873602076125, 35.0090615916955],
        [32.4873602076125, 35.0087847750865],
        [32.4870833910035, 35.0085079584775],
        [32.4870833910035, 35.0082311418685],
        [32.4868065743945, 35.0079543252595],
        [32.4868065743945, 35.0076775086505],
        [32.4865297577855, 35.0076775086505],
        [32.4862529411765, 35.0074006920415],
        [32.4862529411765, 35.0074006920415]
      ]
    ]
  }
}
