{
  "type": "Feature",
  "properties": {
    "code": "5B/CY-025",
    "summit": "Moutti tou Dia"
  },
  "geometry": {
    "type": "Polygon",
    "coordinates": [
      [
        [33.0032384083045, 34.8385152249135],
        [33.0035152249135, 34.8385152249135],
        [33.0037920415225, 34.8385152249135],
        [33.0037920415225, 34.8382384083045],
        [33.0035152249135, 34.8382384083045],
        [33.0032384083045, 34.8379615916955],
        [33.0029615916955, 34.8376847750865],
        [33.0026847750865, 34.8376847750865],
        [33.0024079584775, 34.8376847750865],
        [33.0021311418685, 34.8379615916955],
        [33.0021311418685, 34.8382384083045],
        [33.0024079584775, 34.8385152249135],
        [33.0026847750865, 34.8385152249135],
        [33.0029615916955, 34.8385152249135],
        [33.0032384083045, 34.8385152249135],
        [33.0032384083045, 34.8385152249135]
      ]
    ]
  }
}
