{"type":"FeatureCollection","features":[{"type":"Feature","id":1064444,"geometry":{"type":"Polygon","coordinates":[[[34.064820060999978,35.010822134000023],[34.064815010000018,35.010808022999981],[34.064804191999997,35.010815605000005],[34.064788756999974,35.010809306999988],[34.064786545999993,35.010794679000014],[34.064785984000025,35.010780544999989],[34.064779594000015,35.010767969000028],[34.064772844000004,35.010755238999991],[34.064764740999976,35.010742597999979],[34.064764167000021,35.010727643999985],[34.064763626999991,35.010713430999999],[34.064757816999986,35.010699755000019],[34.064754291999975,35.010686430000021],[34.064751666000006,35.010670866999988],[34.064748281999982,35.010655466999992],[34.064744643999973,35.010640793999983],[34.064739748000022,35.010627813999974],[34.064733783999998,35.010615154999982],[34.064730693999991,35.010600495000006],[34.06472740800001,35.010587187999988],[34.064721486999986,35.010572357000001],[34.064714175999995,35.010560141999974],[34.064711812999974,35.010546551000004],[34.064710235000007,35.010533071999987],[34.064706533999981,35.010518907000005],[34.064703217999977,35.010505149999972],[34.064701238999987,35.010490070000003],[34.064694810999981,35.010476438000012],[34.064687076999974,35.010462780000012],[34.064681101000019,35.010449084000015],[34.064678894999986,35.010447585999998],[34.06466807999999,35.010440242000016],[34.064650334000021,35.010439086000019],[34.064633818000004,35.010441206999985],[34.064618461999999,35.010435611999981],[34.064622800999985,35.010421924000013],[34.064626815999986,35.010407105000013],[34.064627826999981,35.01039332900001],[34.064628330000005,35.010377113000004],[34.064624707999997,35.010363709999979],[34.064623010999981,35.010350017000007],[34.064618440000004,35.010336660999997],[34.064613244999975,35.010322765000012],[34.064603836000003,35.010310097000001],[34.064590294000027,35.010301455999979],[34.064577073000009,35.010291794000011],[34.064574631000028,35.010277676999976],[34.064575626000021,35.010262609999984],[34.064575884000021,35.010255742000027],[34.064576154999997,35.010248525999998],[34.064573659000018,35.010233880999976],[34.064559711000015,35.010226729999999],[34.064546179999979,35.010235471999977],[34.064535979000027,35.010246119999977],[34.064527761000022,35.010261134000018],[34.06451572200001,35.01027123199998],[34.064511367000023,35.010285524999972],[34.064504891000013,35.010299350000025],[34.064503477000017,35.010306780999997],[34.064502174999973,35.010313610000026],[34.064496097000017,35.010326862999989],[34.064482860999988,35.010336130999974],[34.064467498999988,35.010342933999993],[34.064450743000009,35.010346679000008],[34.064434376000008,35.01034918900001],[34.064419342999997,35.010342885999989],[34.064415841000027,35.010329483000021],[34.064413973000001,35.010315380999998],[34.064404066999998,35.010305938999977],[34.064402324000014,35.010304276999989],[34.064387704000012,35.010296740000001],[34.064378404000024,35.010285225000018],[34.064369638000016,35.01027264999999],[34.064370210999982,35.010258250999982],[34.064369267000018,35.01024402500002],[34.064364861999991,35.010230549000028],[34.064358661000028,35.010217893000004],[34.064349855999978,35.010206100000005],[34.064348349999989,35.010192542000027],[34.064342022999995,35.010179359000006],[34.064341652999985,35.010165477999976],[34.064340136999988,35.010151313999984],[34.064346788000023,35.010138074999986],[34.064343037000015,35.010123851999992],[34.064342748000001,35.010123034000003],[34.064337067999986,35.010107007999977],[34.064340279000021,35.010092450999991],[34.064346281999974,35.010078905],[34.064347175000023,35.010075088000008],[34.064349434999997,35.010065402000009],[34.064349328999981,35.01005173599998],[34.064337229999978,35.010042415999976],[34.064318484000012,35.010039314999972],[34.064306541000008,35.010029250999992],[34.064304418000006,35.010015816000021],[34.064303430999985,35.010000101000003],[34.064302898999983,35.009998526999993],[34.064299005999999,35.009986979000018],[34.064289567999992,35.009975779000001],[34.06427985900001,35.009972124000001],[34.064273324999988,35.009969663999982],[34.064258947999974,35.009962437000013],[34.064250711999989,35.009950598999978],[34.064249045999986,35.009936813000024],[34.064248955999972,35.009936064999977],[34.064238832000001,35.009925106000026],[34.064226888999997,35.009915062000005],[34.064211098999976,35.009908865],[34.064193503000013,35.009908471000017],[34.064181856000005,35.009897308999996],[34.064180399999998,35.009892670999989],[34.064177144999974,35.009882292999976],[34.064167440000006,35.009870664000005],[34.064155878999998,35.009860733999972],[34.064146747999985,35.009849491000011],[34.064135941000018,35.009839065999984],[34.064121730000011,35.009829998999976],[34.06410563899999,35.009822572000019],[34.064093065000009,35.009813431999987],[34.064077331000021,35.009807937999994],[34.064062404000026,35.009815206999974],[34.064058751999994,35.009828692999974],[34.064054219000013,35.009841913000002],[34.064050398000006,35.009848593000015],[34.064047082000002,35.009854394000001],[34.064037885999994,35.00986747799999],[34.064022857999987,35.009874278999973],[34.064007484000001,35.009867218000011],[34.063990966000006,35.009863965000022],[34.063987038999983,35.009863193000001],[34.063970556000015,35.009862438000027],[34.063953938999987,35.009854642999983],[34.063941579000016,35.009845520999988],[34.063934515000028,35.009832245999974],[34.063939921999975,35.009818510999992],[34.063942789000009,35.009804933999987],[34.063939989000005,35.009801141000025],[34.063934200999995,35.009793294000019],[34.063924398999973,35.009789746000024],[34.063918488000013,35.009787604999985],[34.063907276999998,35.009777222000025],[34.063905121999994,35.009763043000021],[34.063903217000018,35.009748119999983],[34.063902793000011,35.009733771000015],[34.063901330000022,35.009719976999975],[34.063909475000003,35.009707153000022],[34.063909973000023,35.009706369000014],[34.063909952000017,35.009691937000014],[34.063899521999986,35.009681273000012],[34.063888039999995,35.009668309999995],[34.063879770000028,35.009655595000027],[34.063876420999975,35.009640938000018],[34.063873650000005,35.009627095999974],[34.063869217999979,35.009613388999981],[34.063866594999979,35.009599879000007],[34.06386259300001,35.009586303999981],[34.063853880000011,35.009574256999997],[34.063847817999999,35.009559506000016],[34.06384121100001,35.009546618999991],[34.063834851000024,35.009532770000021],[34.06383056300001,35.009523817000002],[34.063828720999993,35.009519974999989],[34.063821706999988,35.009506993999992],[34.063813673000027,35.009494216999997],[34.063807998000016,35.009479775999978],[34.063804114999982,35.009466375999978],[34.063799549999999,35.009451533000004],[34.063795296000023,35.009436747999985],[34.063788385999999,35.009420773999977],[34.063782246000017,35.009407313999986],[34.063773113000025,35.00939411600001],[34.063770003999991,35.009379693000028],[34.063768725999978,35.009363668999981],[34.063766118999979,35.009351249000019],[34.063765914999976,35.009350277999999],[34.063764558000003,35.009347068000011],[34.063759808999976,35.009335840999995],[34.063758054000004,35.009329653000009],[34.063755875000027,35.00932197100002],[34.063751001000014,35.009307268999976],[34.063749015999974,35.009305449999999],[34.063739289000011,35.00929653899999],[34.063740619999976,35.009282965000011],[34.063740629999984,35.00928283799999],[34.063742078000018,35.009267942999998],[34.063736982000023,35.009254259999977],[34.063725739000006,35.009243115000004],[34.063708211999995,35.009238674000017],[34.063692328999991,35.009234569],[34.06367726000002,35.009229027999993],[34.063658798000006,35.009227743999986],[34.063640427999985,35.009224286999995],[34.063622884999972,35.009220315999983],[34.063606665000009,35.009214024000016],[34.063598744999979,35.009200894000003],[34.06358449999999,35.009192824000024],[34.063568626000006,35.00919677600001],[34.063554329999988,35.009204978000014],[34.063541007000026,35.009213150999983],[34.063526699000022,35.009220550999999],[34.063513112999999,35.00922860899999],[34.063498095999989,35.009236230999988],[34.063485903000014,35.009245392000025],[34.06347476000002,35.009256773000004],[34.063462306000019,35.009266054000022],[34.063446191000025,35.009273292999978],[34.063431166999976,35.009274923000021],[34.063429315999997,35.009275123000009],[34.063412684000014,35.00927740100002],[34.063394539000001,35.00928389500001],[34.063378643000021,35.009289882000019],[34.06336031799998,35.009289808000005],[34.063341858000001,35.009290361000012],[34.063321171999974,35.009289936000016],[34.063304572999982,35.009287266000001],[34.063287041000024,35.009289823000017],[34.063270588000023,35.009294856999986],[34.063261694000005,35.009307352999997],[34.063259198000026,35.009314771999982],[34.06325707000002,35.009321101000012],[34.063251223999998,35.009333922999986],[34.06324183800001,35.009345132000021],[34.063228876999972,35.009353750999992],[34.063215223999975,35.009362200999988],[34.063200847000019,35.009369719000006],[34.063199468999983,35.009369692000007],[34.063180396000007,35.009372577000022],[34.06316160099999,35.009376653000004],[34.063142120000009,35.009381007999991],[34.063123284000028,35.009380119000014],[34.063103651000006,35.009376497000005],[34.063084580000009,35.009370268999987],[34.06306814300001,35.009361789000025],[34.06305228399998,35.009353949000001],[34.063039423000021,35.009342740000022],[34.063026364999985,35.009332861000019],[34.063013393999995,35.009324116000016],[34.062994537000009,35.009330832999979],[34.062975288000018,35.009342069000013],[34.062953198000002,35.009346778999998],[34.062934703999986,35.009352181999986],[34.062918044000014,35.009354164999991],[34.062898843000028,35.009356094999987],[34.062879726999995,35.00935935199999],[34.062860396000019,35.009358797999994],[34.062841193999986,35.009357109000007],[34.062821930999974,35.009352583000009],[34.062803072999998,35.009349971000006],[34.062783507000006,35.009345977000009],[34.062770646999979,35.009336487999974],[34.062766651000004,35.00933111400002],[34.062760219999973,35.009322461000011],[34.062744726999995,35.009311782999987],[34.062725786999977,35.009308233000013],[34.062716991999991,35.009308255999997],[34.06270684399999,35.009308282000006],[34.06268762000002,35.009306788000004],[34.062667901999987,35.009302013000024],[34.062658619999979,35.00928637200002],[34.06265648599998,35.009280821999994],[34.062652570000012,35.009270642999979],[34.062646519999987,35.009254913999996],[34.062635123999996,35.009241169000006],[34.062614823999979,35.009239196999999],[34.062596550000023,35.009237596999981],[34.062577502000011,35.009234986000024],[34.062573202999999,35.009234142000025],[34.062558129000024,35.009231184999976],[34.062539293999976,35.009230295999998],[34.06251993699999,35.009236976000011],[34.062507304999997,35.009247080000023],[34.062489181999979,35.009258787000022],[34.062488400999996,35.009259292000024],[34.062475511000002,35.009267851000004],[34.062462706000019,35.00927756599998],[34.062443567000003,35.009288059000028],[34.06242457899998,35.009295518999977],[34.062405676000026,35.009300515000007],[34.062386625999977,35.009303222000028],[34.062367422000023,35.009305132000009],[34.062348241999985,35.009307079999985],[34.062328933999993,35.009306329000026],[34.062309733999996,35.009304836000013],[34.06229042199999,35.009302188999982],[34.062274482000021,35.009289772999978],[34.062264637999988,35.009278458999972],[34.062245372000007,35.00927373899998],[34.062226193000015,35.009272049000003],[34.062212208000005,35.009263977999979],[34.062200292999989,35.00925248499999],[34.06219501999999,35.009237961999986],[34.062203795000016,35.009221810999975],[34.062214211000025,35.009211119999975],[34.062231454000027,35.009204653999973],[34.062245852999979,35.009195083000009],[34.062243981999984,35.009179141999994],[34.062230904999979,35.00916773900002],[34.062239486999999,35.009153271000002],[34.062249706999978,35.009136695999985],[34.062261954000007,35.009124267999994],[34.062278505999984,35.00911583300001],[34.062294155000018,35.009109222999996],[34.062313076999999,35.009107649999976],[34.062332538000021,35.009105367000018],[34.062351571000022,35.009099430999981],[34.062370558999987,35.009090075000017],[34.062382266999975,35.009078181000007],[34.062370481000016,35.009063851999997],[34.062351346000014,35.00906368599999],[34.062329556999998,35.009067846999983],[34.062323277000019,35.009069189999991],[34.062313156000016,35.009071355000003],[34.062294016999999,35.009074629999986],[34.062274877999982,35.009077887999979],[34.062255913999991,35.009081730999981],[34.062236496000025,35.009083639999972],[34.062217164999993,35.009081190000018],[34.062203721999992,35.009068988000024],[34.062199505000024,35.009053419999987],[34.062197398000023,35.009037655999975],[34.062198975999991,35.009021823000012],[34.062199331999977,35.009020588999988],[34.062203570000008,35.009005883999976],[34.062196873999994,35.008993506000024],[34.062177803999987,35.008989175000011],[34.062158582999984,35.008989577000023],[34.062137221,35.008995689000017],[34.062120236999988,35.009000101000026],[34.062101101999986,35.009001656999999],[34.062081879000004,35.00900034],[34.062062762999972,35.008999802999995],[34.062043689999996,35.009000811000021],[34.062026254999978,35.009007063000013],[34.062011944999995,35.00901417099999],[34.062002414000006,35.009019127999977],[34.061992867000015,35.009024094999972],[34.061973573999978,35.00903380699998],[34.061954565000008,35.009043360000021],[34.061935359000017,35.009048886000016],[34.061916138000015,35.009045690999983],[34.061896549999972,35.009045295000021],[34.061887017000004,35.009048606000022],[34.061878186000001,35.009051673999977],[34.06185874900001,35.009051865000004],[34.061839914000018,35.009052888999975],[34.06182349300002,35.009051253999985],[34.061807481000017,35.009048147999977],[34.061788239000009,35.009039808000011],[34.061766993999981,35.009032622000007],[34.061750830999983,35.009028910999973],[34.061735208000016,35.00902470699998],[34.061719607999976,35.009020307000014],[34.061704049000014,35.009015514999987],[34.061687391000021,35.009014036999986],[34.06168388399999,35.009013692999986],[34.061670734000018,35.009012402999986],[34.061654830999998,35.009008533999975],[34.06163985500001,35.009002856999984],[34.061624450000011,35.008997125999997],[34.061612018999995,35.008987865999984],[34.06160081500002,35.008977952000009],[34.061589417999983,35.008967825000013],[34.061576147999972,35.008959824999977],[34.061564232000023,35.008950034000009],[34.061551779000013,35.008940972000005],[34.061543422999989,35.008928823000019],[34.061535279999987,35.008916711999973],[34.061525437,35.008905395999989],[34.06151451400001,35.008895128000006],[34.061503871000014,35.00888450399998],[34.061491937000028,35.008875085999989],[34.061483018999979,35.008863664999978],[34.061476837999976,35.00885075399998],[34.061471562000008,35.008837953000011],[34.061466309000025,35.008824955000023],[34.061461033,35.008812133999982],[34.061458624000011,35.008798621999972],[34.06145813400002,35.008789578999995],[34.061457877000009,35.008784860999981],[34.061458744999982,35.008771067999987],[34.061456335999992,35.008757555999978],[34.061453429999972,35.008744186000001],[34.061451991000013,35.008730373999981],[34.061449109000023,35.008717003000015],[34.061448734999999,35.00871650800002],[34.061440232999985,35.008705210000016],[34.061433320999981,35.008692618999987],[34.061428778999982,35.008679498999982],[34.061424946999978,35.008666233999975],[34.061422579000009,35.008652331000008],[34.061424138999996,35.008638609000002],[34.061428625000019,35.008625312999982],[34.061430614000017,35.008611800999972],[34.061431932999994,35.008598042000017],[34.061432219999972,35.008588076000024],[34.061432326999977,35.008584387999974],[34.061432957000022,35.008570557999974],[34.061429857999997,35.008556994000003],[34.061426499999982,35.008543588999999],[34.061420059999989,35.008530855999993],[34.061419777000026,35.008530618000009],[34.061408405999998,35.008521082000016],[34.061397203000013,35.008511188],[34.061386325000001,35.008500722999997],[34.061379604000024,35.008488344],[34.061374827999998,35.008475380999982],[34.061372870000014,35.00846190599998],[34.061370913000019,35.008448428999998],[34.061369947999992,35.008434475999991],[34.061369866999996,35.008420786999977],[34.061370022999995,35.00840711699999],[34.061371795000014,35.008393393000006],[34.061373591000006,35.008379669000021],[34.061375340999973,35.00836614100001],[34.061378944000012,35.008352577999972],[34.061383410000019,35.008339476000003],[34.061383802000023,35.008325646000003],[34.061381869999991,35.008312170000011],[34.061379201000022,35.008298818000014],[34.061377502000028,35.008288256000014],[34.061377030000017,35.008285323999985],[34.061376467000002,35.008279268000024],[34.061375761000022,35.008271723999997],[34.061374042000011,35.008258264999995],[34.061374435999994,35.008244611999999],[34.061376424000002,35.008231103000014],[34.061381557000004,35.008218073000023],[34.06138807100001,35.008205325000006],[34.061393010000018,35.008192081000004],[34.061395902000015,35.008178640999972],[34.061396748999982,35.008165023000004],[34.061396688000002,35.008151159000022],[34.061397815000021,35.008137186999988],[34.061402301999976,35.008123888],[34.061408125000014,35.008111106999991],[34.061414617000025,35.008098378999989],[34.061420655000006,35.008085596000001],[34.061426929999982,35.008072829000014],[34.061429823000026,35.008059408999998],[34.061434288999976,35.008046306999972],[34.061437936999994,35.008032567999976],[34.061442187000011,35.008019251000007],[34.061448654999992,35.00800670000001],[34.061456914000019,35.007994677999989],[34.061462930999994,35.00798211],[34.061469187,35.007969539999976],[34.061476968000022,35.00795748500002],[34.061485442999981,35.007945677000009],[34.061495187999981,35.007934562999992],[34.061506205000001,35.007924514000024],[34.06151719799999,35.007914443000004],[34.061527394999985,35.007903558999999],[34.061539508999999,35.007893792999994],[34.061553778000018,35.007887059999973],[34.061565826999981,35.007877839999992],[34.061570530999973,35.007864756999993],[34.061571613000012,35.007850980000001],[34.061573149000026,35.007837434999999],[34.061574446999998,35.007823851000012],[34.061572749999982,35.007810216999985],[34.061572950000027,35.00779617500001],[34.061574031000021,35.007782378999991],[34.061573972000019,35.007768709999993],[34.061574103999988,35.007755040000006],[34.061575403000006,35.007741456000019],[34.061576011999989,35.007727821999993],[34.061575004000019,35.007714239999984],[34.061569038000016,35.007701365000003],[34.061562238000022,35.007689206999999],[34.061562104000018,35.007688969000014],[34.061559459000023,35.007675441000004],[34.061557739000023,35.007661982000002],[34.061556730999996,35.007648399999994],[34.061558526999988,35.007634676999999],[34.061560944000007,35.007621207],[34.061567842999978,35.007608898000001],[34.061570483000025,35.007606999000018],[34.061580325000023,35.007599911],[34.061588130000018,35.007587855999986],[34.06159347900001,35.007575039000017],[34.06160044500001,35.007562326000027],[34.061604478999982,35.007548993],[34.061605799000006,35.007535233999988],[34.061605005999979,35.007521688999987],[34.061596368999972,35.007509894999998],[34.061589620000007,35.007505159000004],[34.061583680000012,35.007500990999972],[34.061570126999982,35.007493151000006],[34.061566081000024,35.007479869000008],[34.061573649000024,35.007467796000014],[34.061583179000024,35.007456663000028],[34.061594882999998,35.007446490000007],[34.061608224999986,35.007437944999992],[34.061620748999985,35.007428604999973],[34.06163327500002,35.007419421999998],[34.061644698999999,35.007409602999985],[34.061656619000019,35.007399624000016],[34.061668542000007,35.007389644],[34.061679148999986,35.007379167000011],[34.061690355999986,35.007369133999987],[34.061704259999999,35.007361796999987],[34.061717948000023,35.007354245999977],[34.061729587999992,35.007344621000016],[34.061742111000001,35.00733526099998],[34.061756421999974,35.007328156000028],[34.061768710000024,35.007318973999986],[34.061784444000011,35.007311601000026],[34.061803645999987,35.007307776000005],[34.061814434999974,35.007305232000022],[34.061820090000026,35.007303896999986],[34.061836728000003,35.007298530000014],[34.061848283000018,35.007287753000014],[34.061860766999985,35.007277063999993],[34.061869795000007,35.007266587000004],[34.06187189000002,35.007264157999998],[34.061883466999973,35.007253380000009],[34.061898617999987,35.007246930000008],[34.061914781999974,35.007239787999993],[34.061930710000013,35.007234525999991],[34.061940735999997,35.007221355000013],[34.061945675000004,35.007208092999974],[34.061947728999996,35.007192313000019],[34.061951955999973,35.007179173999987],[34.061958447999984,35.00716663899999],[34.061969422000004,35.007155047000026],[34.061974188000022,35.007139498000015],[34.061976866999998,35.007126058999972],[34.061978230000022,35.007110206999982],[34.06198073500002,35.007090688999995],[34.061983693999991,35.007080475000009],[34.061987467999984,35.007067300000017],[34.061993484000027,35.007054654000001],[34.061996911999984,35.007051416000024],[34.062003727999979,35.007038136999995],[34.062015821999978,35.00702493],[34.062027936999982,35.007013460999985],[34.062041452000017,35.007003624999982],[34.062053350999975,35.00699382099998],[34.062060312000028,35.006990846999997],[34.062069235000024,35.006987034000019],[34.062083934999976,35.006976931999986],[34.062092249999978,35.006968536999977],[34.062094329999979,35.006966437000017],[34.062107045000005,35.006957290999992],[34.062120334999975,35.006946574999972],[34.062127227000019,35.006944104000013],[34.062128212999994,35.006943749000015],[34.062141338000004,35.006935011999985],[34.062144887999978,35.006931767000026],[34.062153670999976,35.006923737000022],[34.06216953500001,35.006913547000011],[34.062177948999988,35.006908671000019],[34.062185505000002,35.00690429399998],[34.062201174999984,35.006895788000008],[34.062214042999983,35.006885506000003],[34.062226373999977,35.006875951999973],[34.062239480000017,35.006865688000005],[34.062254977999999,35.006858494000028],[34.062271058000022,35.006852114000026],[34.062293448999981,35.006837668000003],[34.062315189999993,35.006831336000005],[34.062412171000005,35.006836985999996],[34.062423833000025,35.006846752999991],[34.062427591000016,35.006887372999984],[34.062466307000022,35.006962992000012],[34.062505348999991,35.006988997999997],[34.062567543,35.007053586999973],[34.062628336999978,35.007099593000021],[34.062623058999975,35.007126120000009],[34.062636944000019,35.007150905000003],[34.062683842000013,35.007149122999976],[34.06270127800002,35.007110735000026],[34.06274473000002,35.007069503000025],[34.062756561000015,35.006974558000024],[34.062751217000027,35.006906991999983],[34.062872015999972,35.006948180999984],[34.062920758000018,35.006955300000016],[34.063107123999998,35.007043102000011],[34.063173209000013,35.007048318999978],[34.063194741000018,35.007067501999984],[34.063242848000016,35.007072713000014],[34.063307929000018,35.007116472000007],[34.063413185999991,35.007117360999985],[34.063495697000008,35.007141536000006],[34.063535032999994,35.007165751999992],[34.063551662999998,35.007143821999989],[34.063539709999986,35.007131909999998],[34.063558871999987,35.007093920999978],[34.063619833000018,35.007063994000021],[34.063654970000016,35.007066018999978],[34.063692184999979,35.007088830999976],[34.063712485999986,35.007068633000017],[34.063705143999982,35.007039727999995],[34.063722813000027,35.007015858999978],[34.063743385000009,35.006932769999992],[34.063682447000019,35.006833341999993],[34.063696365999988,35.006808486000011],[34.063669788000027,35.006776151999986],[34.063686521000022,35.006752849999998],[34.063673207000022,35.006717083000012],[34.063666067999975,35.006614919000015],[34.063639394999996,35.006598100000019],[34.063637278999977,35.006581137000012],[34.063665033000007,35.006546883999988],[34.063659953000013,35.006501419000017],[34.063751194000019,35.006418134],[34.063765139999987,35.006386824000003],[34.063768315999994,35.006369850999988],[34.063778060000004,35.006352548999985],[34.063791616000003,35.006341795000026],[34.063812172999974,35.006347201999972],[34.063833213999999,35.006356301999972],[34.063851672999988,35.006352174000028],[34.063875697000014,35.006329156999982],[34.063890920000006,35.006294952000019],[34.063892125999985,35.006278086999998],[34.063887082000008,35.006260915999974],[34.063859368999999,35.00623582999998],[34.063847850999991,35.006221168000025],[34.063848945000018,35.006199704999972],[34.063849816000015,35.006184355000016],[34.063867119999998,35.006092939999974],[34.063876381999989,35.006082651999975],[34.063895409999986,35.006061520999992],[34.064003129000014,35.005941892999999],[34.064123386000006,35.00594928999999],[34.064239015999988,35.006048553000028],[34.064344285999994,35.006035236999992],[34.064356938999993,35.005981325999983],[34.064279091000003,35.005944543999988],[34.064253715999996,35.005861953000021],[34.064296477000028,35.005780173000005],[34.064187343000015,35.005732963000014],[34.06426015400001,35.005698240000015],[34.064229990000001,35.005615972999976],[34.06410818400002,35.005594787999996],[34.06405947799999,35.005508177000024],[34.064128068999992,35.005412084999989],[34.064212049999981,35.005393885999979],[34.064279789000011,35.005337520000012],[34.06429624499998,35.00523371700001],[34.064155579999976,35.00518368500002],[34.064174455,35.005108028999985],[34.064136124000015,35.005029494999974],[34.064078159000019,35.004809448999993],[34.064011461000007,35.00481397499999],[34.064040648000002,35.004635699999994],[34.063951766000002,35.004513384999996],[34.063936839999997,35.004418025999996],[34.063998586000025,35.004348472999993],[34.063946473999977,35.004263299000002],[34.064004037000018,35.00418787000001],[34.064047333000019,35.004094534999979],[34.064086276000012,35.003982366000002],[34.063983329999985,35.004042704000028],[34.063939009000023,35.004189001999976],[34.063746197,35.004236042999992],[34.063618761999976,35.004044210000018],[34.063568472999975,35.003782406000028],[34.063444230000016,35.003704906999985],[34.06345397299998,35.003558347000023],[34.063499877000027,35.003428654000004],[34.063529499000026,35.003283893000003],[34.063534667999988,35.003259905999982],[34.063549267999974,35.003197807999982],[34.063502925000023,35.003108639999994],[34.063529637999977,35.003003621000005],[34.063644012999987,35.002953607999984],[34.063789186000008,35.002743893000002],[34.06378510899998,35.002561118000017],[34.063856451999982,35.002439650999975],[34.064005533999989,35.002399754999999],[34.064111328000024,35.002480234000018],[34.064381217999994,35.002437586999974],[34.064581776000011,35.002407660000017],[34.06464336800002,35.002273322000008],[34.064697410999997,35.002005815000018],[34.064914480000027,35.001796876000014],[34.065123234999987,35.001659839000013],[34.065274456999987,35.001599192000015],[34.065363547000004,35.001607028000024],[34.065592647000017,35.001666422000028],[34.065796611999986,35.001661533999993],[34.066006115999983,35.001635188000023],[34.066125542999998,35.001578929999994],[34.066309493000006,35.001429995000024],[34.066242451999983,35.001381572000014],[34.066059818999975,35.001500073999978],[34.065907137000011,35.001552398000001],[34.065750142000013,35.001588986999991],[34.065592771000013,35.001411784000027],[34.065539871999988,35.001292251999985],[34.065574620000007,35.001041535000013],[34.06573264299999,35.001005217999989],[34.065583124,35.000826257000028],[34.065507040999989,35.000793122999994],[34.065577524999981,35.000684904000025],[34.066072948999988,35.000717733999977],[34.066227982999976,35.000662008999996],[34.066390646999992,35.000666776999992],[34.066607327999975,35.000745151999979],[34.066671615000018,35.000818949999996],[34.06652481499998,35.000902490999977],[34.066611683000019,35.001027919000023],[34.066898492999997,35.001023707999991],[34.067030421000027,35.001112966999983],[34.067233159000011,35.001066679000019],[34.067659389000028,35.001067181999986],[34.067637692999995,35.000822286000016],[34.067542211999978,35.000798057999987],[34.067512712999985,35.000714376000019],[34.067586917000028,35.000681894000024],[34.067657520000012,35.00047761899998],[34.067762922999975,35.000343456999985],[34.067841772000008,35.000352340000006],[34.067909457999974,35.000424136999982],[34.067862916000024,35.000477783000008],[34.067936163000013,35.000529813000014],[34.067885832000002,35.000871651000011],[34.067974918000004,35.001009737000004],[34.068113223000012,35.001010206999979],[34.06813529599998,35.00086466800002],[34.068229055000018,35.000809197000024],[34.068214481999973,35.000741441999992],[34.068364085999974,35.000557877000006],[34.068456027000025,35.000573124000027],[34.068450155999983,35.000806123000018],[34.068503336999981,35.00084171200001],[34.068592153999987,35.000774733000014],[34.068608661999974,35.000622763000024],[34.068548797000005,35.000494281999977],[34.068595416999983,35.000341201000026],[34.068640311000024,35.000160812999979],[34.068657131000009,35.000006304999999],[34.068555139000011,35.000007767],[34.068512993000013,35.000057430000027],[34.068494826999995,35.00016096500002],[34.068529484999999,35.000193619000015],[34.068515440999988,35.000272047999999],[34.068475207999995,35.000310710000008],[34.068284177999999,35.000283099000001],[34.068278249000002,35.000222025000028],[34.068343997999989,35.000223980999976],[34.068368200999998,35.000189686999988],[34.068292443000018,35.000181618999989],[34.068199687999993,35.000103566000007],[34.068167150000022,34.999917944000003],[34.068051371000024,34.999991075000025],[34.068086799000014,35.000135827000008],[34.067990611000027,35.000267935000011],[34.067852119000008,35.000200142999972],[34.067860429999996,35.000075847999994],[34.067442125000014,34.999971081000012],[34.067381436999995,34.999910770999975],[34.067439148999995,34.99963647300001],[34.067427473999999,34.999633759000005],[34.067293978999999,34.999739998999985],[34.066917852000017,34.99985147000001],[34.066731134999998,34.999734242999978],[34.066631633999975,34.999532025000008],[34.066666822000002,34.999341866000009],[34.066763362000017,34.999263272000007],[34.066879587000017,34.999250701999983],[34.067092021999997,34.999213343999998],[34.06720014199999,34.999183098000003],[34.06736626999998,34.999112062999984],[34.067441267999982,34.999035350999975],[34.067442670999981,34.998853374000021],[34.067300373000023,34.998808710999981],[34.066852168000025,34.998984474999986],[34.066777064999997,34.998947671999986],[34.066767578999986,34.998849730000018],[34.066881765999995,34.998680282999999],[34.066745657000013,34.99840036400002],[34.066728300000023,34.998223338000003],[34.066954058000022,34.998184174000016],[34.066977575999999,34.998123405000001],[34.067151872000011,34.998207222000019],[34.067429380000021,34.998119997000003],[34.067523870999992,34.997910159000014],[34.067533876000027,34.997810920999996],[34.067824954999992,34.997239931000024],[34.068150822000007,34.997160165000025],[34.068370221000009,34.997237668000025],[34.068513789000008,34.99709049400002],[34.068617250999978,34.997176059000026],[34.068682734999982,34.997105061000013],[34.068779918000018,34.997102516999973],[34.068824258000006,34.997011424999982],[34.068695414999979,34.997053403999985],[34.068741148000015,34.996885119000012],[34.068751286999998,34.996717149000006],[34.068928325999991,34.996669677999989],[34.069089970999983,34.996675575999973],[34.069017245999987,34.996900434999986],[34.068960258999994,34.997282611999992],[34.069047371000011,34.997268888000008],[34.069193453000025,34.996867898000005],[34.069278796999981,34.996718419999979],[34.069355384000005,34.996448459000021],[34.06948404000002,34.996444509000014],[34.069464089000007,34.996752841999978],[34.069603271000005,34.996610777000001],[34.069703672000003,34.996618905999981],[34.070020344,34.996306548000007],[34.070589782000013,34.99618915100001],[34.071020920000024,34.996176882999976],[34.071303204000003,34.996036650999997],[34.071440248999977,34.99586277100002],[34.072716721000006,34.993950159000008],[34.072943493000025,34.993385924999984],[34.073467457999982,34.992986660999975],[34.07365078700002,34.992556605000004],[34.073791613000026,34.992335384],[34.073833241999978,34.992335643999979],[34.074368140999979,34.992338990999997],[34.083531597999979,34.992395933000012],[34.081952226999988,34.993703051000011],[34.080982224000024,34.994672519000005],[34.079906241999993,34.995664826999985],[34.079390312999976,34.996826770999974],[34.078771503999974,34.998247365999987],[34.078105051000023,35.000087672999996],[34.077376566999988,35.001251491999994],[34.076700331999973,35.002349397999978],[34.075992940999981,35.003098152000007],[34.075416641000004,35.003714751000018],[34.074443019,35.004422219999981],[34.073896160000004,35.004859330999977],[34.073321829000008,35.005628799000021],[34.073013700999979,35.006439542999999],[34.07294626700002,35.007379146000005],[34.072750853999992,35.008691122000016],[34.072754560000021,35.008974974000012],[34.072654864000015,35.009866180000017],[34.072617983999976,35.010460780000017],[34.072590187999992,35.010622755999975],[34.064820060999978,35.010822134000023]]]},"properties":{"objectid":1064444,"site_id":555516661,"site_pid":"555516661","site_type":"PA","name_eng":"THALASSIA PERIOCHI NISIA","name":"THALASSIA PERIOCHI NISIA","desig":"Site of Community Importance (Habitats Directive)","desig_eng":"Site of Community Importance (Habitats Directive)","desig_type":"Regional","iucn_cat":"Not Reported","int_crit":"Not Applicable","realm":"Marine","rep_m_area":0,"gis_m_area":1.83139775,"rep_area":0,"gis_area":1.9175609199999999,"no_take":"Not Reported","no_tk_area":0,"status":"Designated","status_yr":2008,"gov_type":"Federal or national ministry or agency","verif":"State Verified","inlnd_wtrs":"Not Applicable","own_type":"Not Reported","mang_auth":"See European Environment Agency Geospatial Data Catalogue for more information - https://sdi.eea.europa.eu/catalogue/srv/api/records/be2142b0-7dc4-42e3-afac-f7cc5f1a9ac6","mang_plan":"See European Environment Agency Geospatial Data Catalogue for more information - https://sdi.eea.europa.eu/catalogue/srv/api/records/be2142b0-7dc4-42e3-afac-f7cc5f1a9ac6","cons_obj":"Not Applicable","supp_info":"Not Applicable","metadataid":1832,"prnt_iso3":"CYP","iso3":"CYP","govsubtype":"Not Applicable","ownsubtype":"Not Applicable","oecm_asmt":"Not Applicable","Shape__Area":0.00018934450281434049,"Shape__Length":0.086877064061626957}}]}