{
  "type": "Feature",
  "properties": {},
  "geometry": {
    "type": "LineString",
    "coordinates": [
      [
        32.969080000000005,
        34.9804
      ],
      [
        32.96905,
        34.980410000000006
      ],
      [
        32.96884,
        34.980610000000006
      ],
      [
        32.968740000000004,
        34.9808
      ],
      [
        32.96873,
        34.98091
      ],
      [
        32.9688,
        34.98095
      ],
      [
        32.96911,
        34.98102
      ],
      [
        32.969370000000005,
        34.981190000000005
      ],
      [
        32.9694,
        34.981300000000005
      ],
      [
        32.969260000000006,
        34.98149
      ],
      [
        32.9692,
        34.981680000000004
      ],
      [
        32.96931,
        34.98199
      ],
      [
        32.96933,
        34.98216
      ],
      [
        32.969550000000005,
        34.98241
      ],
      [
        32.96916,
        34.982200000000006
      ],
      [
        32.96905,
        34.98208
      ],
      [
        32.96891,
        34.981860000000005
      ],
      [
        32.96876,
        34.98171
      ],
      [
        32.968560000000004,
        34.98192
      ],
      [
        32.968590000000006,
        34.98196
      ],
      [
        32.96878,
        34.98198
      ],
      [
        32.968720000000005,
        34.982020000000006
      ],
      [
        32.96862,
        34.98201
      ],
      [
        32.968590000000006,
        34.982040000000005
      ],
      [
        32.96846,
        34.9821
      ],
      [
        32.96849,
        34.98212
      ],
      [
        32.96862,
        34.982150000000004
      ],
      [
        32.968560000000004,
        34.98217
      ],
      [
        32.9686,
        34.98221
      ],
      [
        32.96857,
        34.982260000000004
      ],
      [
        32.96808,
        34.982290000000006
      ],
      [
        32.968070000000004,
        34.98234
      ],
      [
        32.968230000000005,
        34.982470000000006
      ],
      [
        32.968180000000004,
        34.98254
      ],
      [
        32.96817,
        34.982600000000005
      ],
      [
        32.96822,
        34.98263
      ],
      [
        32.96828,
        34.98272
      ],
      [
        32.96829,
        34.98279
      ],
      [
        32.968230000000005,
        34.983050000000006
      ],
      [
        32.96819,
        34.98313
      ],
      [
        32.96802,
        34.983290000000004
      ],
      [
        32.967980000000004,
        34.98337
      ],
      [
        32.967940000000006,
        34.98351
      ],
      [
        32.96797,
        34.983630000000005
      ],
      [
        32.96802,
        34.98371
      ],
      [
        32.9682,
        34.983880000000006
      ],
      [
        32.96828,
        34.98407
      ],
      [
        32.96828,
        34.98424
      ],
      [
        32.968140000000005,
        34.984260000000006
      ],
      [
        32.96804,
        34.984230000000004
      ],
      [
        32.9679,
        34.98425
      ],
      [
        32.967760000000006,
        34.984230000000004
      ],
      [
        32.96752,
        34.98409
      ],
      [
        32.96726,
        34.98387
      ],
      [
        32.96717,
        34.983830000000005
      ],
      [
        32.96705,
        34.983830000000005
      ],
      [
        32.967000000000006,
        34.98386
      ],
      [
        32.96678,
        34.98389
      ],
      [
        32.96634,
        34.98382
      ],
      [
        32.96605,
        34.98384
      ],
      [
        32.965970000000006,
        34.983900000000006
      ],
      [
        32.965830000000004,
        34.984080000000006
      ],
      [
        32.96575,
        34.98415
      ],
      [
        32.96567,
        34.98429
      ],
      [
        32.9656,
        34.984350000000006
      ],
      [
        32.9652,
        34.98431
      ],
      [
        32.96508,
        34.98425
      ],
      [
        32.96479,
        34.98415
      ],
      [
        32.96457,
        34.98398
      ],
      [
        32.9645,
        34.98397
      ],
      [
        32.964270000000006,
        34.984030000000004
      ],
      [
        32.96416,
        34.98413
      ],
      [
        32.964090000000006,
        34.98416
      ],
      [
        32.963730000000005,
        34.983940000000004
      ],
      [
        32.963260000000005,
        34.9836
      ],
      [
        32.96314,
        34.983560000000004
      ],
      [
        32.96304,
        34.98357
      ],
      [
        32.96294,
        34.983650000000004
      ],
      [
        32.96282,
        34.983700000000006
      ],
      [
        32.962680000000006,
        34.983720000000005
      ],
      [
        32.96235,
        34.983670000000004
      ],
      [
        32.962180000000004,
        34.983540000000005
      ],
      [
        32.96206,
        34.98339
      ],
      [
        32.96193,
        34.98331
      ],
      [
        32.96192,
        34.98331
      ],
      [
        32.96184,
        34.98331
      ],
      [
        32.961740000000006,
        34.983340000000005
      ],
      [
        32.96145,
        34.9836
      ],
      [
        32.961380000000005,
        34.98369
      ],
      [
        32.9613,
        34.983720000000005
      ],
      [
        32.96094,
        34.98358
      ],
      [
        32.960620000000006,
        34.9835
      ],
      [
        32.96051,
        34.98342
      ],
      [
        32.96051,
        34.9833
      ],
      [
        32.960460000000005,
        34.98319
      ],
      [
        32.96032,
        34.983140000000006
      ],
      [
        32.9602,
        34.982870000000005
      ],
      [
        32.960300000000004,
        34.982820000000004
      ],
      [
        32.96041,
        34.98286
      ],
      [
        32.961000000000006,
        34.983160000000005
      ],
      [
        32.96112,
        34.983180000000004
      ],
      [
        32.96119,
        34.98311
      ],
      [
        32.961290000000005,
        34.982760000000006
      ],
      [
        32.961380000000005,
        34.982710000000004
      ],
      [
        32.96217,
        34.982670000000006
      ],
      [
        32.962680000000006,
        34.98254
      ],
      [
        32.962970000000006,
        34.982310000000005
      ],
      [
        32.96325,
        34.98225
      ],
      [
        32.963730000000005,
        34.982290000000006
      ],
      [
        32.96412,
        34.98212
      ],
      [
        32.964200000000005,
        34.982060000000004
      ],
      [
        32.964180000000006,
        34.98199
      ],
      [
        32.963860000000004,
        34.982130000000005
      ],
      [
        32.96372,
        34.98214
      ],
      [
        32.963460000000005,
        34.98207
      ],
      [
        32.96311,
        34.981950000000005
      ],
      [
        32.962250000000004,
        34.982130000000005
      ],
      [
        32.961670000000005,
        34.98207
      ],
      [
        32.961490000000005,
        34.981930000000006
      ],
      [
        32.961330000000004,
        34.981860000000005
      ],
      [
        32.96117,
        34.98189
      ],
      [
        32.96074,
        34.981820000000006
      ],
      [
        32.960530000000006,
        34.98165
      ],
      [
        32.96042,
        34.9812
      ],
      [
        32.960100000000004,
        34.981010000000005
      ],
      [
        32.96,
        34.98102
      ],
      [
        32.959270000000004,
        34.98136
      ],
      [
        32.95915,
        34.98136
      ],
      [
        32.95844,
        34.98114
      ],
      [
        32.958180000000006,
        34.98138
      ],
      [
        32.957890000000006,
        34.98147
      ],
      [
        32.95785,
        34.98153
      ],
      [
        32.95779,
        34.98172
      ],
      [
        32.95767,
        34.98185
      ],
      [
        32.95767,
        34.98212
      ],
      [
        32.95758,
        34.98221
      ],
      [
        32.9575,
        34.98216
      ],
      [
        32.957190000000004,
        34.98183
      ],
      [
        32.95687,
        34.98165
      ],
      [
        32.956830000000004,
        34.981680000000004
      ],
      [
        32.95656,
        34.981570000000005
      ],
      [
        32.95629,
        34.981390000000005
      ],
      [
        32.95618,
        34.98134
      ],
      [
        32.95570500144985,
        34.9816300010668
      ],
      [
        32.95523,
        34.98192
      ],
      [
        32.95512,
        34.98203
      ],
      [
        32.95483,
        34.98227
      ],
      [
        32.954730000000005,
        34.98228
      ],
      [
        32.95465,
        34.982260000000004
      ],
      [
        32.954510000000006,
        34.982260000000004
      ],
      [
        32.95438,
        34.9823
      ],
      [
        32.9542,
        34.9823
      ],
      [
        32.95407,
        34.982330000000005
      ],
      [
        32.953970000000005,
        34.982380000000006
      ],
      [
        32.9538,
        34.98245
      ],
      [
        32.95347,
        34.98246
      ],
      [
        32.952960000000004,
        34.982600000000005
      ],
      [
        32.95286,
        34.98266
      ],
      [
        32.95273,
        34.982780000000005
      ],
      [
        32.95266,
        34.98295
      ],
      [
        32.95259,
        34.98302
      ],
      [
        32.95243,
        34.98308
      ],
      [
        32.95237,
        34.98312
      ],
      [
        32.952360000000006,
        34.983270000000005
      ],
      [
        32.952290000000005,
        34.983410000000006
      ],
      [
        32.95219,
        34.983470000000004
      ],
      [
        32.952130000000004,
        34.98355
      ],
      [
        32.95203,
        34.98364
      ],
      [
        32.95199,
        34.983720000000005
      ],
      [
        32.95201,
        34.983900000000006
      ],
      [
        32.952110000000005,
        34.98395
      ],
      [
        32.952220000000004,
        34.984190000000005
      ],
      [
        32.95217,
        34.9844
      ],
      [
        32.95217,
        34.98452
      ],
      [
        32.952200000000005,
        34.984640000000006
      ],
      [
        32.952180000000006,
        34.984700000000004
      ],
      [
        32.95212,
        34.984770000000005
      ],
      [
        32.95199,
        34.98481
      ],
      [
        32.95181,
        34.98481
      ],
      [
        32.95172,
        34.984910000000006
      ],
      [
        32.9517,
        34.98499
      ],
      [
        32.951640000000005,
        34.985060000000004
      ],
      [
        32.95154,
        34.98539
      ],
      [
        32.95138,
        34.98561
      ],
      [
        32.951330000000006,
        34.98599
      ],
      [
        32.951170000000005,
        34.986450000000005
      ],
      [
        32.951080000000005,
        34.98662
      ],
      [
        32.95091,
        34.986830000000005
      ],
      [
        32.950720000000004,
        34.987120000000004
      ],
      [
        32.95049,
        34.98722
      ],
      [
        32.95033,
        34.987260000000006
      ],
      [
        32.950230000000005,
        34.987320000000004
      ],
      [
        32.95013,
        34.987460000000006
      ],
      [
        32.95009,
        34.98758
      ],
      [
        32.949830000000006,
        34.98767
      ],
      [
        32.94959,
        34.988220000000005
      ],
      [
        32.94972,
        34.988890000000005
      ],
      [
        32.94972,
        34.98888
      ],
      [
        32.94977,
        34.989090000000004
      ],
      [
        32.9498,
        34.98948
      ],
      [
        32.949920000000006,
        34.98962
      ],
      [
        32.94991,
        34.989850000000004
      ],
      [
        32.950160000000004,
        34.99004
      ],
      [
        32.95037,
        34.99034
      ],
      [
        32.95055,
        34.99047
      ],
      [
        32.95082,
        34.99071
      ]
    ]
  }
}