{
  "type": "FeatureCollection",
  "generator": "overpass-turbo",
  "copyright": "The data included in this document is from www.openstreetmap.org. The data is made available under ODbL.",
  "timestamp": "2026-08-26T22:20:22Z",
  "features": [
    {
      "type": "Feature",
      "properties": {
        "@id": "way/745209676",
        "leisure": "park"
      },
      "geometry": {
        "type": "Polygon",
        "coordinates": [
          [
            [
              33.2688736,
              35.0787841
            ],
            [
              33.2684376,
              35.0786778
            ],
            [
              33.2683668,
              35.0782129
            ],
            [
              33.2684589,
              35.0780956
            ],
            [
              33.2688924,
              35.0780797
            ],
            [
              33.2688736,
              35.0787841
            ]
          ]
        ]
      },
      "id": "way/745209676"
    }
  ]
}