{
  "type": "Feature",
  "properties": {},
  "geometry": {
    "type": "LineString",
    "coordinates": [
      [
        32.86849,
        34.895900000000005
      ],
      [
        32.86822,
        34.89669
      ],
      [
        32.86826,
        34.897110000000005
      ],
      [
        32.868230000000004,
        34.89723
      ],
      [
        32.86817,
        34.897760000000005
      ],
      [
        32.868050000000004,
        34.897890000000004
      ],
      [
        32.86779,
        34.89837
      ],
      [
        32.86755,
        34.898630000000004
      ],
      [
        32.867140000000006,
        34.898880000000005
      ],
      [
        32.86708,
        34.899
      ],
      [
        32.867160000000005,
        34.899060000000006
      ],
      [
        32.867540000000005,
        34.89907
      ],
      [
        32.867830000000005,
        34.899240000000006
      ],
      [
        32.868120000000005,
        34.899350000000005
      ],
      [
        32.86827,
        34.89945
      ],
      [
        32.86844,
        34.89951
      ],
      [
        32.868460000000006,
        34.899640000000005
      ],
      [
        32.868430000000004,
        34.899770000000004
      ],
      [
        32.86833,
        34.8999
      ],
      [
        32.8684,
        34.90021
      ],
      [
        32.86849,
        34.900380000000006
      ],
      [
        32.86865,
        34.900420000000004
      ],
      [
        32.8688,
        34.90043
      ],
      [
        32.86891,
        34.90039
      ],
      [
        32.86927,
        34.90016
      ],
      [
        32.869490000000006,
        34.900110000000005
      ],
      [
        32.86952,
        34.90003
      ],
      [
        32.8697,
        34.89998
      ],
      [
        32.869820000000004,
        34.90003
      ],
      [
        32.86985,
        34.90008
      ],
      [
        32.86995,
        34.90014
      ],
      [
        32.8701,
        34.900090000000006
      ],
      [
        32.87014,
        34.9001
      ],
      [
        32.870200000000004,
        34.90005
      ],
      [
        32.870400000000004,
        34.900110000000005
      ],
      [
        32.870450000000005,
        34.90021
      ],
      [
        32.870580000000004,
        34.900220000000004
      ],
      [
        32.87068,
        34.9003
      ],
      [
        32.870670000000004,
        34.900470000000006
      ],
      [
        32.870920000000005,
        34.9007
      ],
      [
        32.87095,
        34.90075
      ],
      [
        32.87102,
        34.90079
      ],
      [
        32.871030000000005,
        34.90093
      ],
      [
        32.871010000000005,
        34.9011
      ],
      [
        32.871030000000005,
        34.901180000000004
      ],
      [
        32.871,
        34.90135
      ],
      [
        32.870940000000004,
        34.901390000000006
      ],
      [
        32.870900000000006,
        34.90153
      ],
      [
        32.870940000000004,
        34.90158
      ],
      [
        32.870990000000006,
        34.9016
      ],
      [
        32.870990000000006,
        34.90187
      ],
      [
        32.870920000000005,
        34.902010000000004
      ],
      [
        32.87089,
        34.902190000000004
      ],
      [
        32.87091,
        34.902330000000006
      ],
      [
        32.870960000000004,
        34.902370000000005
      ],
      [
        32.870920000000005,
        34.90261
      ],
      [
        32.87066,
        34.90272
      ],
      [
        32.87032,
        34.90281
      ],
      [
        32.87008,
        34.90289
      ],
      [
        32.87001,
        34.902820000000006
      ],
      [
        32.8699,
        34.90287
      ],
      [
        32.869890000000005,
        34.90297
      ],
      [
        32.869800000000005,
        34.903020000000005
      ],
      [
        32.869690000000006,
        34.903020000000005
      ],
      [
        32.869600000000005,
        34.903180000000006
      ],
      [
        32.86963,
        34.90334
      ],
      [
        32.869690000000006,
        34.90337
      ],
      [
        32.8697,
        34.90346
      ],
      [
        32.86963,
        34.903620000000004
      ],
      [
        32.86963,
        34.90368
      ],
      [
        32.86957,
        34.903650000000006
      ],
      [
        32.869460000000004,
        34.903760000000005
      ],
      [
        32.869400000000006,
        34.903760000000005
      ],
      [
        32.8693,
        34.903800000000004
      ],
      [
        32.86929,
        34.90393
      ],
      [
        32.869170000000004,
        34.904030000000006
      ],
      [
        32.869260000000004,
        34.904450000000004
      ],
      [
        32.869240000000005,
        34.90458
      ],
      [
        32.869260000000004,
        34.904680000000006
      ],
      [
        32.86914,
        34.904770000000006
      ],
      [
        32.86909,
        34.904900000000005
      ],
      [
        32.86891,
        34.90504
      ],
      [
        32.868840000000006,
        34.90513
      ],
      [
        32.86871,
        34.90518
      ],
      [
        32.868660000000006,
        34.90523
      ],
      [
        32.86865,
        34.90529
      ],
      [
        32.868590000000005,
        34.90534
      ],
      [
        32.8686,
        34.905390000000004
      ],
      [
        32.86854,
        34.90545
      ],
      [
        32.86847,
        34.90547
      ],
      [
        32.86826,
        34.90545
      ],
      [
        32.868030000000005,
        34.905570000000004
      ],
      [
        32.86787,
        34.9057
      ],
      [
        32.86779,
        34.90592
      ],
      [
        32.8678,
        34.9061
      ],
      [
        32.86787,
        34.906200000000005
      ],
      [
        32.867850000000004,
        34.90639
      ],
      [
        32.86791,
        34.906490000000005
      ],
      [
        32.86802,
        34.90659
      ],
      [
        32.86798,
        34.90675
      ],
      [
        32.86797,
        34.90688
      ],
      [
        32.867940000000004,
        34.906960000000005
      ],
      [
        32.86788,
        34.907030000000006
      ],
      [
        32.86786,
        34.90713
      ],
      [
        32.86786,
        34.90726
      ],
      [
        32.86788,
        34.90738
      ],
      [
        32.86795,
        34.907430000000005
      ],
      [
        32.86793,
        34.90749
      ],
      [
        32.868010000000005,
        34.90751
      ],
      [
        32.867990000000006,
        34.90773
      ],
      [
        32.868140000000004,
        34.908100000000005
      ],
      [
        32.86817,
        34.908460000000005
      ],
      [
        32.86811,
        34.908590000000004
      ],
      [
        32.86815,
        34.90879
      ],
      [
        32.868120000000005,
        34.90883
      ],
      [
        32.86827,
        34.909180000000006
      ],
      [
        32.868410000000004,
        34.909290000000006
      ],
      [
        32.86845,
        34.90935
      ],
      [
        32.86853,
        34.909400000000005
      ],
      [
        32.868660000000006,
        34.90957
      ],
      [
        32.868750000000006,
        34.90955
      ],
      [
        32.86883,
        34.90957
      ],
      [
        32.86889,
        34.90964
      ],
      [
        32.86901,
        34.909620000000004
      ],
      [
        32.869020000000006,
        34.909670000000006
      ],
      [
        32.86907,
        34.90975
      ],
      [
        32.86914,
        34.90979
      ],
      [
        32.869220000000006,
        34.91002
      ],
      [
        32.86945,
        34.91015
      ],
      [
        32.869530000000005,
        34.910180000000004
      ],
      [
        32.869600000000005,
        34.9103
      ],
      [
        32.869600000000005,
        34.91037
      ],
      [
        32.8695,
        34.91053
      ],
      [
        32.86941,
        34.91051
      ],
      [
        32.86937,
        34.91071
      ],
      [
        32.86929,
        34.91095
      ],
      [
        32.86901,
        34.91127
      ],
      [
        32.868990000000004,
        34.91134
      ],
      [
        32.86907,
        34.911530000000006
      ],
      [
        32.8692,
        34.911680000000004
      ],
      [
        32.869330000000005,
        34.91165
      ],
      [
        32.86939,
        34.91176
      ],
      [
        32.869420000000005,
        34.91192
      ],
      [
        32.86939,
        34.912020000000005
      ],
      [
        32.86932,
        34.912060000000004
      ],
      [
        32.86932,
        34.91257
      ],
      [
        32.86929,
        34.91275
      ],
      [
        32.869350000000004,
        34.913160000000005
      ],
      [
        32.86945,
        34.91339
      ],
      [
        32.86981,
        34.913560000000004
      ],
      [
        32.869930000000004,
        34.91369
      ],
      [
        32.87015,
        34.914100000000005
      ],
      [
        32.87033,
        34.91436
      ],
      [
        32.870490000000004,
        34.91485
      ]
    ]
  }
}