{
  "type": "Feature",
  "properties": {},
  "geometry": {
    "type": "LineString",
    "coordinates": [
      [
        32.96298,
        34.955760000000005
      ],
      [
        32.963080000000005,
        34.955760000000005
      ],
      [
        32.96327,
        34.9559
      ],
      [
        32.96354,
        34.95584
      ],
      [
        32.96354,
        34.95582
      ],
      [
        32.963480000000004,
        34.95575
      ],
      [
        32.96356,
        34.95573
      ],
      [
        32.96351,
        34.95553
      ],
      [
        32.96354,
        34.955470000000005
      ],
      [
        32.96387,
        34.95564
      ],
      [
        32.96388,
        34.95562
      ],
      [
        32.963840000000005,
        34.95555
      ],
      [
        32.96387,
        34.95546
      ],
      [
        32.96392,
        34.955420000000004
      ],
      [
        32.96416,
        34.95535
      ],
      [
        32.96419,
        34.955360000000006
      ],
      [
        32.96416,
        34.95546
      ],
      [
        32.96419,
        34.9555
      ],
      [
        32.96428,
        34.95555
      ],
      [
        32.964510000000004,
        34.95559
      ],
      [
        32.9645,
        34.9555
      ],
      [
        32.964670000000005,
        34.9555
      ],
      [
        32.96463,
        34.95541
      ],
      [
        32.96464,
        34.95539
      ],
      [
        32.964670000000005,
        34.955380000000005
      ],
      [
        32.96482,
        34.95544
      ],
      [
        32.964850000000006,
        34.955400000000004
      ],
      [
        32.96497,
        34.955450000000006
      ],
      [
        32.9651,
        34.95546
      ],
      [
        32.96522,
        34.955490000000005
      ],
      [
        32.96539,
        34.95541
      ],
      [
        32.965540000000004,
        34.95537
      ],
      [
        32.96569,
        34.955290000000005
      ],
      [
        32.965810000000005,
        34.955270000000006
      ],
      [
        32.966010000000004,
        34.955270000000006
      ],
      [
        32.96616,
        34.955310000000004
      ],
      [
        32.96645,
        34.955330000000004
      ],
      [
        32.966640000000005,
        34.955290000000005
      ],
      [
        32.966770000000004,
        34.95532
      ],
      [
        32.96689,
        34.955380000000005
      ],
      [
        32.96701,
        34.955560000000006
      ],
      [
        32.967110000000005,
        34.955580000000005
      ],
      [
        32.96725,
        34.955490000000005
      ],
      [
        32.96745,
        34.95548
      ],
      [
        32.967760000000006,
        34.95552
      ],
      [
        32.96788,
        34.9555
      ],
      [
        32.96793,
        34.955510000000004
      ],
      [
        32.96802,
        34.955780000000004
      ],
      [
        32.968050000000005,
        34.95579
      ],
      [
        32.968160000000005,
        34.95566
      ],
      [
        32.96829,
        34.95563
      ],
      [
        32.968360000000004,
        34.95559
      ],
      [
        32.968430000000005,
        34.95564
      ],
      [
        32.96846,
        34.95572
      ],
      [
        32.968500000000006,
        34.955740000000006
      ],
      [
        32.96855,
        34.955670000000005
      ],
      [
        32.968700000000005,
        34.95566
      ],
      [
        32.96876,
        34.95564
      ],
      [
        32.969060000000006,
        34.955450000000006
      ],
      [
        32.96949,
        34.955330000000004
      ],
      [
        32.969640000000005,
        34.95525
      ],
      [
        32.969640000000005,
        34.95516
      ],
      [
        32.96967,
        34.955090000000006
      ],
      [
        32.969770000000004,
        34.955000000000005
      ],
      [
        32.96979,
        34.95492
      ],
      [
        32.9699,
        34.95483
      ],
      [
        32.970150000000004,
        34.954480000000004
      ],
      [
        32.9703,
        34.954370000000004
      ],
      [
        32.970530000000004,
        34.954240000000006
      ],
      [
        32.97074,
        34.954170000000005
      ],
      [
        32.97115,
        34.954130000000006
      ],
      [
        32.971250000000005,
        34.95409
      ],
      [
        32.971320000000006,
        34.953990000000005
      ],
      [
        32.97137,
        34.95382
      ],
      [
        32.97138,
        34.95369
      ],
      [
        32.97144,
        34.953540000000004
      ],
      [
        32.971430000000005,
        34.95346
      ],
      [
        32.97202,
        34.953120000000006
      ],
      [
        32.972120000000004,
        34.95313
      ],
      [
        32.972590000000004,
        34.953010000000006
      ],
      [
        32.97279,
        34.95308
      ],
      [
        32.97292,
        34.95329
      ],
      [
        32.97318,
        34.95355
      ],
      [
        32.97336,
        34.95367
      ],
      [
        32.973420000000004,
        34.95374
      ],
      [
        32.97348,
        34.953770000000006
      ],
      [
        32.973760000000006,
        34.95383
      ],
      [
        32.973850000000006,
        34.9538
      ],
      [
        32.974270000000004,
        34.9538
      ],
      [
        32.974560000000004,
        34.953860000000006
      ],
      [
        32.974810000000005,
        34.95385
      ],
      [
        32.974970000000006,
        34.953880000000005
      ],
      [
        32.9757,
        34.95375
      ],
      [
        32.9761,
        34.95369
      ],
      [
        32.97661,
        34.953520000000005
      ],
      [
        32.9767,
        34.953520000000005
      ],
      [
        32.976760000000006,
        34.953540000000004
      ],
      [
        32.9769,
        34.953660000000006
      ],
      [
        32.97711,
        34.95389
      ],
      [
        32.97726,
        34.95394
      ],
      [
        32.97748,
        34.953900000000004
      ],
      [
        32.977940000000004,
        34.95396
      ],
      [
        32.978300000000004,
        34.953970000000005
      ],
      [
        32.97853,
        34.95396
      ],
      [
        32.97869,
        34.953920000000004
      ],
      [
        32.9791,
        34.954170000000005
      ],
      [
        32.979670000000006,
        34.954390000000004
      ],
      [
        32.979890000000005,
        34.95434
      ],
      [
        32.979940000000006,
        34.95427
      ],
      [
        32.980250000000005,
        34.95423
      ],
      [
        32.980540000000005,
        34.95445
      ],
      [
        32.98145,
        34.954730000000005
      ],
      [
        32.981640000000006,
        34.95488
      ],
      [
        32.98176,
        34.955040000000004
      ],
      [
        32.981930000000006,
        34.95512
      ],
      [
        32.98218,
        34.955180000000006
      ],
      [
        32.98297,
        34.9551
      ],
      [
        32.98312,
        34.95512
      ],
      [
        32.98348,
        34.95501
      ],
      [
        32.98384,
        34.954860000000004
      ],
      [
        32.983900000000006,
        34.95476
      ],
      [
        32.98433,
        34.95454
      ],
      [
        32.98454,
        34.9545
      ],
      [
        32.984640000000006,
        34.95445
      ],
      [
        32.984790000000004,
        34.954330000000006
      ],
      [
        32.984840000000005,
        34.9542
      ],
      [
        32.98503,
        34.95411
      ],
      [
        32.98519,
        34.954
      ],
      [
        32.98574,
        34.95394
      ],
      [
        32.985870000000006,
        34.95396
      ],
      [
        32.98586,
        34.953920000000004
      ],
      [
        32.985730000000004,
        34.95383
      ],
      [
        32.985800000000005,
        34.95382
      ],
      [
        32.986050000000006,
        34.95387
      ],
      [
        32.986200000000004,
        34.95398
      ],
      [
        32.986250000000005,
        34.95387
      ],
      [
        32.98639,
        34.95396
      ],
      [
        32.98642,
        34.953950000000006
      ],
      [
        32.986430000000006,
        34.95385
      ],
      [
        32.986850000000004,
        34.95393
      ],
      [
        32.98706,
        34.95393
      ],
      [
        32.98713,
        34.95398
      ],
      [
        32.98762,
        34.95407
      ],
      [
        32.98791,
        34.954240000000006
      ],
      [
        32.98798,
        34.95425
      ],
      [
        32.988020000000006,
        34.95429
      ],
      [
        32.98816,
        34.95431
      ],
      [
        32.988330000000005,
        34.954480000000004
      ],
      [
        32.988400000000006,
        34.954510000000006
      ],
      [
        32.98881,
        34.95449
      ],
      [
        32.98908,
        34.954530000000005
      ],
      [
        32.98919,
        34.954510000000006
      ],
      [
        32.989250000000006,
        34.95452
      ],
      [
        32.98937,
        34.95459
      ],
      [
        32.989580000000004,
        34.95477
      ],
      [
        32.98973,
        34.954860000000004
      ],
      [
        32.989900000000006,
        34.9549
      ],
      [
        32.99009,
        34.954890000000006
      ],
      [
        32.99025,
        34.95485
      ],
      [
        32.990750000000006,
        34.954860000000004
      ],
      [
        32.99082,
        34.954840000000004
      ],
      [
        32.990970000000004,
        34.95483
      ],
      [
        32.9911,
        34.95488
      ],
      [
        32.99121,
        34.954980000000006
      ],
      [
        32.99132,
        34.955040000000004
      ],
      [
        32.99143,
        34.955070000000006
      ],
      [
        32.99166,
        34.955180000000006
      ],
      [
        32.991730000000004,
        34.95525
      ],
      [
        32.99181,
        34.955270000000006
      ],
      [
        32.99222,
        34.955220000000004
      ],
      [
        32.992270000000005,
        34.95519
      ],
      [
        32.99304,
        34.95525
      ],
      [
        32.993320000000004,
        34.95523
      ],
      [
        32.993680000000005,
        34.95534
      ],
      [
        32.99389,
        34.955360000000006
      ],
      [
        32.994080000000004,
        34.95544
      ],
      [
        32.99416,
        34.95544
      ],
      [
        32.994310000000006,
        34.955490000000005
      ],
      [
        32.994580000000006,
        34.95563
      ],
      [
        32.99466,
        34.955740000000006
      ],
      [
        32.99475,
        34.95582
      ],
      [
        32.99488,
        34.95586
      ],
      [
        32.99501,
        34.95597
      ],
      [
        32.995110000000004,
        34.956
      ],
      [
        32.99512,
        34.956010000000006
      ],
      [
        32.995070000000005,
        34.95602
      ],
      [
        32.995110000000004,
        34.95609
      ],
      [
        32.99522,
        34.95613
      ]
    ]
  }
}