{"type":"FeatureCollection","features":[{"type":"Feature","id":1022843,"geometry":{"type":"Polygon","coordinates":[[[33.036531256999979,35.000775243000021],[33.036509951000028,35.00041498600001],[33.036512957000014,35.000265866000007],[33.036530975000005,35.000141626000016],[33.036570249000022,35.000064620999979],[33.036718198000017,34.999915457999975],[33.036971774999984,34.999751478000007],[33.037143784000023,34.999656942000001],[33.037415532000011,34.999512788999994],[33.037750644000027,34.999413333000007],[33.037989009,34.999385851],[33.038381615999981,34.999341011000013],[33.038712347000001,34.999348297999973],[33.038716776000001,34.999348386999998],[33.039130479999983,34.999395495999977],[33.03919003499999,34.999406835999991],[33.039701266000009,34.999504580000007],[33.039879395000014,34.999551763999989],[33.040057617000002,34.999603905000015],[33.040284223000015,34.999737981999999],[33.040549866999982,34.999869520999994],[33.040803499999981,35.000016030999973],[33.041039247000015,35.000172551999981],[33.041108597000004,35.000253488999988],[33.041277857000011,35.000450692000015],[33.041382121000026,35.000598513],[33.041398759999993,35.000622127999975],[33.041492504000018,35.000873001000002],[33.041538059000004,35.001074303999985],[33.04156513800001,35.001193479999984],[33.041568086999973,35.001305362999972],[33.041652955000018,35.001690391000011],[33.041704535000008,35.002187312999979],[33.041692506000004,35.002346353000007],[33.041698606000011,35.002614654000013],[33.04168976699998,35.002825893000022],[33.041647543000011,35.002960058999975],[33.041575126999987,35.003074403000028],[33.041421188000015,35.003168847999973],[33.041303475000007,35.003238489000012],[33.041170586000021,35.003320486000007],[33.040983607999976,35.003486977000023],[33.04085977699998,35.003613777999988],[33.040769209000018,35.003755443999978],[33.040726975999974,35.003874734000021],[33.040730100000019,35.003979044000005],[33.040748209000014,35.004051071999982],[33.040784379999991,35.004098301999989],[33.040902270999993,35.004200138999977],[33.041014105999977,35.004299451999998],[33.041122879999989,35.004421217000015],[33.041144068999984,35.004505685000026],[33.041153189999989,35.004674635000015],[33.041135252999993,35.004945469000006],[33.041117249000024,35.00526597999999],[33.041108280000003,35.005402659000026],[33.041069130999972,35.005546741999979],[33.041020880000019,35.005740592999985],[33.041026897999984,35.005847426999992],[33.041066344000001,35.00611571799999],[33.041114713000013,35.006339287999992],[33.041199361999986,35.006642452999984],[33.041281099999992,35.006908205999991],[33.041323476999992,35.007074708999994],[33.041302394000013,35.00720138600002],[33.041284351000002,35.007263508999984],[33.041196839999998,35.007380381000019],[33.041036798999983,35.007577695999998],[33.040928238999982,35.007710893000024],[33.040801456999986,35.007914688000028],[33.040677807000009,35.008056365000016],[33.040593360000003,35.008160702999987],[33.040563120000002,35.008230314000002],[33.040554034000024,35.008314793000011],[33.040584254999999,35.008389341999987],[33.040599455999995,35.008426570999973],[33.040612936000002,35.008456409000019],[33.040653829999997,35.008545829000013],[33.040715707999993,35.008675002000018],[33.040732444000014,35.008709796999995],[33.040801950000002,35.008908476999977],[33.040850386999978,35.00908489599999],[33.040883719000021,35.009231478999993],[33.04089571999998,35.00937806799999],[33.040898884000001,35.009559459999991],[33.040899066999998,35.009564419000014],[33.040889869000011,35.009606614999996],[33.040865758999985,35.009643946999972],[33.040802405000022,35.009822837999991],[33.040748145999999,35.009937174000015],[33.040699776999986,35.010083784000017],[33.04060629899999,35.010205525000003],[33.040449421999995,35.010416813000006],[33.04034980199998,35.010546039000019],[33.040235069999994,35.010638036999978],[33.040044792999993,35.010747369000001],[33.03986977400001,35.010826943999973],[33.039685635000012,35.010923922000018],[33.039453161999973,35.011055624999983],[33.039329457000008,35.011097948999975],[33.039084747000004,35.011157620999995],[33.038858295000011,35.011222335000014],[33.038601658999994,35.011289492999992],[33.038453542000013,35.011309374999996],[33.038263398000026,35.011324399999978],[33.037985608999975,35.011386604999984],[33.037707823999995,35.011453768000024],[33.037599105000027,35.011463718000016],[33.037354487000016,35.011530869000012],[33.03707370799998,35.011578197999995],[33.036850216000005,35.011598100000015],[33.03648782099998,35.011630575000027],[33.036207026,35.01164057699998],[33.035784266999997,35.011692902999982],[33.035753625999973,35.011686058999999],[33.03552748200002,35.011635818999991],[33.035298022000006,35.011650761999988],[33.035098651999988,35.01165081900001],[33.034896385000025,35.011640960000022],[33.034712105999972,35.011641012999974],[33.034576352999977,35.011621128000002],[33.034358882999982,35.011564030999978],[33.034183724000002,35.011541722000004],[33.034020484999985,35.011497050000003],[33.033872525999982,35.011462381000001],[33.033851374999983,35.011457339000003],[33.033825432000015,35.011442921000025],[33.033748683999988,35.011400298000012],[33.033582524999986,35.011286026999983],[33.033362028999989,35.011114611999972],[33.033207993000019,35.011027743],[33.033117332000018,35.010995401999992],[33.032970739999996,35.01098822900002],[33.032966311999985,35.01098804999998],[33.032827328999986,35.011025323000013],[33.032564648999994,35.010908641000015],[33.032407626999998,35.010804281999981],[33.032286737999982,35.010660245999986],[33.032235472000025,35.010603010000011],[33.032159884999999,35.010518644000001],[33.032120533000011,35.010419302999992],[33.032060098999978,35.010257759000012],[33.032002651000028,35.010101264000014],[33.031973244000028,35.010012829000004],[33.031957229,35.009964599999989],[33.031930052000007,35.009798178999972],[33.031881511999984,35.009308734999991],[33.031863298000019,35.008950910999999],[33.031851130999996,35.008804321000014],[33.031802814000002,35.00865530599998],[33.03182984099999,35.008434146000013],[33.031835759999979,35.008086322999986],[33.031926198000008,35.007556723999983],[33.031971401000021,35.007365761000017],[33.032025660999977,35.007229069999994],[33.032113176999985,35.007092370999999],[33.032206760999998,35.006985510999982],[33.032327629000008,35.006861243999992],[33.03259923600001,35.006739460999995],[33.032940422000024,35.006600167999977],[33.03313360300001,35.006520689000013],[33.033390299000018,35.006401342000004],[33.033683127000018,35.006244659000004],[33.033994102999998,35.006053262000023],[33.034139025000002,35.005976228000009],[33.03422955000002,35.005911651000019],[33.034326183000019,35.005762505000007],[33.034482947000015,35.005479191999996],[33.034513140000001,35.005285436999998],[33.034476820999998,35.005094137000015],[33.034416373999989,35.004902843000025],[33.034398732999989,35.004857318999996],[33.034371050000004,35.004786013],[33.034304802000008,35.004551806999984],[33.034274303000018,35.004443177999974],[33.034254927000006,35.004353748000028],[33.034219796000002,35.004192289000002],[33.034222676000013,35.003946252999981],[33.034246911000025,35.003767375999985],[33.034319188999973,35.003513926999972],[33.034424718000025,35.003248026999984],[33.034524304000001,35.003034329000002],[33.034632923999993,35.002818193999985],[33.034741579000013,35.002683921000028],[33.034883395000008,35.002544769999986],[33.035242681999989,35.002308636999999],[33.035680386000024,35.002030198],[33.035816350000005,35.001945680999995],[33.036105935000023,35.001654932000008],[33.036347450999983,35.001381508000009],[33.036495291999984,35.001182759000017],[33.036546563000002,35.001055984000004],[33.036531256999979,35.000775243000021]]]},"properties":{"objectid":1022843,"site_id":344564,"site_pid":"344564","site_type":"PA","name_eng":"Ydatofraxtis Xyliatou","name":"Ydatofraxtis Xyliatou","desig":"Προστατευόμενα Τοπία","desig_eng":"Protected Landscape","desig_type":"National","iucn_cat":"V","int_crit":"Not Applicable","realm":"Terrestrial","rep_m_area":0,"gis_m_area":0,"rep_area":0.85809433000000013,"gis_area":0.85809433000000013,"no_take":"Not Applicable","no_tk_area":0,"status":"Designated","status_yr":1990,"gov_type":"Federal or national ministry or agency","verif":"State Verified","inlnd_wtrs":"Not Reported","own_type":"Not Reported","mang_auth":"Department of Town Planning and Housing","mang_plan":"Not Reported","cons_obj":"Not Applicable","supp_info":"Not Applicable","metadataid":2013,"prnt_iso3":"CYP","iso3":"CYP","govsubtype":"Not Applicable","ownsubtype":"Not Applicable","oecm_asmt":"Not Applicable","Shape__Area":8.4734810882239494e-05,"Shape__Length":0.038131324880568619}}]}