{
  "type": "FeatureCollection",
  "generator": "overpass-turbo",
  "copyright": "The data included in this document is from www.openstreetmap.org. The data is made available under ODbL.",
  "timestamp": "2026-09-01T20:43:59Z",
  "features": [
    {
      "type": "Feature",
      "properties": {
        "@id": "way/22634563",
        "alt_name": "ΚΗΠΟΣ ΤΗΣ ΕΙΡΗΝΗΣ",
        "alt_name:en": "Nicosia Municipal Park;THE GARDEN OF PEACE",
        "alt_name:es": "El jardín de la Paz",
        "alt_name:tr": "BARIŞIN BAHÇESİ",
        "leisure": "park",
        "name": "Δημοτικός Κήπος Λευκωσίας",
        "name:el": "Δημοτικός Κήπος Λευκωσίας",
        "name:en": "Nicosia Municipal Gardens",
        "name:es": "Jardines Municipales de Nicosia",
        "name:tr": "Lefkoşa Belediye Bahçesi",
        "operator": "Nicosia Municipality",
        "start_date": "2005",
        "wikidata": "Q7030534"
      },
      "geometry": {
        "type": "Polygon",
        "coordinates": [
          [
            [
              33.3522753,
              35.1730421
            ],
            [
              33.3525427,
              35.1728317
            ],
            [
              33.3527603,
              35.1726856
            ],
            [
              33.3538114,
              35.1722167
            ],
            [
              33.3538483,
              35.1722634
            ],
            [
              33.3541667,
              35.1726726
            ],
            [
              33.3543808,
              35.1724982
            ],
            [
              33.3546627,
              35.1725247
            ],
            [
              33.354877,
              35.1729587
            ],
            [
              33.3555342,
              35.1727351
            ],
            [
              33.3557515,
              35.1731704
            ],
            [
              33.3557743,
              35.1732306
            ],
            [
              33.3557716,
              35.1732931
            ],
            [
              33.3557461,
              35.1733775
            ],
            [
              33.3556683,
              35.173497
            ],
            [
              33.3554323,
              35.1735211
            ],
            [
              33.3549951,
              35.1735014
            ],
            [
              33.3545324,
              35.1734959
            ],
            [
              33.3539785,
              35.1735529
            ],
            [
              33.3532329,
              35.1736066
            ],
            [
              33.3530156,
              35.1736187
            ],
            [
              33.3528037,
              35.1736231
            ],
            [
              33.3526374,
              35.1736143
            ],
            [
              33.3524604,
              35.1735935
            ],
            [
              33.3523236,
              35.1735288
            ],
            [
              33.3522405,
              35.1734597
            ],
            [
              33.3521949,
              35.1733654
            ],
            [
              33.3521868,
              35.1732679
            ],
            [
              33.3522069,
              35.1731725
            ],
            [
              33.3522753,
              35.1730421
            ]
          ]
        ]
      },
      "id": "way/22634563"
    }
  ]
}