{
  "type": "FeatureCollection",
  "generator": "overpass-turbo",
  "copyright": "The data included in this document is from www.openstreetmap.org. The data is made available under ODbL.",
  "timestamp": "2026-08-25T23:48:05Z",
  "features": [
    {
      "type": "Feature",
      "properties": {
        "@id": "way/20790281",
        "leisure": "park"
      },
      "geometry": {
        "type": "Polygon",
        "coordinates": [
          [
            [
              33.6270275,
              34.915471
            ],
            [
              33.6270894,
              34.9154513
            ],
            [
              33.6271557,
              34.9154494
            ],
            [
              33.6272191,
              34.9154655
            ],
            [
              33.6272726,
              34.9154978
            ],
            [
              33.6272988,
              34.9155504
            ],
            [
              33.627756,
              34.9168075
            ],
            [
              33.6277624,
              34.9168292
            ],
            [
              33.6277602,
              34.9168515
            ],
            [
              33.6277498,
              34.9168722
            ],
            [
              33.6277321,
              34.9168892
            ],
            [
              33.6277088,
              34.9169009
            ],
            [
              33.6276823,
              34.9169061
            ],
            [
              33.6276551,
              34.9169043
            ],
            [
              33.6276299,
              34.9168957
            ],
            [
              33.6254444,
              34.9163185
            ],
            [
              33.6254225,
              34.916276
            ],
            [
              33.6254195,
              34.9162244
            ],
            [
              33.6254348,
              34.9161873
            ],
            [
              33.6254644,
              34.9161545
            ],
            [
              33.6270275,
              34.915471
            ]
          ]
        ]
      },
      "id": "way/20790281"
    }
  ]
}