{"type":"FeatureCollection","features":[{"type":"Feature","id":1022850,"geometry":{"type":"Polygon","coordinates":[[[33.003832165000006,34.948035641999979],[33.00742250899998,34.947250751000013],[33.009630501999993,34.947368701000016],[33.013770438999984,34.947604061999982],[33.016804825000008,34.94851633799999],[33.019564181000021,34.948975003999976],[33.022321886999976,34.950226354999984],[33.024112731000002,34.951815387000011],[33.026729847000013,34.954312001000005],[33.031000100000028,34.958510486000023],[33.032100384999978,34.960437839999997],[33.033199685999989,34.96293136700001],[33.034024181999996,34.964744818999975],[33.034986156999992,34.966898296000011],[33.036087402000021,34.968485901000008],[33.037739568999996,34.970753917000025],[33.041048466000007,34.973025058000019],[33.043254992000016,34.974274851000018],[33.046287902000017,34.976658551000014],[33.046836745000007,34.978471475999982],[33.046558505999997,34.979603406000024],[33.045728617999998,34.980394573000012],[33.044348545999981,34.980052310000019],[33.042004356999996,34.97846251499999],[33.039521788999991,34.977098921999982],[33.037729220000017,34.975963069999978],[33.035106670000005,34.975618286999975],[33.034000101000004,34.976635385999998],[33.032893188999992,34.977765621000003],[33.030407353999976,34.978100478999977],[33.029165884999998,34.977531897000006],[33.027651244000026,34.975603714999977],[33.026137054000003,34.973449040999981],[33.024623033000012,34.971294347000025],[33.024212277999993,34.969708126],[33.022699335000027,34.967100459999983],[33.020632302000024,34.965397590999999],[33.018425530000002,34.964487093999992],[33.016356416000008,34.963803371999973],[33.015669242000001,34.962443000000007],[33.014845084000001,34.960629331999996],[33.014296562000027,34.959042821000025],[33.011677034000002,34.957678309000016],[33.010297227000024,34.957448895000027],[33.009471598999994,34.956314700999997],[33.009060692999981,34.954954897999983],[33.007958329000019,34.954159792999974],[33.006857556999989,34.952685255999995],[33.006447236999975,34.951098968999986],[33.005346357999997,34.949737656000025],[33.003832165000006,34.948035641999979]]]},"properties":{"objectid":1022850,"site_id":344571,"site_pid":"344571","site_type":"PA","name_eng":"Periohi Kopri","name":"Periohi Kopri","desig":"Ακτές και Περιοχές Προστασίας της Φύσης","desig_eng":"Coasts and Areas for Nature Protection","desig_type":"National","iucn_cat":"IV","int_crit":"Not Applicable","realm":"Terrestrial","rep_m_area":0,"gis_m_area":0,"rep_area":4.9203604099999998,"gis_area":4.9203605699999997,"no_take":"Not Applicable","no_tk_area":0,"status":"Designated","status_yr":1990,"gov_type":"Federal or national ministry or agency","verif":"State Verified","inlnd_wtrs":"Not Reported","own_type":"Not Reported","mang_auth":"Department of Town Planning and Housing","mang_plan":"Not Reported","cons_obj":"Not Applicable","supp_info":"Not Applicable","metadataid":2013,"prnt_iso3":"CYP","iso3":"CYP","govsubtype":"Not Applicable","ownsubtype":"Not Applicable","oecm_asmt":"Not Applicable","Shape__Area":0.00048561989451849998,"Shape__Length":0.11933971759594594}}]}