{
  "type": "Feature",
  "properties": {},
  "geometry": {
    "type": "LineString",
    "coordinates": [
      [
        32.83362,
        34.95206
      ],
      [
        32.833380000000005,
        34.951710000000006
      ],
      [
        32.833510000000004,
        34.9515
      ],
      [
        32.834120000000006,
        34.951640000000005
      ],
      [
        32.834140000000005,
        34.951690000000006
      ],
      [
        32.834360000000004,
        34.95197
      ],
      [
        32.83453,
        34.952020000000005
      ],
      [
        32.83466,
        34.95214
      ],
      [
        32.83491,
        34.952290000000005
      ],
      [
        32.83516,
        34.952380000000005
      ],
      [
        32.83536,
        34.95259
      ],
      [
        32.835480000000004,
        34.953010000000006
      ],
      [
        32.835440000000006,
        34.95311
      ],
      [
        32.83583,
        34.953340000000004
      ],
      [
        32.83598,
        34.953570000000006
      ],
      [
        32.836180000000006,
        34.95373
      ],
      [
        32.836690000000004,
        34.95387
      ],
      [
        32.8369,
        34.953810000000004
      ],
      [
        32.837230000000005,
        34.953810000000004
      ],
      [
        32.837830000000004,
        34.953990000000005
      ],
      [
        32.83802,
        34.953880000000005
      ],
      [
        32.83869,
        34.95383
      ],
      [
        32.83892,
        34.95374
      ],
      [
        32.839180000000006,
        34.95383
      ],
      [
        32.83935,
        34.954010000000004
      ],
      [
        32.83961,
        34.953810000000004
      ],
      [
        32.83984,
        34.95373
      ],
      [
        32.83995,
        34.95355
      ],
      [
        32.84062,
        34.95369
      ],
      [
        32.840810000000005,
        34.953570000000006
      ],
      [
        32.84094,
        34.95364
      ],
      [
        32.84093,
        34.95374
      ],
      [
        32.84105,
        34.95382
      ],
      [
        32.841190000000005,
        34.95382
      ],
      [
        32.84134,
        34.95376
      ],
      [
        32.84154,
        34.95383
      ],
      [
        32.841590000000004,
        34.95391
      ],
      [
        32.84181,
        34.953970000000005
      ],
      [
        32.841950000000004,
        34.954170000000005
      ],
      [
        32.8419,
        34.954370000000004
      ],
      [
        32.841930000000005,
        34.95461
      ],
      [
        32.84201,
        34.95474
      ],
      [
        32.84208,
        34.954800000000006
      ],
      [
        32.84234,
        34.954800000000006
      ],
      [
        32.842510000000004,
        34.95478
      ],
      [
        32.84313,
        34.954820000000005
      ],
      [
        32.843560000000004,
        34.954820000000005
      ],
      [
        32.843830000000004,
        34.95488
      ],
      [
        32.84409,
        34.954890000000006
      ],
      [
        32.84424,
        34.95483
      ],
      [
        32.844660000000005,
        34.954550000000005
      ],
      [
        32.84489,
        34.954460000000005
      ],
      [
        32.84512,
        34.9544
      ],
      [
        32.845400000000005,
        34.954390000000004
      ],
      [
        32.845710000000004,
        34.95445
      ],
      [
        32.84592,
        34.954390000000004
      ],
      [
        32.84617,
        34.953970000000005
      ],
      [
        32.846270000000004,
        34.954060000000005
      ],
      [
        32.846360000000004,
        34.954460000000005
      ],
      [
        32.846340000000005,
        34.954600000000006
      ],
      [
        32.8462,
        34.95497
      ],
      [
        32.84619,
        34.95508
      ],
      [
        32.84642,
        34.95524
      ],
      [
        32.84648,
        34.955400000000004
      ],
      [
        32.846630000000005,
        34.955450000000006
      ],
      [
        32.84673,
        34.955540000000006
      ],
      [
        32.846880000000006,
        34.95544
      ],
      [
        32.84704,
        34.955400000000004
      ],
      [
        32.84723,
        34.955420000000004
      ],
      [
        32.84732,
        34.955380000000005
      ],
      [
        32.84754,
        34.955490000000005
      ],
      [
        32.847530000000006,
        34.956
      ],
      [
        32.847750000000005,
        34.956120000000006
      ],
      [
        32.847860000000004,
        34.956250000000004
      ],
      [
        32.84787,
        34.956340000000004
      ],
      [
        32.84803,
        34.95646
      ],
      [
        32.848290000000006,
        34.95687
      ],
      [
        32.84855,
        34.956920000000004
      ],
      [
        32.8487,
        34.95716
      ],
      [
        32.848850000000006,
        34.957260000000005
      ],
      [
        32.848940000000006,
        34.957240000000006
      ],
      [
        32.849180000000004,
        34.95729
      ],
      [
        32.84928,
        34.95745
      ],
      [
        32.849380000000004,
        34.95781
      ],
      [
        32.849450000000004,
        34.95783
      ],
      [
        32.849430000000005,
        34.9579
      ],
      [
        32.849630000000005,
        34.95814
      ],
      [
        32.849740000000004,
        34.958200000000005
      ],
      [
        32.84987,
        34.958400000000005
      ],
      [
        32.85015,
        34.958560000000006
      ],
      [
        32.85031,
        34.958540000000006
      ],
      [
        32.850770000000004,
        34.95861
      ],
      [
        32.85089,
        34.958580000000005
      ],
      [
        32.85117,
        34.958780000000004
      ],
      [
        32.851310000000005,
        34.958960000000005
      ],
      [
        32.85146,
        34.95899
      ],
      [
        32.85164,
        34.95917
      ],
      [
        32.85165,
        34.95924
      ],
      [
        32.85193,
        34.95944
      ],
      [
        32.85224,
        34.95947
      ],
      [
        32.85235,
        34.9594
      ],
      [
        32.85258,
        34.959390000000006
      ],
      [
        32.85259,
        34.95935
      ],
      [
        32.852650000000004,
        34.95935
      ],
      [
        32.852900000000005,
        34.959590000000006
      ],
      [
        32.85295,
        34.959830000000004
      ],
      [
        32.85309,
        34.960010000000004
      ],
      [
        32.85307,
        34.96011
      ],
      [
        32.853210000000004,
        34.960170000000005
      ],
      [
        32.853350000000006,
        34.96031
      ],
      [
        32.853410000000004,
        34.96045
      ],
      [
        32.85372,
        34.96068
      ],
      [
        32.85419,
        34.96087
      ],
      [
        32.854330000000004,
        34.96085
      ],
      [
        32.85441,
        34.9609
      ],
      [
        32.85455,
        34.96088
      ],
      [
        32.85475,
        34.960980000000006
      ],
      [
        32.85526,
        34.961110000000005
      ],
      [
        32.855380000000004,
        34.96125
      ],
      [
        32.855520000000006,
        34.961290000000005
      ],
      [
        32.855700000000006,
        34.96143
      ],
      [
        32.8562,
        34.96159
      ],
      [
        32.856410000000004,
        34.96172
      ],
      [
        32.85654,
        34.9617
      ],
      [
        32.8568,
        34.961960000000005
      ],
      [
        32.856790000000004,
        34.962070000000004
      ],
      [
        32.856840000000005,
        34.96211
      ],
      [
        32.856790000000004,
        34.962250000000004
      ],
      [
        32.85691,
        34.96233
      ],
      [
        32.856930000000006,
        34.962410000000006
      ],
      [
        32.856860000000005,
        34.962540000000004
      ],
      [
        32.85694,
        34.962680000000006
      ],
      [
        32.857200000000006,
        34.962740000000004
      ],
      [
        32.85728,
        34.9628
      ],
      [
        32.85805000028271,
        34.9627900024274
      ],
      [
        32.85882,
        34.96278
      ],
      [
        32.859190000000005,
        34.962900000000005
      ],
      [
        32.85931,
        34.963060000000006
      ],
      [
        32.860110000000006,
        34.9634
      ],
      [
        32.860290000000006,
        34.963350000000005
      ],
      [
        32.86047,
        34.96334
      ],
      [
        32.860640000000004,
        34.963390000000004
      ],
      [
        32.86079,
        34.963460000000005
      ],
      [
        32.86108,
        34.96367
      ],
      [
        32.861180000000004,
        34.96379
      ],
      [
        32.861470000000004,
        34.96387
      ],
      [
        32.861740000000005,
        34.96406
      ],
      [
        32.861990000000006,
        34.964110000000005
      ],
      [
        32.862210000000005,
        34.96426
      ],
      [
        32.862280000000005,
        34.964330000000004
      ],
      [
        32.86242,
        34.96443
      ],
      [
        32.86283,
        34.96454
      ],
      [
        32.86314,
        34.96454
      ],
      [
        32.86319,
        34.96459
      ],
      [
        32.86329,
        34.964760000000005
      ],
      [
        32.86347,
        34.96497
      ],
      [
        32.86377,
        34.965230000000005
      ],
      [
        32.86394,
        34.96531
      ],
      [
        32.86399,
        34.965320000000006
      ],
      [
        32.86406,
        34.96537
      ],
      [
        32.864200000000004,
        34.9654
      ],
      [
        32.864470000000004,
        34.96558
      ],
      [
        32.86486,
        34.965770000000006
      ],
      [
        32.86551,
        34.966
      ],
      [
        32.86567,
        34.966
      ],
      [
        32.86571,
        34.96623
      ],
      [
        32.865750000000006,
        34.966350000000006
      ],
      [
        32.86587,
        34.966550000000005
      ],
      [
        32.86612,
        34.96679
      ],
      [
        32.86619,
        34.966910000000006
      ],
      [
        32.86647,
        34.96707
      ],
      [
        32.86657,
        34.967150000000004
      ],
      [
        32.866870000000006,
        34.96728
      ],
      [
        32.86704,
        34.967330000000004
      ],
      [
        32.867180000000005,
        34.967310000000005
      ],
      [
        32.86735,
        34.96721
      ],
      [
        32.86746,
        34.96721
      ],
      [
        32.86777,
        34.96716
      ],
      [
        32.86784,
        34.96725
      ],
      [
        32.86815,
        34.967510000000004
      ],
      [
        32.86816,
        34.967560000000006
      ],
      [
        32.86822,
        34.967650000000006
      ],
      [
        32.868390000000005,
        34.967850000000006
      ],
      [
        32.86872,
        34.968070000000004
      ],
      [
        32.86881,
        34.968160000000005
      ],
      [
        32.86883,
        34.96824
      ],
      [
        32.86903,
        34.96847
      ],
      [
        32.86914,
        34.96855
      ],
      [
        32.86927,
        34.96858
      ],
      [
        32.869420000000005,
        34.968680000000006
      ],
      [
        32.86941,
        34.968740000000004
      ],
      [
        32.869490000000006,
        34.96891
      ],
      [
        32.86959,
        34.969060000000006
      ],
      [
        32.86961,
        34.96913
      ],
      [
        32.86968,
        34.9692
      ],
      [
        32.86981,
        34.969260000000006
      ],
      [
        32.870020000000004,
        34.969240000000006
      ],
      [
        32.87006,
        34.969260000000006
      ],
      [
        32.87015,
        34.969480000000004
      ],
      [
        32.87022,
        34.96952
      ],
      [
        32.87033,
        34.969550000000005
      ],
      [
        32.87066,
        34.969570000000004
      ],
      [
        32.871,
        34.969680000000004
      ],
      [
        32.871100000000006,
        34.96987
      ],
      [
        32.87117,
        34.97005
      ],
      [
        32.87111,
        34.970110000000005
      ],
      [
        32.871010000000005,
        34.97017
      ],
      [
        32.87077,
        34.97025
      ],
      [
        32.87062,
        34.970270000000006
      ],
      [
        32.87012,
        34.97045
      ],
      [
        32.86992,
        34.97054
      ],
      [
        32.86927,
        34.970620000000004
      ],
      [
        32.86912,
        34.97068
      ],
      [
        32.86872,
        34.970980000000004
      ],
      [
        32.8686,
        34.97102
      ],
      [
        32.86849,
        34.971090000000004
      ],
      [
        32.868370000000006,
        34.971090000000004
      ],
      [
        32.868190000000006,
        34.97122
      ],
      [
        32.868080000000006,
        34.97126
      ],
      [
        32.867990000000006,
        34.97135
      ],
      [
        32.86759,
        34.971630000000005
      ],
      [
        32.86744,
        34.97171
      ],
      [
        32.86717,
        34.97175
      ],
      [
        32.86706,
        34.971830000000004
      ],
      [
        32.86672,
        34.971920000000004
      ],
      [
        32.866620000000005,
        34.972010000000004
      ],
      [
        32.8667,
        34.972030000000004
      ],
      [
        32.866730000000004,
        34.972210000000004
      ],
      [
        32.86686,
        34.972260000000006
      ],
      [
        32.867050000000006,
        34.97258
      ],
      [
        32.867140000000006,
        34.97263
      ],
      [
        32.86721,
        34.97281
      ],
      [
        32.86726,
        34.97288
      ],
      [
        32.86726,
        34.972970000000004
      ],
      [
        32.86722,
        34.973090000000006
      ],
      [
        32.867070000000005,
        34.9733
      ],
      [
        32.86695,
        34.97343
      ],
      [
        32.86683,
        34.9735
      ],
      [
        32.86666,
        34.9737
      ],
      [
        32.86661,
        34.97383
      ],
      [
        32.86637,
        34.974140000000006
      ],
      [
        32.8662,
        34.974320000000006
      ],
      [
        32.86607,
        34.9744
      ],
      [
        32.8661,
        34.97444
      ],
      [
        32.865970000000004,
        34.97457
      ],
      [
        32.86587,
        34.97464
      ],
      [
        32.86576,
        34.97469
      ],
      [
        32.865590000000005,
        34.974740000000004
      ],
      [
        32.865370000000006,
        34.97468
      ],
      [
        32.86515,
        34.97471
      ],
      [
        32.865100000000005,
        34.97468
      ],
      [
        32.864920000000005,
        34.974720000000005
      ],
      [
        32.86466,
        34.97466
      ],
      [
        32.864540000000005,
        34.97468
      ],
      [
        32.86453,
        34.974500000000006
      ],
      [
        32.864580000000004,
        34.974430000000005
      ],
      [
        32.86482,
        34.974470000000004
      ],
      [
        32.86491,
        34.974430000000005
      ],
      [
        32.865,
        34.974360000000004
      ],
      [
        32.86504,
        34.97429
      ],
      [
        32.86506,
        34.97413
      ],
      [
        32.86525,
        34.974090000000004
      ],
      [
        32.86534,
        34.97404
      ],
      [
        32.865460000000006,
        34.973940000000006
      ],
      [
        32.86542,
        34.9739
      ],
      [
        32.8654,
        34.97381
      ],
      [
        32.86542,
        34.97361
      ],
      [
        32.86547,
        34.973510000000005
      ],
      [
        32.86549,
        34.97339
      ],
      [
        32.86542,
        34.973290000000006
      ],
      [
        32.8654,
        34.97323
      ],
      [
        32.865210000000005,
        34.97303
      ],
      [
        32.86516,
        34.97294
      ],
      [
        32.865140000000004,
        34.9727
      ],
      [
        32.865030000000004,
        34.972640000000006
      ],
      [
        32.864920000000005,
        34.97261
      ],
      [
        32.864650000000005,
        34.972660000000005
      ],
      [
        32.86433,
        34.972750000000005
      ],
      [
        32.86424,
        34.972730000000006
      ],
      [
        32.864110000000004,
        34.972730000000006
      ],
      [
        32.86397,
        34.972660000000005
      ],
      [
        32.863890000000005,
        34.97256
      ],
      [
        32.86386,
        34.97249
      ],
      [
        32.8639,
        34.97247
      ],
      [
        32.86394,
        34.97238
      ],
      [
        32.86399,
        34.972190000000005
      ],
      [
        32.863980000000005,
        34.97214
      ],
      [
        32.86393,
        34.97211
      ],
      [
        32.86372,
        34.97213
      ],
      [
        32.863670000000006,
        34.97216
      ],
      [
        32.863530000000004,
        34.97216
      ],
      [
        32.863400000000006,
        34.97209
      ],
      [
        32.86338,
        34.97205
      ],
      [
        32.86329,
        34.97198
      ],
      [
        32.863310000000006,
        34.97195
      ],
      [
        32.86332,
        34.9718
      ],
      [
        32.86336,
        34.97176
      ],
      [
        32.86336,
        34.97169
      ],
      [
        32.86339,
        34.97164
      ],
      [
        32.863350000000004,
        34.97158
      ],
      [
        32.863260000000004,
        34.97155
      ],
      [
        32.86319,
        34.97138
      ],
      [
        32.86314,
        34.97133
      ],
      [
        32.863080000000004,
        34.971320000000006
      ],
      [
        32.863040000000005,
        34.971340000000005
      ],
      [
        32.863020000000006,
        34.97138
      ],
      [
        32.86294,
        34.9714
      ],
      [
        32.862860000000005,
        34.97139
      ],
      [
        32.862750000000005,
        34.9714
      ]
    ]
  }
}