{"type":"FeatureCollection","features":[{"type":"Feature","id":1235960,"geometry":{"type":"Polygon","coordinates":[[[33.275580557000012,34.943993412999987],[33.275596457999995,34.944114322000019],[33.275617792999981,34.94418811700001],[33.275695246999987,34.944456041000024],[33.275747600999978,34.944544355999994],[33.275629600999991,34.944624798000007],[33.274720650999996,34.944599885999992],[33.274765316000014,34.94441821700002],[33.274827701999982,34.944149982999988],[33.274585165000019,34.944077994999986],[33.274322233000021,34.943999953999992],[33.274022563000017,34.943984450000016],[33.273873778999985,34.943962355999986],[33.273924614999999,34.943855510999981],[33.273789885999975,34.943858924999972],[33.273694927999998,34.943876525000007],[33.273665391999998,34.943901824000022],[33.273618606000014,34.943941895000023],[33.273145711999973,34.94380670999999],[33.273045333000027,34.943778017],[33.272752360000027,34.943817966999973],[33.272414850000018,34.943630201000019],[33.272411492999993,34.943605224000009],[33.272452000999976,34.94348035500002],[33.272489114999985,34.943397113999993],[33.272546835000014,34.943241048999994],[33.272641255999986,34.94298575800002],[33.272670154000025,34.942651967000018],[33.272877279999989,34.942674768000018],[33.272947837999993,34.942680974999973],[33.273043597000026,34.942678380000018],[33.273097855999993,34.942686283],[33.273208641999986,34.942771466000011],[33.273266980000017,34.942780964000008],[33.273431733999985,34.94285791599998],[33.273469114000022,34.942871287000003],[33.273505845999978,34.942876252000019],[33.273628346999999,34.942867175999993],[33.273661946999994,34.942864686999997],[33.273666860999981,34.942864321999991],[33.273742536999976,34.942870491000008],[33.273765205000018,34.942878087999986],[33.273927158999982,34.942932374999998],[33.274032955999985,34.942967839000005],[33.274131895999972,34.942983641000012],[33.274201729000026,34.942977779999978],[33.274272482000015,34.942947236000009],[33.274304302000019,34.942904849000001],[33.274342187000002,34.942790650000006],[33.274381074000019,34.942673419000016],[33.274394081000025,34.942646545999992],[33.274423227999989,34.942628436000007],[33.274524688999975,34.942613176000009],[33.27468565700002,34.942589883999972],[33.274936486999991,34.942619744000012],[33.275253283999973,34.942645104999997],[33.275387951000027,34.942664359999981],[33.275600354000005,34.942650327000024],[33.275989794999987,34.942597884999998],[33.276506783999992,34.942821460999994],[33.276507668000022,34.943202955000004],[33.276507862000017,34.943286381999997],[33.27646718699998,34.943347189999997],[33.276439766999999,34.943364250999991],[33.276405389999979,34.943367604999992],[33.276349578000008,34.943382337999992],[33.276267163,34.943409481000003],[33.276170229000002,34.943641246000027],[33.276136092000002,34.943722869999988],[33.276095886999997,34.943822195999985],[33.27608206299999,34.943856347999997],[33.275963666999985,34.943843718999972],[33.275705129000016,34.943817352999986],[33.275631718999989,34.943806815000016],[33.275542325999993,34.943838325999991],[33.275580557000012,34.943993412999987]]]},"properties":{"objectid":1235960,"site_id":555770524,"site_pid":"555770524","site_type":"PA","name_eng":"Ydatofraxtis Lythrodonta 2","name":"Ydatofraxtis Lythrodonta 2","desig":"Προστατευόμενα Τοπία","desig_eng":"Protected Landscape","desig_type":"National","iucn_cat":"V","int_crit":"Not Applicable","realm":"Terrestrial","rep_m_area":0,"gis_m_area":0,"rep_area":0.051388500000000004,"gis_area":0.051388520000000007,"no_take":"Not Applicable","no_tk_area":0,"status":"Designated","status_yr":1990,"gov_type":"Federal or national ministry or agency","verif":"State Verified","inlnd_wtrs":"Not Reported","own_type":"Not Reported","mang_auth":"Department of Town Planning and Housing","mang_plan":"Not Reported","cons_obj":"Not Applicable","supp_info":"Not Applicable","metadataid":2013,"prnt_iso3":"CYP","iso3":"CYP","govsubtype":"Not Applicable","ownsubtype":"Not Applicable","oecm_asmt":"Not Applicable","Shape__Area":5.0706847657849998e-06,"Shape__Length":0.011943024281999375}}]}