{
  "type": "FeatureCollection",
  "generator": "overpass-turbo",
  "copyright": "The data included in this document is from www.openstreetmap.org. The data is made available under ODbL.",
  "timestamp": "2026-08-26T20:25:19Z",
  "features": [
    {
      "type": "Feature",
      "properties": {
        "@id": "way/5734344",
        "landuse": "forest"
      },
      "geometry": {
        "type": "Polygon",
        "coordinates": [
          [
            [
              32.3734377,
              34.8880037
            ],
            [
              32.3739003,
              34.8879079
            ],
            [
              32.3738769,
              34.8880629
            ],
            [
              32.3745181,
              34.8882919
            ],
            [
              32.3750884,
              34.8884038
            ],
            [
              32.3760841,
              34.8887372
            ],
            [
              32.3769917,
              34.8892179
            ],
            [
              32.3770422,
              34.8895907
            ],
            [
              32.3770891,
              34.8901888
            ],
            [
              32.3777446,
              34.8908485
            ],
            [
              32.3775296,
              34.891373
            ],
            [
              32.3774166,
              34.8922859
            ],
            [
              32.3787065,
              34.8926135
            ],
            [
              32.380233,
              34.8922795
            ],
            [
              32.3812974,
              34.8931628
            ],
            [
              32.3829784,
              34.894102
            ],
            [
              32.3838737,
              34.895484
            ],
            [
              32.3835248,
              34.8955556
            ],
            [
              32.3824596,
              34.8949907
            ],
            [
              32.3815828,
              34.8947271
            ],
            [
              32.3806737,
              34.8945539
            ],
            [
              32.3801641,
              34.8945539
            ],
            [
              32.379627,
              34.894648
            ],
            [
              32.3774509,
              34.8955559
            ],
            [
              32.3769227,
              34.8953094
            ],
            [
              32.3745142,
              34.8950464
            ],
            [
              32.3732696,
              34.8954688
            ],
            [
              32.372583,
              34.8967008
            ],
            [
              32.3722826,
              34.8977215
            ],
            [
              32.3718692,
              34.8981065
            ],
            [
              32.3712191,
              34.8995109
            ],
            [
              32.3701368,
              34.899411
            ],
            [
              32.3682485,
              34.8987775
            ],
            [
              32.3670469,
              34.8984959
            ],
            [
              32.3657594,
              34.8991998
            ],
            [
              32.3645149,
              34.8983199
            ],
            [
              32.3643432,
              34.8981791
            ],
            [
              32.3637424,
              34.8981087
            ],
            [
              32.3624979,
              34.8978975
            ],
            [
              32.3619829,
              34.8976159
            ],
            [
              32.3607383,
              34.8976511
            ],
            [
              32.3587213,
              34.8971935
            ],
            [
              32.357863,
              34.8957856
            ],
            [
              32.3565699,
              34.8947259
            ],
            [
              32.354226,
              34.894844
            ],
            [
              32.3539356,
              34.8938366
            ],
            [
              32.3541359,
              34.8938834
            ],
            [
              32.3543607,
              34.8939066
            ],
            [
              32.3545865,
              34.8938852
            ],
            [
              32.3549405,
              34.8937623
            ],
            [
              32.355238,
              34.8935076
            ],
            [
              32.3555659,
              34.8931478
            ],
            [
              32.3557114,
              34.8929483
            ],
            [
              32.355922,
              34.8927898
            ],
            [
              32.3570051,
              34.8922854
            ],
            [
              32.3575094,
              34.892031
            ],
            [
              32.3580054,
              34.8916418
            ],
            [
              32.3583454,
              34.8913257
            ],
            [
              32.3586885,
              34.8910336
            ],
            [
              32.35934,
              34.8905206
            ],
            [
              32.3599723,
              34.8902218
            ],
            [
              32.360773,
              34.8899863
            ],
            [
              32.3615347,
              34.8898794
            ],
            [
              32.3636499,
              34.8896791
            ],
            [
              32.3644647,
              34.8895873
            ],
            [
              32.3650728,
              34.889573
            ],
            [
              32.3654549,
              34.8897868
            ],
            [
              32.3657676,
              34.8902356
            ],
            [
              32.3656721,
              34.8906916
            ],
            [
              32.3659785,
              34.890819
            ],
            [
              32.3663938,
              34.8907798
            ],
            [
              32.3694439,
              34.8899247
            ],
            [
              32.3706297,
              34.8889841
            ],
            [
              32.3720217,
              34.8887626
            ],
            [
              32.3721798,
              34.8883913
            ],
            [
              32.3728055,
              34.8882959
            ],
            [
              32.3730113,
              34.8882299
            ],
            [
              32.3734377,
              34.8880037
            ]
          ]
        ]
      },
      "id": "way/5734344"
    }
  ]
}
