{
  "type": "FeatureCollection",
  "generator": "overpass-turbo",
  "copyright": "The data included in this document is from www.openstreetmap.org. The data is made available under ODbL.",
  "timestamp": "2026-08-26T21:40:51Z",
  "features": [
    {
      "type": "Feature",
      "properties": {
        "@id": "way/1121185774",
        "boundary": "protected_area",
        "leisure": "nature_reserve",
        "name:en": "Liopetri National Forest Park",
        "operator": "Department of Forests",
        "ref:natura2000": "CY3000001",
        "wikidata": "Q128409653"
      },
      "geometry": {
        "type": "Polygon",
        "coordinates": [
          [
            [
              33.8958094,
              34.9744931
            ],
            [
              33.8957054,
              34.9745327
            ],
            [
              33.8954852,
              34.9745251
            ],
            [
              33.895415,
              34.9745105
            ],
            [
              33.8953335,
              34.9744882
            ],
            [
              33.8953173,
              34.9744741
            ],
            [
              33.8953145,
              34.9744697
            ],
            [
              33.8954642,
              34.9744147
            ],
            [
              33.895856,
              34.9741971
            ],
            [
              33.895777,
              34.9741018
            ],
            [
              33.8956089,
              34.9741961
            ],
            [
              33.8955835,
              34.974204
            ],
            [
              33.8955526,
              34.974206
            ],
            [
              33.8955155,
              34.9741994
            ],
            [
              33.8954826,
              34.9741856
            ],
            [
              33.895456,
              34.9741664
            ],
            [
              33.8953325,
              34.9740481
            ],
            [
              33.8954744,
              34.9739501
            ],
            [
              33.8955387,
              34.9739258
            ],
            [
              33.8955353,
              34.9739079
            ],
            [
              33.8955668,
              34.9738862
            ],
            [
              33.8953385,
              34.9736636
            ],
            [
              33.8952694,
              34.9736015
            ],
            [
              33.8951564,
              34.9735177
            ],
            [
              33.8950535,
              34.973455
            ],
            [
              33.8949957,
              34.9734241
            ],
            [
              33.8948968,
              34.9733794
            ],
            [
              33.8948158,
              34.9733488
            ],
            [
              33.8947363,
              34.9733242
            ],
            [
              33.8946553,
              34.9733025
            ],
            [
              33.8945723,
              34.9732857
            ],
            [
              33.8944827,
              34.9732728
            ],
            [
              33.8943695,
              34.9732628
            ],
            [
              33.8942683,
              34.9732602
            ],
            [
              33.8941688,
              34.9732632
            ],
            [
              33.8939752,
              34.9732763
            ],
            [
              33.8939781,
              34.9733231
            ],
            [
              33.8936759,
              34.9733428
            ],
            [
              33.8936714,
              34.973268
            ],
            [
              33.8936891,
              34.9731589
            ],
            [
              33.8937272,
              34.973071
            ],
            [
              33.8937864,
              34.9729892
            ],
            [
              33.893877,
              34.9729074
            ],
            [
              33.8939449,
              34.9728598
            ],
            [
              33.8945555,
              34.9724663
            ],
            [
              33.8950106,
              34.9727778
            ],
            [
              33.8950952,
              34.9728305
            ],
            [
              33.8951325,
              34.9728483
            ],
            [
              33.8952369,
              34.9728876
            ],
            [
              33.8953515,
              34.9729155
            ],
            [
              33.8954736,
              34.9729289
            ],
            [
              33.8955831,
              34.9729275
            ],
            [
              33.8957046,
              34.972913
            ],
            [
              33.8958055,
              34.9728852
            ],
            [
              33.8959289,
              34.9728345
            ],
            [
              33.8960234,
              34.9727786
            ],
            [
              33.8960977,
              34.9727212
            ],
            [
              33.8962266,
              34.972602
            ],
            [
              33.8963406,
              34.9724709
            ],
            [
              33.8963758,
              34.9724255
            ],
            [
              33.8964288,
              34.9723454
            ],
            [
              33.8964901,
              34.9722385
            ],
            [
              33.8965426,
              34.9721038
            ],
            [
              33.8965641,
              34.9720309
            ],
            [
              33.8965861,
              34.9719242
            ],
            [
              33.8965967,
              34.9718163
            ],
            [
              33.896591,
              34.9715602
            ],
            [
              33.8965578,
              34.9710458
            ],
            [
              33.8965416,
              34.9709603
            ],
            [
              33.8965108,
              34.970883
            ],
            [
              33.8964585,
              34.9708017
            ],
            [
              33.8963904,
              34.9707298
            ],
            [
              33.8963451,
              34.9706937
            ],
            [
              33.8963015,
              34.9706649
            ],
            [
              33.8962075,
              34.9706179
            ],
            [
              33.8961425,
              34.9705952
            ],
            [
              33.8960764,
              34.9705786
            ],
            [
              33.8959423,
              34.9708234
            ],
            [
              33.8958041,
              34.9707897
            ],
            [
              33.8956587,
              34.9707595
            ],
            [
              33.8955944,
              34.9707461
            ],
            [
              33.8955542,
              34.9707261
            ],
            [
              33.8955268,
              34.9706908
            ],
            [
              33.895527,
              34.970645
            ],
            [
              33.8955393,
              34.9705694
            ],
            [
              33.8955526,
              34.9704646
            ],
            [
              33.8953785,
              34.9704459
            ],
            [
              33.8953721,
              34.970595
            ],
            [
              33.8953651,
              34.9707401
            ],
            [
              33.8953643,
              34.9709948
            ],
            [
              33.8953745,
              34.9711227
            ],
            [
              33.8953611,
              34.9711899
            ],
            [
              33.8953501,
              34.9712767
            ],
            [
              33.8953271,
              34.9713394
            ],
            [
              33.8953066,
              34.9714225
            ],
            [
              33.8952671,
              34.9715258
            ],
            [
              33.8952246,
              34.9716173
            ],
            [
              33.8951574,
              34.9717156
            ],
            [
              33.8951103,
              34.9717877
            ],
            [
              33.8950415,
              34.9718607
            ],
            [
              33.8949823,
              34.9719365
            ],
            [
              33.8948943,
              34.972018
            ],
            [
              33.8948193,
              34.9720673
            ],
            [
              33.8947533,
              34.972125
            ],
            [
              33.8946479,
              34.9721988
            ],
            [
              33.8941852,
              34.9718702
            ],
            [
              33.8940908,
              34.9718219
            ],
            [
              33.8939878,
              34.9717875
            ],
            [
              33.8938977,
              34.9717679
            ],
            [
              33.8938048,
              34.9717597
            ],
            [
              33.8937104,
              34.9717622
            ],
            [
              33.8936183,
              34.9717763
            ],
            [
              33.8935288,
              34.9717981
            ],
            [
              33.8934447,
              34.9718302
            ],
            [
              33.8933293,
              34.971895
            ],
            [
              33.8932752,
              34.9719347
            ],
            [
              33.892936,
              34.9722297
            ],
            [
              33.8928703,
              34.9722998
            ],
            [
              33.8928403,
              34.9723398
            ],
            [
              33.8928139,
              34.9723878
            ],
            [
              33.8927935,
              34.9724379
            ],
            [
              33.8927797,
              34.9724897
            ],
            [
              33.8927724,
              34.9725417
            ],
            [
              33.8927728,
              34.9725972
            ],
            [
              33.8927786,
              34.9726435
            ],
            [
              33.8927897,
              34.9726887
            ],
            [
              33.8928086,
              34.9727396
            ],
            [
              33.8928269,
              34.972775
            ],
            [
              33.8928675,
              34.972834
            ],
            [
              33.892938,
              34.9729113
            ],
            [
              33.8931162,
              34.9730259
            ],
            [
              33.8934565,
              34.9732541
            ],
            [
              33.8934629,
              34.9733143
            ],
            [
              33.89345,
              34.9734039
            ],
            [
              33.893452,
              34.9734481
            ],
            [
              33.8934422,
              34.9734957
            ],
            [
              33.8934461,
              34.9735255
            ],
            [
              33.8934039,
              34.973529
            ],
            [
              33.8933611,
              34.9735696
            ],
            [
              33.893373,
              34.9736854
            ],
            [
              33.8941871,
              34.9736392
            ],
            [
              33.8942623,
              34.9736351
            ],
            [
              33.8944024,
              34.9736529
            ],
            [
              33.8945827,
              34.9736953
            ],
            [
              33.8946381,
              34.9737081
            ],
            [
              33.8947097,
              34.9737393
            ],
            [
              33.8947651,
              34.973767
            ],
            [
              33.8948285,
              34.9738116
            ],
            [
              33.8949499,
              34.9739196
            ],
            [
              33.8952945,
              34.9742673
            ],
            [
              33.895322,
              34.9743005
            ],
            [
              33.8953076,
              34.9743261
            ],
            [
              33.8952873,
              34.9743465
            ],
            [
              33.8952616,
              34.9743623
            ],
            [
              33.895107,
              34.9744197
            ],
            [
              33.8951336,
              34.9744654
            ],
            [
              33.894941,
              34.9744482
            ],
            [
              33.8948092,
              34.9744223
            ],
            [
              33.8947166,
              34.9743389
            ],
            [
              33.8946865,
              34.9742854
            ],
            [
              33.8946824,
              34.9742587
            ],
            [
              33.8938082,
              34.9738908
            ],
            [
              33.8924766,
              34.9738794
            ],
            [
              33.8924033,
              34.9738952
            ],
            [
              33.8923219,
              34.9739049
            ],
            [
              33.8922193,
              34.9738885
            ],
            [
              33.892142,
              34.9738861
            ],
            [
              33.8920146,
              34.9738952
            ],
            [
              33.8915805,
              34.9739602
            ],
            [
              33.8912301,
              34.9740035
            ],
            [
              33.8910221,
              34.9740005
            ],
            [
              33.8908859,
              34.9739819
            ],
            [
              33.8906049,
              34.9739313
            ],
            [
              33.890045,
              34.9738239
            ],
            [
              33.8893718,
              34.9736579
            ],
            [
              33.8890601,
              34.9736083
            ],
            [
              33.8887449,
              34.9735422
            ],
            [
              33.8885604,
              34.9735332
            ],
            [
              33.8883631,
              34.9735149
            ],
            [
              33.8881773,
              34.9735061
            ],
            [
              33.887934,
              34.9735074
            ],
            [
              33.8877535,
              34.9734993
            ],
            [
              33.8859786,
              34.9733485
            ],
            [
              33.8866112,
              34.9723354
            ],
            [
              33.8872329,
              34.9713731
            ],
            [
              33.8873096,
              34.9712414
            ],
            [
              33.8875255,
              34.9709036
            ],
            [
              33.8876313,
              34.9707062
            ],
            [
              33.8876848,
              34.9706301
            ],
            [
              33.8877271,
              34.970554
            ],
            [
              33.8877508,
              34.9704996
            ],
            [
              33.8877748,
              34.9704656
            ],
            [
              33.8879764,
              34.9700748
            ],
            [
              33.8879421,
              34.9700711
            ],
            [
              33.8881458,
              34.9697195
            ],
            [
              33.8885216,
              34.9686211
            ],
            [
              33.8887301,
              34.9681034
            ],
            [
              33.888808,
              34.9677932
            ],
            [
              33.8887833,
              34.9677529
            ],
            [
              33.890734,
              34.9674359
            ],
            [
              33.8921088,
              34.9672232
            ],
            [
              33.8953551,
              34.966484
            ],
            [
              33.9013594,
              34.9648577
            ],
            [
              33.9013583,
              34.9648717
            ],
            [
              33.9014371,
              34.9649023
            ],
            [
              33.9014942,
              34.9649017
            ],
            [
              33.9016175,
              34.9649329
            ],
            [
              33.9016347,
              34.9649889
            ],
            [
              33.9017565,
              34.9650776
            ],
            [
              33.9018072,
              34.965181
            ],
            [
              33.9018474,
              34.9653927
            ],
            [
              33.9019328,
              34.9654463
            ],
            [
              33.9019916,
              34.9655085
            ],
            [
              33.9021006,
              34.9655567
            ],
            [
              33.9021441,
              34.9656373
            ],
            [
              33.9021117,
              34.9657153
            ],
            [
              33.9021136,
              34.9657775
            ],
            [
              33.9021667,
              34.9657732
            ],
            [
              33.9022311,
              34.9658001
            ],
            [
              33.9022933,
              34.9659351
            ],
            [
              33.9024121,
              34.9660685
            ],
            [
              33.9023975,
              34.9661708
            ],
            [
              33.9024181,
              34.9662871
            ],
            [
              33.9023987,
              34.9664865
            ],
            [
              33.9023475,
              34.9667151
            ],
            [
              33.902207,
              34.9670802
            ],
            [
              33.9020418,
              34.9673583
            ],
            [
              33.9020488,
              34.9674692
            ],
            [
              33.9019632,
              34.9675455
            ],
            [
              33.9019249,
              34.9676755
            ],
            [
              33.9018273,
              34.9677996
            ],
            [
              33.901839,
              34.9678237
            ],
            [
              33.901792,
              34.9679177
            ],
            [
              33.9017974,
              34.9679777
            ],
            [
              33.9016979,
              34.9680697
            ],
            [
              33.9016803,
              34.9681153
            ],
            [
              33.9015782,
              34.9681608
            ],
            [
              33.9015793,
              34.9681917
            ],
            [
              33.9015492,
              34.9682005
            ],
            [
              33.9015378,
              34.9682121
            ],
            [
              33.9015413,
              34.9682206
            ],
            [
              33.9015784,
              34.9682175
            ],
            [
              33.9015843,
              34.968227
            ],
            [
              33.9015729,
              34.9682443
            ],
            [
              33.9015372,
              34.9682674
            ],
            [
              33.9014698,
              34.9683548
            ],
            [
              33.9014063,
              34.968382
            ],
            [
              33.9013867,
              34.9683955
            ],
            [
              33.9013812,
              34.9684175
            ],
            [
              33.9014104,
              34.9684363
            ],
            [
              33.9014106,
              34.9684535
            ],
            [
              33.9013909,
              34.9684613
            ],
            [
              33.9013737,
              34.9684767
            ],
            [
              33.9013558,
              34.9685369
            ],
            [
              33.9013471,
              34.9685876
            ],
            [
              33.9013153,
              34.9686479
            ],
            [
              33.9012731,
              34.9687065
            ],
            [
              33.9012688,
              34.9687447
            ],
            [
              33.9012553,
              34.9687782
            ],
            [
              33.9012579,
              34.9688001
            ],
            [
              33.9012686,
              34.9688315
            ],
            [
              33.9012509,
              34.9689023
            ],
            [
              33.9012395,
              34.9689224
            ],
            [
              33.9012444,
              34.96895
            ],
            [
              33.9013032,
              34.969024
            ],
            [
              33.9013601,
              34.9691333
            ],
            [
              33.9013745,
              34.9691848
            ],
            [
              33.9013994,
              34.9692472
            ],
            [
              33.9014071,
              34.9693241
            ],
            [
              33.9014145,
              34.9693372
            ],
            [
              33.9014371,
              34.9693452
            ],
            [
              33.901448,
              34.9693536
            ],
            [
              33.9014373,
              34.9693698
            ],
            [
              33.9014353,
              34.9693865
            ],
            [
              33.9014466,
              34.9694292
            ],
            [
              33.9014987,
              34.9694677
            ],
            [
              33.9015101,
              34.9694569
            ],
            [
              33.9015295,
              34.9694524
            ],
            [
              33.9015784,
              34.9694793
            ],
            [
              33.9015912,
              34.9695181
            ],
            [
              33.9015842,
              34.9695339
            ],
            [
              33.9015974,
              34.9695449
            ],
            [
              33.9016106,
              34.9696086
            ],
            [
              33.9016235,
              34.9696164
            ],
            [
              33.9016428,
              34.9696624
            ],
            [
              33.9016336,
              34.9696788
            ],
            [
              33.9016344,
              34.9696883
            ],
            [
              33.9016543,
              34.9696943
            ],
            [
              33.901654,
              34.9697219
            ],
            [
              33.9016676,
              34.9697905
            ],
            [
              33.9016718,
              34.9697958
            ],
            [
              33.9017814,
              34.9698449
            ],
            [
              33.9018556,
              34.9698658
            ],
            [
              33.901938,
              34.9698651
            ],
            [
              33.9019874,
              34.9698933
            ],
            [
              33.9020264,
              34.9698998
            ],
            [
              33.9021203,
              34.9698908
            ],
            [
              33.9021259,
              34.9698945
            ],
            [
              33.9021625,
              34.969891
            ],
            [
              33.902191,
              34.9699098
            ],
            [
              33.9021818,
              34.9699258
            ],
            [
              33.9020064,
              34.9699699
            ],
            [
              33.9018932,
              34.9699639
            ],
            [
              33.9018848,
              34.9699666
            ],
            [
              33.9018688,
              34.9699925
            ],
            [
              33.9018495,
              34.9700532
            ],
            [
              33.9018096,
              34.970046
            ],
            [
              33.9018073,
              34.970053
            ],
            [
              33.9017502,
              34.9700428
            ],
            [
              33.9017336,
              34.9700158
            ],
            [
              33.9017468,
              34.96993
            ],
            [
              33.901744,
              34.9699253
            ],
            [
              33.9017337,
              34.9699301
            ],
            [
              33.9017346,
              34.9699169
            ],
            [
              33.9017216,
              34.969916
            ],
            [
              33.9016915,
              34.9699299
            ],
            [
              33.9016943,
              34.9698919
            ],
            [
              33.901641,
              34.969892
            ],
            [
              33.9015998,
              34.9698795
            ],
            [
              33.9015414,
              34.9698872
            ],
            [
              33.9015266,
              34.9698997
            ],
            [
              33.9014896,
              34.9699141
            ],
            [
              33.9014527,
              34.9699489
            ],
            [
              33.9013651,
              34.9700579
            ],
            [
              33.9013627,
              34.9700943
            ],
            [
              33.9014295,
              34.9701559
            ],
            [
              33.9014434,
              34.9701599
            ],
            [
              33.9014513,
              34.9701812
            ],
            [
              33.9014406,
              34.9701918
            ],
            [
              33.901408,
              34.9701821
            ],
            [
              33.9013984,
              34.9701917
            ],
            [
              33.9013312,
              34.9701716
            ],
            [
              33.9012537,
              34.970131
            ],
            [
              33.901228,
              34.9701376
            ],
            [
              33.9011957,
              34.9701349
            ],
            [
              33.901096,
              34.9701605
            ],
            [
              33.90104,
              34.9701825
            ],
            [
              33.9010349,
              34.9702083
            ],
            [
              33.9010448,
              34.9702566
            ],
            [
              33.9010444,
              34.970287
            ],
            [
              33.9010075,
              34.9702909
            ],
            [
              33.9009802,
              34.9702404
            ],
            [
              33.9009689,
              34.9702041
            ],
            [
              33.9009593,
              34.9701886
            ],
            [
              33.9009454,
              34.9701804
            ],
            [
              33.9009172,
              34.97018
            ],
            [
              33.9009058,
              34.9701998
            ],
            [
              33.9009024,
              34.9702189
            ],
            [
              33.900864,
              34.9702197
            ],
            [
              33.90084,
              34.9702158
            ],
            [
              33.9008283,
              34.9701991
            ],
            [
              33.9008373,
              34.9701639
            ],
            [
              33.9008327,
              34.970143
            ],
            [
              33.900802,
              34.9701204
            ],
            [
              33.9007815,
              34.9701103
            ],
            [
              33.9007454,
              34.9701267
            ],
            [
              33.9007358,
              34.9701412
            ],
            [
              33.900746,
              34.970161
            ],
            [
              33.9006797,
              34.9701614
            ],
            [
              33.9006541,
              34.9701772
            ],
            [
              33.9006542,
              34.9701855
            ],
            [
              33.9006774,
              34.9702079
            ],
            [
              33.9007045,
              34.9702132
            ],
            [
              33.900717,
              34.9702244
            ],
            [
              33.9007144,
              34.9702519
            ],
            [
              33.9007093,
              34.9702537
            ],
            [
              33.9006977,
              34.9702496
            ],
            [
              33.9006852,
              34.9702378
            ],
            [
              33.9006794,
              34.9702366
            ],
            [
              33.900673,
              34.9702444
            ],
            [
              33.9006704,
              34.9702749
            ],
            [
              33.9006808,
              34.9702986
            ],
            [
              33.900657,
              34.9703066
            ],
            [
              33.9006182,
              34.9702705
            ],
            [
              33.9005958,
              34.9702327
            ],
            [
              33.9005783,
              34.9702247
            ],
            [
              33.9005754,
              34.9702817
            ],
            [
              33.9005615,
              34.9702846
            ],
            [
              33.9005344,
              34.9702409
            ],
            [
              33.9005314,
              34.9702168
            ],
            [
              33.9004993,
              34.9702238
            ],
            [
              33.9004916,
              34.970216
            ],
            [
              33.9004364,
              34.9702282
            ],
            [
              33.900438,
              34.9702873
            ],
            [
              33.9004331,
              34.9703094
            ],
            [
              33.9004267,
              34.970319
            ],
            [
              33.9004137,
              34.9703251
            ],
            [
              33.9003964,
              34.9703258
            ],
            [
              33.900384,
              34.9703199
            ],
            [
              33.9003773,
              34.9703045
            ],
            [
              33.9003766,
              34.9702597
            ],
            [
              33.9003575,
              34.9702524
            ],
            [
              33.9003345,
              34.9702595
            ],
            [
              33.9003277,
              34.9702651
            ],
            [
              33.9003293,
              34.9702988
            ],
            [
              33.900298,
              34.9703235
            ],
            [
              33.9002886,
              34.9702973
            ],
            [
              33.9002778,
              34.9703063
            ],
            [
              33.9002392,
              34.9701611
            ],
            [
              33.9003259,
              34.9700406
            ],
            [
              33.9004603,
              34.9700128
            ],
            [
              33.9011584,
              34.9695089
            ],
            [
              33.9010316,
              34.9693707
            ],
            [
              33.9009751,
              34.9684113
            ],
            [
              33.9007247,
              34.9685534
            ],
            [
              33.9001165,
              34.968698
            ],
            [
              33.8997514,
              34.9690555
            ],
            [
              33.8990055,
              34.9696889
            ],
            [
              33.899298,
              34.9702422
            ],
            [
              33.8990633,
              34.9703355
            ],
            [
              33.898769,
              34.9705095
            ],
            [
              33.8986063,
              34.9706245
            ],
            [
              33.8984626,
              34.9707087
            ],
            [
              33.8984563,
              34.9706346
            ],
            [
              33.8985428,
              34.9705187
            ],
            [
              33.8985375,
              34.9705008
            ],
            [
              33.8985125,
              34.9704815
            ],
            [
              33.8981869,
              34.9703029
            ],
            [
              33.8980957,
              34.9702612
            ],
            [
              33.8980133,
              34.9702374
            ],
            [
              33.8979935,
              34.9702508
            ],
            [
              33.8979809,
              34.9702701
            ],
            [
              33.897979,
              34.9703028
            ],
            [
              33.8979897,
              34.9703236
            ],
            [
              33.8980165,
              34.970343
            ],
            [
              33.8980665,
              34.9704054
            ],
            [
              33.8980664,
              34.9704352
            ],
            [
              33.8979766,
              34.9704901
            ],
            [
              33.8979872,
              34.9705258
            ],
            [
              33.8980139,
              34.970563
            ],
            [
              33.8981497,
              34.9706909
            ],
            [
              33.8981413,
              34.9707677
            ],
            [
              33.8980507,
              34.9708108
            ],
            [
              33.8979754,
              34.970788
            ],
            [
              33.8979253,
              34.9707798
            ],
            [
              33.8978706,
              34.9707642
            ],
            [
              33.8978338,
              34.9707656
            ],
            [
              33.8978118,
              34.9707829
            ],
            [
              33.8978122,
              34.9708476
            ],
            [
              33.8977976,
              34.9708771
            ],
            [
              33.8977623,
              34.9708956
            ],
            [
              33.8976667,
              34.9709145
            ],
            [
              33.8975816,
              34.9709102
            ],
            [
              33.8975667,
              34.9708919
            ],
            [
              33.8975636,
              34.9708601
            ],
            [
              33.8975428,
              34.9708334
            ],
            [
              33.8974128,
              34.9707815
            ],
            [
              33.8972183,
              34.9707741
            ],
            [
              33.8971153,
              34.9707906
            ],
            [
              33.8970815,
              34.9708152
            ],
            [
              33.8970625,
              34.9708385
            ],
            [
              33.8970718,
              34.9709069
            ],
            [
              33.8970925,
              34.9709337
            ],
            [
              33.8971001,
              34.9709642
            ],
            [
              33.8970914,
              34.9709936
            ],
            [
              33.8970695,
              34.9710169
            ],
            [
              33.8969991,
              34.9710723
            ],
            [
              33.8969596,
              34.971125
            ],
            [
              33.8969524,
              34.9711519
            ],
            [
              33.8969599,
              34.9711775
            ],
            [
              33.8970043,
              34.9712151
            ],
            [
              33.8971303,
              34.9712813
            ],
            [
              33.897329,
              34.9713695
            ],
            [
              33.897421,
              34.9713533
            ],
            [
              33.8974932,
              34.9713571
            ],
            [
              33.897528,
              34.971349
            ],
            [
              33.8975589,
              34.9713298
            ],
            [
              33.8976508,
              34.9713048
            ],
            [
              33.8976223,
              34.9713336
            ],
            [
              33.8974797,
              34.9713996
            ],
            [
              33.8974152,
              34.9714568
            ],
            [
              33.8973498,
              34.9714893
            ],
            [
              33.8973334,
              34.9714915
            ],
            [
              33.8972852,
              34.9714701
            ],
            [
              33.8972512,
              34.9714759
            ],
            [
              33.8972227,
              34.9714919
            ],
            [
              33.8972131,
              34.9715048
            ],
            [
              33.89721,
              34.9715214
            ],
            [
              33.8972418,
              34.9715565
            ],
            [
              33.8971288,
              34.9716355
            ],
            [
              33.8970996,
              34.9716644
            ],
            [
              33.8970695,
              34.971709
            ],
            [
              33.8970682,
              34.9717241
            ],
            [
              33.8970828,
              34.9717511
            ],
            [
              33.8971151,
              34.9717694
            ],
            [
              33.8971867,
              34.9717916
            ],
            [
              33.8972014,
              34.9718015
            ],
            [
              33.8972098,
              34.9718156
            ],
            [
              33.8972029,
              34.9718456
            ],
            [
              33.8972072,
              34.9719034
            ],
            [
              33.8971693,
              34.9719587
            ],
            [
              33.8971539,
              34.9720362
            ],
            [
              33.8971844,
              34.9720906
            ],
            [
              33.8972124,
              34.9721529
            ],
            [
              33.8972278,
              34.9722234
            ],
            [
              33.89723,
              34.9722754
            ],
            [
              33.8972177,
              34.9723182
            ],
            [
              33.8971721,
              34.9724039
            ],
            [
              33.8971544,
              34.9725302
            ],
            [
              33.8971331,
              34.9726264
            ],
            [
              33.8971371,
              34.9726943
            ],
            [
              33.8971584,
              34.9727301
            ],
            [
              33.8971676,
              34.9728809
            ],
            [
              33.8971809,
              34.9728978
            ],
            [
              33.8972293,
              34.972937
            ],
            [
              33.8972486,
              34.972979
            ],
            [
              33.897334,
              34.9730978
            ],
            [
              33.8973535,
              34.9731539
            ],
            [
              33.8973832,
              34.9731921
            ],
            [
              33.8973954,
              34.9732206
            ],
            [
              33.8974085,
              34.9732805
            ],
            [
              33.897401,
              34.9733082
            ],
            [
              33.8974112,
              34.9733367
            ],
            [
              33.8974286,
              34.9734485
            ],
            [
              33.8974257,
              34.9735275
            ],
            [
              33.8974095,
              34.9736418
            ],
            [
              33.8973457,
              34.9737878
            ],
            [
              33.8972047,
              34.9738936
            ],
            [
              33.8971561,
              34.973893
            ],
            [
              33.8971105,
              34.9738834
            ],
            [
              33.8970883,
              34.9738848
            ],
            [
              33.8970184,
              34.9739238
            ],
            [
              33.8969699,
              34.9739743
            ],
            [
              33.8969554,
              34.974012
            ],
            [
              33.8969494,
              34.9741099
            ],
            [
              33.8969181,
              34.9741618
            ],
            [
              33.896826,
              34.9742389
            ],
            [
              33.8966274,
              34.9742719
            ],
            [
              33.8965358,
              34.9743179
            ],
            [
              33.8963255,
              34.9743743
            ],
            [
              33.8962351,
              34.9744253
            ],
            [
              33.8961544,
              34.9744549
            ],
            [
              33.8961122,
              34.9744519
            ],
            [
              33.8959923,
              34.9744865
            ],
            [
              33.8959333,
              34.9744813
            ],
            [
              33.8958094,
              34.9744931
            ]
          ]
        ]
      },
      "id": "way/1121185774"
    }
  ]
}
