{
  "type": "Feature",
  "properties": {},
  "geometry": {
    "type": "LineString",
    "coordinates": [
      [
        32.86392,
        34.886210000000005
      ],
      [
        32.864090000000004,
        34.88629
      ],
      [
        32.864160000000005,
        34.88644
      ],
      [
        32.864250000000006,
        34.88678
      ],
      [
        32.864470000000004,
        34.887100000000004
      ],
      [
        32.8646,
        34.8872
      ],
      [
        32.864720000000005,
        34.88725
      ],
      [
        32.865210000000005,
        34.88736
      ],
      [
        32.865320000000004,
        34.88732
      ],
      [
        32.86543,
        34.88732
      ],
      [
        32.865610000000004,
        34.887460000000004
      ],
      [
        32.86571,
        34.88741
      ],
      [
        32.865680000000005,
        34.88723
      ],
      [
        32.8656,
        34.88714
      ],
      [
        32.865280000000006,
        34.887
      ],
      [
        32.865140000000004,
        34.88682
      ],
      [
        32.86498,
        34.886520000000004
      ],
      [
        32.86495,
        34.886320000000005
      ],
      [
        32.86506,
        34.885870000000004
      ],
      [
        32.86478,
        34.885720000000006
      ],
      [
        32.864650000000005,
        34.88562
      ],
      [
        32.86457,
        34.885510000000004
      ],
      [
        32.8646,
        34.885360000000006
      ],
      [
        32.86473,
        34.885200000000005
      ],
      [
        32.86477,
        34.885020000000004
      ],
      [
        32.86457,
        34.88486
      ],
      [
        32.86453,
        34.884750000000004
      ],
      [
        32.86449,
        34.884460000000004
      ],
      [
        32.86449,
        34.884280000000004
      ],
      [
        32.864560000000004,
        34.884330000000006
      ],
      [
        32.86459,
        34.88427
      ],
      [
        32.864670000000004,
        34.8844
      ],
      [
        32.864740000000005,
        34.884440000000005
      ],
      [
        32.86477,
        34.884440000000005
      ],
      [
        32.86479,
        34.88449
      ],
      [
        32.864900000000006,
        34.884440000000005
      ],
      [
        32.865,
        34.884350000000005
      ],
      [
        32.86511,
        34.884370000000004
      ],
      [
        32.86535,
        34.88445
      ],
      [
        32.86565,
        34.88448
      ],
      [
        32.86582,
        34.88481
      ],
      [
        32.86589,
        34.884910000000005
      ],
      [
        32.86594,
        34.88496
      ],
      [
        32.86601,
        34.88495
      ],
      [
        32.8661,
        34.884640000000005
      ],
      [
        32.86607,
        34.88456
      ],
      [
        32.86632,
        34.8845
      ],
      [
        32.86641,
        34.88439
      ],
      [
        32.86637,
        34.88434
      ],
      [
        32.86645,
        34.884170000000005
      ],
      [
        32.86657,
        34.883990000000004
      ],
      [
        32.86663,
        34.88387
      ],
      [
        32.86661,
        34.883750000000006
      ]
    ]
  }
}