{
  "type": "Feature",
  "properties": {},
  "geometry": {
    "type": "LineString",
    "coordinates": [
      [
        32.78412,
        34.919160000000005
      ],
      [
        32.783950000000004,
        34.918710000000004
      ],
      [
        32.7837,
        34.91841
      ],
      [
        32.78343,
        34.918220000000005
      ],
      [
        32.78343,
        34.91796
      ],
      [
        32.78349,
        34.917500000000004
      ],
      [
        32.78333,
        34.91736
      ],
      [
        32.78324,
        34.917170000000006
      ],
      [
        32.78333,
        34.916850000000004
      ],
      [
        32.783210000000004,
        34.916700000000006
      ],
      [
        32.78296,
        34.916560000000004
      ],
      [
        32.78265499852268,
        34.91617000034501
      ],
      [
        32.78235,
        34.915780000000005
      ],
      [
        32.782270000000004,
        34.915530000000004
      ],
      [
        32.78221,
        34.91545
      ],
      [
        32.78177,
        34.91541
      ],
      [
        32.78087,
        34.914910000000006
      ],
      [
        32.7807,
        34.914660000000005
      ],
      [
        32.78051,
        34.91454
      ],
      [
        32.780210000000004,
        34.91391
      ],
      [
        32.78011,
        34.913650000000004
      ],
      [
        32.77994,
        34.913520000000005
      ],
      [
        32.779920000000004,
        34.91302
      ],
      [
        32.779970000000006,
        34.91236
      ],
      [
        32.78002,
        34.91225
      ],
      [
        32.780440000000006,
        34.9121
      ],
      [
        32.7805,
        34.911880000000004
      ],
      [
        32.78049,
        34.911570000000005
      ],
      [
        32.7802,
        34.9112
      ],
      [
        32.77994,
        34.91091
      ],
      [
        32.77994,
        34.91076
      ],
      [
        32.77987,
        34.910500000000006
      ],
      [
        32.77996,
        34.90997
      ],
      [
        32.78034,
        34.90945
      ],
      [
        32.780570000000004,
        34.90932
      ],
      [
        32.78088,
        34.90901
      ],
      [
        32.78088,
        34.908710000000006
      ],
      [
        32.7810950011948,
        34.9082450002387
      ],
      [
        32.781310000000005,
        34.90778
      ],
      [
        32.78159,
        34.90769
      ],
      [
        32.78177,
        34.90773
      ],
      [
        32.78206,
        34.907680000000006
      ],
      [
        32.78226,
        34.90751
      ],
      [
        32.782270000000004,
        34.90673
      ],
      [
        32.782230000000006,
        34.90657
      ],
      [
        32.78231,
        34.9065
      ],
      [
        32.7826,
        34.90637
      ],
      [
        32.782790000000006,
        34.90617
      ],
      [
        32.782650000000004,
        34.90594
      ],
      [
        32.78255,
        34.905910000000006
      ],
      [
        32.78233,
        34.905530000000006
      ],
      [
        32.78233,
        34.90502
      ],
      [
        32.782230000000006,
        34.90482
      ],
      [
        32.782090000000004,
        34.904830000000004
      ],
      [
        32.781980000000004,
        34.904880000000006
      ],
      [
        32.781670000000005,
        34.90486
      ],
      [
        32.78161,
        34.90448
      ],
      [
        32.782050000000005,
        34.90411
      ],
      [
        32.781960000000005,
        34.90346
      ],
      [
        32.782030000000006,
        34.90314
      ],
      [
        32.78183,
        34.903360000000006
      ],
      [
        32.78161,
        34.903760000000005
      ],
      [
        32.781180000000006,
        34.903490000000005
      ],
      [
        32.7807,
        34.90301
      ],
      [
        32.78042,
        34.90261
      ],
      [
        32.78031,
        34.902330000000006
      ],
      [
        32.78014,
        34.902170000000005
      ],
      [
        32.779920000000004,
        34.90203
      ],
      [
        32.77966,
        34.901920000000004
      ],
      [
        32.77958,
        34.90173
      ],
      [
        32.77935,
        34.90176
      ],
      [
        32.7793,
        34.901650000000004
      ],
      [
        32.77947,
        34.90144
      ],
      [
        32.779450000000004,
        34.90133
      ],
      [
        32.779500000000006,
        34.901210000000006
      ],
      [
        32.77948,
        34.90111
      ],
      [
        32.77938,
        34.90097
      ],
      [
        32.77913,
        34.900870000000005
      ],
      [
        32.77893,
        34.90072
      ],
      [
        32.77873,
        34.90061
      ],
      [
        32.778670000000005,
        34.900490000000005
      ],
      [
        32.77853,
        34.900470000000006
      ],
      [
        32.77836,
        34.900400000000005
      ],
      [
        32.778150000000004,
        34.90001
      ],
      [
        32.777930000000005,
        34.89981
      ],
      [
        32.77787,
        34.899660000000004
      ],
      [
        32.77805,
        34.89965
      ],
      [
        32.77796,
        34.89956
      ],
      [
        32.778130000000004,
        34.89954
      ],
      [
        32.77778,
        34.8994
      ],
      [
        32.777640000000005,
        34.89929
      ],
      [
        32.77749,
        34.89903
      ],
      [
        32.77751,
        34.898950000000006
      ],
      [
        32.777550000000005,
        34.89891
      ],
      [
        32.77758,
        34.8988
      ],
      [
        32.77752,
        34.89866
      ],
      [
        32.777550000000005,
        34.898630000000004
      ],
      [
        32.77761,
        34.8986
      ],
      [
        32.777590000000004,
        34.89851
      ],
      [
        32.77769,
        34.89835
      ],
      [
        32.7777,
        34.89824
      ],
      [
        32.777750000000005,
        34.89815
      ],
      [
        32.77769,
        34.897960000000005
      ],
      [
        32.77754,
        34.89788
      ],
      [
        32.777280000000005,
        34.89791
      ],
      [
        32.77698,
        34.89813
      ],
      [
        32.776740000000004,
        34.89804
      ],
      [
        32.77646,
        34.897980000000004
      ],
      [
        32.77629,
        34.897920000000006
      ],
      [
        32.77608,
        34.897760000000005
      ],
      [
        32.77591,
        34.897670000000005
      ],
      [
        32.77581,
        34.89753
      ],
      [
        32.775850000000005,
        34.89725
      ],
      [
        32.77582,
        34.89712
      ],
      [
        32.775760000000005,
        34.897020000000005
      ],
      [
        32.77566,
        34.89699
      ],
      [
        32.775510000000004,
        34.89701
      ],
      [
        32.77532,
        34.89708
      ],
      [
        32.77523,
        34.89701
      ],
      [
        32.77519,
        34.896890000000006
      ],
      [
        32.775110000000005,
        34.896840000000005
      ],
      [
        32.775130000000004,
        34.89676
      ],
      [
        32.775130000000004,
        34.89665
      ],
      [
        32.77501,
        34.89661
      ],
      [
        32.77492,
        34.89643
      ],
      [
        32.77481,
        34.89641
      ],
      [
        32.774710000000006,
        34.896280000000004
      ],
      [
        32.77463,
        34.89629
      ],
      [
        32.774620000000006,
        34.89643
      ],
      [
        32.774530000000006,
        34.896480000000004
      ],
      [
        32.774370000000005,
        34.8962
      ],
      [
        32.77431,
        34.89614
      ],
      [
        32.773700000000005,
        34.895860000000006
      ],
      [
        32.773320000000005,
        34.89584
      ],
      [
        32.77261000020587,
        34.89586000206322
      ],
      [
        32.7719,
        34.895880000000005
      ],
      [
        32.77172,
        34.89591
      ],
      [
        32.77141,
        34.89605
      ],
      [
        32.771150000000006,
        34.89623
      ],
      [
        32.77102,
        34.896370000000005
      ],
      [
        32.77089,
        34.89661
      ],
      [
        32.770810000000004,
        34.89668
      ],
      [
        32.77057,
        34.89669
      ],
      [
        32.770210000000006,
        34.89667
      ],
      [
        32.76954,
        34.89659
      ],
      [
        32.76925,
        34.89649
      ],
      [
        32.768820000000005,
        34.89631
      ],
      [
        32.768330000000006,
        34.896040000000006
      ],
      [
        32.768080000000005,
        34.89593
      ],
      [
        32.767700000000005,
        34.895860000000006
      ],
      [
        32.76747,
        34.89584
      ],
      [
        32.76713,
        34.89587
      ],
      [
        32.76634,
        34.89613
      ],
      [
        32.766200000000005,
        34.896150000000006
      ],
      [
        32.76607,
        34.89612
      ],
      [
        32.76597,
        34.896060000000006
      ],
      [
        32.76587,
        34.895970000000005
      ],
      [
        32.76556,
        34.89558
      ],
      [
        32.7654,
        34.89544
      ],
      [
        32.765190000000004,
        34.895320000000005
      ],
      [
        32.764970000000005,
        34.895270000000004
      ],
      [
        32.76476,
        34.895300000000006
      ],
      [
        32.764570000000006,
        34.89538
      ],
      [
        32.76446,
        34.89551
      ],
      [
        32.764390000000006,
        34.89565
      ],
      [
        32.76427,
        34.89616
      ],
      [
        32.7642,
        34.896300000000004
      ],
      [
        32.764100000000006,
        34.89634
      ],
      [
        32.764030000000005,
        34.896330000000006
      ],
      [
        32.763650000000005,
        34.896190000000004
      ],
      [
        32.76342,
        34.896150000000006
      ],
      [
        32.76296,
        34.89616
      ],
      [
        32.76254,
        34.89609
      ],
      [
        32.76258,
        34.895950000000006
      ],
      [
        32.762510000000006,
        34.89578
      ],
      [
        32.762510000000006,
        34.895590000000006
      ],
      [
        32.762480000000004,
        34.89546
      ],
      [
        32.76252,
        34.89526
      ],
      [
        32.762420000000006,
        34.89515
      ],
      [
        32.76222,
        34.89506
      ],
      [
        32.762010000000004,
        34.89488
      ],
      [
        32.76149,
        34.895
      ],
      [
        32.761340000000004,
        34.894980000000004
      ],
      [
        32.76128,
        34.894940000000005
      ],
      [
        32.76117,
        34.89481
      ],
      [
        32.761050000000004,
        34.894510000000004
      ],
      [
        32.760740000000006,
        34.89428
      ],
      [
        32.7601,
        34.894510000000004
      ],
      [
        32.75965,
        34.89464
      ],
      [
        32.758900000000004,
        34.8947
      ],
      [
        32.75854,
        34.894600000000004
      ],
      [
        32.75826,
        34.89448
      ],
      [
        32.75795,
        34.894110000000005
      ],
      [
        32.7578,
        34.894000000000005
      ],
      [
        32.75761,
        34.894000000000005
      ],
      [
        32.75761,
        34.894420000000004
      ],
      [
        32.757490000000004,
        34.89457
      ],
      [
        32.75743,
        34.89473
      ],
      [
        32.75743,
        34.894780000000004
      ],
      [
        32.75734,
        34.89486
      ],
      [
        32.757130000000004,
        34.894920000000006
      ],
      [
        32.756980000000006,
        34.89504
      ],
      [
        32.75687,
        34.89509
      ],
      [
        32.756530000000005,
        34.89509
      ],
      [
        32.756370000000004,
        34.895140000000005
      ],
      [
        32.756190000000004,
        34.895250000000004
      ],
      [
        32.75609,
        34.89526
      ],
      [
        32.755970000000005,
        34.89519
      ],
      [
        32.75585,
        34.894940000000005
      ],
      [
        32.755790000000005,
        34.894890000000004
      ],
      [
        32.75535,
        34.894920000000006
      ],
      [
        32.75513,
        34.89484
      ],
      [
        32.754850000000005,
        34.8947
      ],
      [
        32.7547,
        34.89452
      ],
      [
        32.75444,
        34.894380000000005
      ],
      [
        32.75414,
        34.894360000000006
      ],
      [
        32.75403,
        34.89426
      ],
      [
        32.75399,
        34.894130000000004
      ],
      [
        32.7539,
        34.89403
      ],
      [
        32.75368,
        34.89367
      ],
      [
        32.7533,
        34.893420000000006
      ],
      [
        32.75312,
        34.89327
      ],
      [
        32.752680000000005,
        34.893080000000005
      ],
      [
        32.75235,
        34.89282
      ],
      [
        32.751960000000004,
        34.892680000000006
      ],
      [
        32.75188,
        34.892610000000005
      ],
      [
        32.751850000000005,
        34.892320000000005
      ],
      [
        32.75173,
        34.89215
      ],
      [
        32.75162,
        34.892030000000005
      ],
      [
        32.75135,
        34.891850000000005
      ],
      [
        32.7513,
        34.89168
      ],
      [
        32.751250000000006,
        34.891630000000006
      ],
      [
        32.751160000000006,
        34.891650000000006
      ],
      [
        32.751200000000004,
        34.891360000000006
      ],
      [
        32.75113,
        34.891380000000005
      ],
      [
        32.7511,
        34.891290000000005
      ],
      [
        32.75101,
        34.89121
      ],
      [
        32.75063,
        34.89106
      ],
      [
        32.750440000000005,
        34.890890000000006
      ],
      [
        32.75007,
        34.89072
      ],
      [
        32.75001,
        34.890570000000004
      ],
      [
        32.749860000000005,
        34.89049
      ],
      [
        32.74935,
        34.890330000000006
      ],
      [
        32.74931,
        34.890150000000006
      ],
      [
        32.74924,
        34.89014
      ],
      [
        32.749120000000005,
        34.890260000000005
      ],
      [
        32.74879,
        34.890150000000006
      ],
      [
        32.74862,
        34.8902
      ],
      [
        32.748580000000004,
        34.890260000000005
      ],
      [
        32.74852,
        34.890190000000004
      ],
      [
        32.748340000000006,
        34.890080000000005
      ],
      [
        32.74822,
        34.889970000000005
      ],
      [
        32.74817,
        34.889970000000005
      ],
      [
        32.74812,
        34.88991
      ],
      [
        32.748020000000004,
        34.88991
      ],
      [
        32.747840000000004,
        34.88998
      ],
      [
        32.747690000000006,
        34.89
      ],
      [
        32.747600000000006,
        34.88987
      ],
      [
        32.747640000000004,
        34.88983
      ],
      [
        32.747620000000005,
        34.88974
      ],
      [
        32.74741,
        34.88965
      ],
      [
        32.7473,
        34.88976
      ],
      [
        32.74728,
        34.889880000000005
      ],
      [
        32.74711,
        34.88982
      ],
      [
        32.74709,
        34.88974
      ],
      [
        32.747040000000005,
        34.889790000000005
      ],
      [
        32.747,
        34.889790000000005
      ],
      [
        32.74701,
        34.88976
      ],
      [
        32.747040000000005,
        34.889770000000006
      ],
      [
        32.74703,
        34.889720000000004
      ],
      [
        32.746970000000005,
        34.889700000000005
      ],
      [
        32.74691,
        34.88975
      ],
      [
        32.746860000000005,
        34.88967
      ],
      [
        32.746860000000005,
        34.889590000000005
      ],
      [
        32.74682,
        34.889520000000005
      ],
      [
        32.74685,
        34.889450000000004
      ],
      [
        32.74682,
        34.88949
      ],
      [
        32.74676,
        34.889500000000005
      ],
      [
        32.746770000000005,
        34.889450000000004
      ],
      [
        32.746750000000006,
        34.88936
      ],
      [
        32.74645,
        34.88924
      ],
      [
        32.746340000000004,
        34.88924
      ],
      [
        32.746320000000004,
        34.88917
      ],
      [
        32.74627,
        34.88917
      ],
      [
        32.74626,
        34.889230000000005
      ],
      [
        32.74595,
        34.8892
      ],
      [
        32.745850000000004,
        34.889210000000006
      ],
      [
        32.74571,
        34.8892
      ],
      [
        32.745810000000006,
        34.88911
      ],
      [
        32.745960000000004,
        34.88904
      ],
      [
        32.745960000000004,
        34.889010000000006
      ],
      [
        32.74584,
        34.889010000000006
      ],
      [
        32.745430000000006,
        34.889160000000004
      ],
      [
        32.74524,
        34.88928
      ],
      [
        32.74499,
        34.889340000000004
      ],
      [
        32.744870000000006,
        34.88933
      ],
      [
        32.74472,
        34.88935
      ],
      [
        32.74452,
        34.88935
      ],
      [
        32.74403,
        34.88926
      ],
      [
        32.74376,
        34.88924
      ],
      [
        32.74351,
        34.889300000000006
      ],
      [
        32.74335,
        34.8894
      ],
      [
        32.74327,
        34.88946
      ],
      [
        32.74313,
        34.88942
      ],
      [
        32.743,
        34.889300000000006
      ],
      [
        32.742920000000005,
        34.889140000000005
      ],
      [
        32.74275,
        34.88911
      ],
      [
        32.742430000000006,
        34.889190000000006
      ],
      [
        32.742110000000004,
        34.88936
      ],
      [
        32.741960000000006,
        34.88949
      ],
      [
        32.741530000000004,
        34.889570000000006
      ],
      [
        32.74136,
        34.88967
      ],
      [
        32.74073,
        34.890010000000004
      ],
      [
        32.740550000000006,
        34.890190000000004
      ],
      [
        32.740410000000004,
        34.890280000000004
      ],
      [
        32.740140000000004,
        34.890600000000006
      ],
      [
        32.73993,
        34.890800000000006
      ],
      [
        32.739250000000006,
        34.89108
      ],
      [
        32.738910000000004,
        34.89126
      ],
      [
        32.73856,
        34.891780000000004
      ],
      [
        32.73832,
        34.891850000000005
      ],
      [
        32.737950000000005,
        34.891870000000004
      ],
      [
        32.73734,
        34.89222
      ],
      [
        32.73706,
        34.892300000000006
      ],
      [
        32.73633,
        34.892340000000004
      ],
      [
        32.736090000000004,
        34.89233
      ],
      [
        32.73594,
        34.89227
      ],
      [
        32.735820000000004,
        34.892120000000006
      ],
      [
        32.73536,
        34.892120000000006
      ],
      [
        32.73523,
        34.892230000000005
      ],
      [
        32.734770000000005,
        34.892230000000005
      ],
      [
        32.73425,
        34.892360000000004
      ],
      [
        32.73371,
        34.89258
      ],
      [
        32.733250000000005,
        34.89287
      ],
      [
        32.732960000000006,
        34.892950000000006
      ],
      [
        32.732760000000006,
        34.892950000000006
      ],
      [
        32.732780000000005,
        34.8928
      ],
      [
        32.732710000000004,
        34.892700000000005
      ],
      [
        32.73261,
        34.89265
      ],
      [
        32.73241,
        34.89262
      ],
      [
        32.73238,
        34.89264
      ],
      [
        32.73223,
        34.89262
      ],
      [
        32.7321,
        34.892520000000005
      ],
      [
        32.73199,
        34.892390000000006
      ],
      [
        32.731840000000005,
        34.892320000000005
      ],
      [
        32.73163,
        34.89237
      ],
      [
        32.730990000000006,
        34.8924
      ],
      [
        32.73082,
        34.892430000000004
      ],
      [
        32.7306,
        34.892390000000006
      ],
      [
        32.73004,
        34.8928
      ],
      [
        32.729760000000006,
        34.892810000000004
      ],
      [
        32.729310000000005,
        34.89276
      ],
      [
        32.728570000000005,
        34.89303
      ],
      [
        32.72834,
        34.89305
      ],
      [
        32.727810000000005,
        34.89316
      ],
      [
        32.72720999948097,
        34.89308500147764
      ],
      [
        32.72661,
        34.893010000000004
      ],
      [
        32.72569,
        34.892920000000004
      ],
      [
        32.72549,
        34.892810000000004
      ],
      [
        32.72536,
        34.89282
      ],
      [
        32.724810000000005,
        34.89294
      ],
      [
        32.72393,
        34.89251
      ],
      [
        32.7233,
        34.892360000000004
      ],
      [
        32.72296,
        34.89237
      ],
      [
        32.72289,
        34.892390000000006
      ],
      [
        32.7227,
        34.892450000000004
      ],
      [
        32.72262,
        34.892610000000005
      ],
      [
        32.722660000000005,
        34.892900000000004
      ],
      [
        32.72234,
        34.893150000000006
      ],
      [
        32.721830000000004,
        34.89322
      ],
      [
        32.72153,
        34.893330000000006
      ],
      [
        32.72133,
        34.89332
      ],
      [
        32.721180000000004,
        34.89329
      ],
      [
        32.72086,
        34.8935
      ],
      [
        32.72052,
        34.89349
      ],
      [
        32.72046,
        34.89356
      ],
      [
        32.720400000000005,
        34.89363
      ],
      [
        32.720380000000006,
        34.894400000000005
      ],
      [
        32.72016,
        34.89491
      ],
      [
        32.720150000000004,
        34.89508
      ],
      [
        32.72018,
        34.8952
      ],
      [
        32.72007,
        34.89538
      ],
      [
        32.72017,
        34.89556
      ],
      [
        32.72037,
        34.895680000000006
      ],
      [
        32.72064,
        34.89571
      ],
      [
        32.72108,
        34.89557
      ],
      [
        32.721360000000004,
        34.89556
      ],
      [
        32.721430000000005,
        34.89567
      ],
      [
        32.721410000000006,
        34.89584
      ],
      [
        32.72121,
        34.895970000000005
      ],
      [
        32.72081,
        34.89612
      ],
      [
        32.72048,
        34.896300000000004
      ],
      [
        32.72019,
        34.896350000000005
      ],
      [
        32.71958,
        34.89627
      ],
      [
        32.71922,
        34.89632
      ],
      [
        32.71887,
        34.896420000000006
      ],
      [
        32.71855,
        34.896460000000005
      ],
      [
        32.718180000000004,
        34.89645
      ],
      [
        32.717330000000004,
        34.89618
      ],
      [
        32.71701,
        34.895990000000005
      ],
      [
        32.7167,
        34.89594
      ],
      [
        32.71638,
        34.89598
      ],
      [
        32.71613,
        34.895990000000005
      ],
      [
        32.71595,
        34.89589
      ],
      [
        32.715700000000005,
        34.895860000000006
      ],
      [
        32.7151,
        34.89594
      ],
      [
        32.71486,
        34.89589
      ],
      [
        32.714600000000004,
        34.89575
      ],
      [
        32.71426,
        34.895700000000005
      ],
      [
        32.71403,
        34.895610000000005
      ],
      [
        32.713950000000004,
        34.89549
      ],
      [
        32.71392,
        34.8952
      ],
      [
        32.71341,
        34.895030000000006
      ],
      [
        32.71295,
        34.895050000000005
      ],
      [
        32.712790000000005,
        34.895140000000005
      ],
      [
        32.71271,
        34.89533
      ],
      [
        32.71244,
        34.89556
      ],
      [
        32.712160000000004,
        34.89558
      ],
      [
        32.711940000000006,
        34.89576
      ],
      [
        32.711670000000005,
        34.89589
      ],
      [
        32.7111,
        34.89584
      ],
      [
        32.71065,
        34.89585
      ],
      [
        32.71022,
        34.8958
      ],
      [
        32.709970000000006,
        34.89584
      ],
      [
        32.70966,
        34.896080000000005
      ],
      [
        32.70964,
        34.896260000000005
      ],
      [
        32.709590000000006,
        34.8964
      ],
      [
        32.70942,
        34.89656
      ],
      [
        32.7094,
        34.89674
      ],
      [
        32.70942,
        34.897110000000005
      ],
      [
        32.709410000000005,
        34.897310000000004
      ],
      [
        32.709210000000006,
        34.89748
      ],
      [
        32.70899,
        34.89755
      ],
      [
        32.708580000000005,
        34.897650000000006
      ],
      [
        32.70843,
        34.89763
      ],
      [
        32.708330000000004,
        34.897490000000005
      ],
      [
        32.70825,
        34.89734
      ],
      [
        32.708110000000005,
        34.897310000000004
      ],
      [
        32.70806,
        34.897090000000006
      ],
      [
        32.708000000000006,
        34.89694
      ],
      [
        32.707840000000004,
        34.89683
      ],
      [
        32.707460000000005,
        34.896980000000006
      ],
      [
        32.707300000000004,
        34.8969
      ],
      [
        32.70722,
        34.89681
      ],
      [
        32.70709,
        34.89678
      ],
      [
        32.706830000000004,
        34.896890000000006
      ],
      [
        32.706250000000004,
        34.89719
      ],
      [
        32.70617,
        34.897240000000004
      ],
      [
        32.70581,
        34.897780000000004
      ],
      [
        32.70554,
        34.89782
      ],
      [
        32.70524,
        34.8977
      ],
      [
        32.704930000000004,
        34.897380000000005
      ],
      [
        32.70477,
        34.897330000000004
      ],
      [
        32.70454,
        34.897330000000004
      ],
      [
        32.70429,
        34.89739
      ],
      [
        32.704150000000006,
        34.897740000000006
      ],
      [
        32.704,
        34.89797
      ],
      [
        32.703860000000006,
        34.8981
      ],
      [
        32.70365,
        34.89819
      ],
      [
        32.703500000000005,
        34.89831
      ],
      [
        32.70344,
        34.89864
      ],
      [
        32.703250000000004,
        34.898770000000006
      ],
      [
        32.703,
        34.898900000000005
      ],
      [
        32.70273,
        34.89894
      ],
      [
        32.702360000000006,
        34.89884
      ],
      [
        32.70208,
        34.898900000000005
      ],
      [
        32.70185,
        34.89903
      ],
      [
        32.701600000000006,
        34.89934
      ],
      [
        32.701330000000006,
        34.89945
      ],
      [
        32.70098,
        34.899460000000005
      ],
      [
        32.70047,
        34.89927
      ],
      [
        32.700070000000004,
        34.899260000000005
      ],
      [
        32.6998,
        34.899170000000005
      ],
      [
        32.699690000000004,
        34.898990000000005
      ],
      [
        32.69955,
        34.898880000000005
      ],
      [
        32.699310000000004,
        34.89894
      ],
      [
        32.69917,
        34.898950000000006
      ],
      [
        32.698910000000005,
        34.898830000000004
      ],
      [
        32.69859,
        34.89873
      ],
      [
        32.69823,
        34.898720000000004
      ],
      [
        32.698130000000006,
        34.898590000000006
      ],
      [
        32.69827,
        34.89822
      ],
      [
        32.698460000000004,
        34.89793
      ],
      [
        32.69847,
        34.89782
      ],
      [
        32.6984,
        34.89775
      ],
      [
        32.69811,
        34.897690000000004
      ],
      [
        32.69789,
        34.897740000000006
      ],
      [
        32.69776,
        34.89795
      ],
      [
        32.697570000000006,
        34.898050000000005
      ],
      [
        32.69731,
        34.89811
      ],
      [
        32.69717,
        34.89817
      ],
      [
        32.69697,
        34.898390000000006
      ],
      [
        32.69671,
        34.89842
      ],
      [
        32.696220000000004,
        34.898360000000004
      ],
      [
        32.69586,
        34.898360000000004
      ],
      [
        32.695600000000006,
        34.898410000000005
      ],
      [
        32.6953,
        34.898610000000005
      ],
      [
        32.6948,
        34.899060000000006
      ],
      [
        32.69465,
        34.899150000000006
      ],
      [
        32.694520000000004,
        34.899080000000005
      ],
      [
        32.694430000000004,
        34.89891
      ],
      [
        32.694410000000005,
        34.898770000000006
      ],
      [
        32.69449,
        34.89862
      ],
      [
        32.69454,
        34.89847
      ],
      [
        32.69454,
        34.89833
      ],
      [
        32.69438,
        34.89819
      ],
      [
        32.694300000000005,
        34.89802
      ],
      [
        32.694320000000005,
        34.897960000000005
      ],
      [
        32.694430000000004,
        34.89781
      ],
      [
        32.69447,
        34.897710000000004
      ],
      [
        32.694430000000004,
        34.897670000000005
      ],
      [
        32.694320000000005,
        34.897670000000005
      ],
      [
        32.69411,
        34.89755
      ],
      [
        32.69402,
        34.89743
      ],
      [
        32.69411,
        34.89725
      ],
      [
        32.69436,
        34.89701
      ],
      [
        32.69454,
        34.896930000000005
      ],
      [
        32.694660000000006,
        34.89683
      ],
      [
        32.694750000000006,
        34.896730000000005
      ],
      [
        32.69474,
        34.896440000000005
      ],
      [
        32.694720000000004,
        34.89632
      ],
      [
        32.69482,
        34.896170000000005
      ],
      [
        32.69489,
        34.89611
      ],
      [
        32.69505,
        34.895880000000005
      ],
      [
        32.695170000000005,
        34.89578
      ],
      [
        32.69525,
        34.89562
      ],
      [
        32.69523,
        34.89544
      ],
      [
        32.695170000000005,
        34.89529
      ],
      [
        32.69507,
        34.895230000000005
      ],
      [
        32.69493,
        34.89522
      ],
      [
        32.69478,
        34.89526
      ],
      [
        32.694680000000005,
        34.89533
      ],
      [
        32.69451,
        34.89535
      ],
      [
        32.69422,
        34.89529
      ],
      [
        32.69382,
        34.89502
      ],
      [
        32.69362,
        34.895
      ],
      [
        32.69343,
        34.894890000000004
      ],
      [
        32.6935,
        34.89463
      ],
      [
        32.6936,
        34.894490000000005
      ],
      [
        32.693560000000005,
        34.894310000000004
      ],
      [
        32.69348,
        34.89414
      ],
      [
        32.693360000000006,
        34.893980000000006
      ],
      [
        32.69341,
        34.89378
      ],
      [
        32.69341,
        34.893600000000006
      ],
      [
        32.693270000000005,
        34.8934
      ],
      [
        32.693360000000006,
        34.89302
      ],
      [
        32.69337,
        34.892880000000005
      ],
      [
        32.693200000000004,
        34.89289
      ],
      [
        32.69297,
        34.893010000000004
      ],
      [
        32.69258,
        34.893040000000006
      ],
      [
        32.69241,
        34.893150000000006
      ],
      [
        32.69236,
        34.89338
      ],
      [
        32.692220000000006,
        34.89358
      ],
      [
        32.692130000000006,
        34.893620000000006
      ],
      [
        32.69183,
        34.893640000000005
      ],
      [
        32.691700000000004,
        34.89361
      ],
      [
        32.6916,
        34.893510000000006
      ],
      [
        32.6916,
        34.893420000000006
      ],
      [
        32.69163,
        34.893330000000006
      ],
      [
        32.69164,
        34.893170000000005
      ],
      [
        32.691590000000005,
        34.892970000000005
      ],
      [
        32.691610000000004,
        34.892810000000004
      ],
      [
        32.692190000000004,
        34.89211
      ],
      [
        32.692240000000005,
        34.89193
      ],
      [
        32.69218,
        34.891830000000006
      ],
      [
        32.692170000000004,
        34.89175
      ],
      [
        32.69239,
        34.891470000000005
      ],
      [
        32.6925,
        34.89117
      ],
      [
        32.6923,
        34.890620000000006
      ],
      [
        32.692190000000004,
        34.890480000000004
      ],
      [
        32.692040000000006,
        34.89036
      ],
      [
        32.69171,
        34.89034
      ],
      [
        32.691430000000004,
        34.89041
      ],
      [
        32.69131,
        34.890620000000006
      ],
      [
        32.691320000000005,
        34.89086
      ],
      [
        32.691250000000004,
        34.890930000000004
      ],
      [
        32.69082,
        34.891070000000006
      ],
      [
        32.69068,
        34.891070000000006
      ],
      [
        32.69059,
        34.891020000000005
      ],
      [
        32.690540000000006,
        34.89096
      ],
      [
        32.69048,
        34.89072
      ],
      [
        32.69046,
        34.890420000000006
      ],
      [
        32.69039,
        34.89036
      ],
      [
        32.690290000000005,
        34.890350000000005
      ],
      [
        32.690110000000004,
        34.890390000000004
      ],
      [
        32.68994,
        34.89047
      ],
      [
        32.68986,
        34.89043
      ],
      [
        32.689820000000005,
        34.890370000000004
      ],
      [
        32.68979,
        34.890280000000004
      ],
      [
        32.689780000000006,
        34.890190000000004
      ],
      [
        32.68974,
        34.890060000000005
      ],
      [
        32.68961,
        34.88994
      ],
      [
        32.689370000000004,
        34.889860000000006
      ],
      [
        32.68919,
        34.88989
      ],
      [
        32.688900000000004,
        34.890060000000005
      ],
      [
        32.688370000000006,
        34.89009
      ],
      [
        32.68827,
        34.89011
      ],
      [
        32.68822,
        34.89018
      ],
      [
        32.68816,
        34.890350000000005
      ],
      [
        32.688120000000005,
        34.8904
      ],
      [
        32.68773,
        34.89069
      ],
      [
        32.687450000000005,
        34.89099
      ],
      [
        32.687380000000005,
        34.891000000000005
      ],
      [
        32.687340000000006,
        34.89097
      ],
      [
        32.687160000000006,
        34.890750000000004
      ],
      [
        32.686890000000005,
        34.890620000000006
      ],
      [
        32.686730000000004,
        34.89058
      ],
      [
        32.686310000000006,
        34.89052
      ],
      [
        32.6862,
        34.890420000000006
      ],
      [
        32.686130000000006,
        34.89014
      ],
      [
        32.68601,
        34.88994
      ],
      [
        32.685750000000006,
        34.88982
      ],
      [
        32.68524,
        34.889860000000006
      ],
      [
        32.684740000000005,
        34.88984
      ],
      [
        32.68446,
        34.88987
      ],
      [
        32.6843,
        34.889920000000004
      ],
      [
        32.684090000000005,
        34.889950000000006
      ],
      [
        32.68375,
        34.88996
      ],
      [
        32.68339,
        34.88987
      ],
      [
        32.68328,
        34.88987
      ],
      [
        32.683170000000004,
        34.88982
      ],
      [
        32.683060000000005,
        34.8898
      ],
      [
        32.68294,
        34.88973
      ],
      [
        32.682860000000005,
        34.889630000000004
      ],
      [
        32.682790000000004,
        34.889590000000005
      ],
      [
        32.6828,
        34.889540000000004
      ],
      [
        32.68262,
        34.889410000000005
      ],
      [
        32.68262,
        34.88936
      ],
      [
        32.682660000000006,
        34.88927
      ],
      [
        32.682500000000005,
        34.889210000000006
      ],
      [
        32.682390000000005,
        34.88924
      ],
      [
        32.682300000000005,
        34.88931
      ],
      [
        32.68226,
        34.889300000000006
      ],
      [
        32.68224,
        34.889250000000004
      ],
      [
        32.68216,
        34.889210000000006
      ],
      [
        32.68209,
        34.889010000000006
      ],
      [
        32.68197,
        34.889
      ],
      [
        32.6817,
        34.88904
      ],
      [
        32.681520000000006,
        34.88902
      ],
      [
        32.6813,
        34.888920000000006
      ],
      [
        32.681200000000004,
        34.8889
      ],
      [
        32.68099,
        34.8889
      ],
      [
        32.68079,
        34.888960000000004
      ],
      [
        32.68047,
        34.888980000000004
      ],
      [
        32.68003,
        34.888940000000005
      ],
      [
        32.67992,
        34.8889
      ],
      [
        32.679790000000004,
        34.88881
      ],
      [
        32.67971,
        34.888720000000006
      ],
      [
        32.67958,
        34.8887
      ],
      [
        32.679480000000005,
        34.888580000000005
      ],
      [
        32.679190000000006,
        34.888380000000005
      ],
      [
        32.67873,
        34.88828
      ],
      [
        32.678610000000006,
        34.88819
      ],
      [
        32.67839,
        34.88787
      ],
      [
        32.67833,
        34.88774
      ],
      [
        32.678070000000005,
        34.88749
      ],
      [
        32.67797,
        34.887370000000004
      ],
      [
        32.677870000000006,
        34.887150000000005
      ],
      [
        32.67766,
        34.88703
      ],
      [
        32.67757,
        34.88692
      ],
      [
        32.67745,
        34.886860000000006
      ],
      [
        32.677310000000006,
        34.88683
      ],
      [
        32.67699,
        34.88682
      ],
      [
        32.67676,
        34.88671
      ],
      [
        32.676610000000004,
        34.88674
      ],
      [
        32.676480000000005,
        34.88685
      ],
      [
        32.67624,
        34.88698
      ],
      [
        32.67613,
        34.886990000000004
      ],
      [
        32.67606,
        34.887010000000004
      ],
      [
        32.675900000000006,
        34.88698
      ],
      [
        32.6758,
        34.88691
      ],
      [
        32.67569,
        34.88694
      ],
      [
        32.67524,
        34.887040000000006
      ],
      [
        32.675090000000004,
        34.88709
      ],
      [
        32.674890000000005,
        34.887220000000006
      ],
      [
        32.674800000000005,
        34.887420000000006
      ],
      [
        32.674800000000005,
        34.887570000000004
      ],
      [
        32.67483,
        34.88768
      ],
      [
        32.67474,
        34.88806
      ],
      [
        32.674780000000005,
        34.88825
      ],
      [
        32.67493,
        34.888470000000005
      ],
      [
        32.67485,
        34.888630000000006
      ],
      [
        32.67466,
        34.88889
      ],
      [
        32.674530000000004,
        34.88895
      ],
      [
        32.67439,
        34.889140000000005
      ],
      [
        32.674310000000006,
        34.889210000000006
      ],
      [
        32.674170000000004,
        34.88929
      ],
      [
        32.673970000000004,
        34.889520000000005
      ],
      [
        32.67391,
        34.88964
      ],
      [
        32.67371,
        34.88978
      ],
      [
        32.67367,
        34.89011
      ],
      [
        32.673390000000005,
        34.89023
      ],
      [
        32.673230000000004,
        34.89022
      ],
      [
        32.67307,
        34.89027
      ],
      [
        32.67288,
        34.89043
      ],
      [
        32.67266,
        34.890550000000005
      ],
      [
        32.672610000000006,
        34.89065
      ],
      [
        32.672520000000006,
        34.89074
      ],
      [
        32.67246,
        34.89099
      ],
      [
        32.67239,
        34.8911
      ],
      [
        32.67226,
        34.89124
      ],
      [
        32.67215,
        34.891510000000004
      ],
      [
        32.67206,
        34.89166
      ],
      [
        32.67186,
        34.89179
      ],
      [
        32.671710000000004,
        34.89184
      ],
      [
        32.671580000000006,
        34.89193
      ],
      [
        32.671510000000005,
        34.89204
      ],
      [
        32.671580000000006,
        34.89231
      ],
      [
        32.6715,
        34.89247
      ],
      [
        32.67137,
        34.89256
      ],
      [
        32.67127,
        34.8926
      ],
      [
        32.671110000000006,
        34.892570000000006
      ],
      [
        32.67103,
        34.89251
      ],
      [
        32.671,
        34.892250000000004
      ],
      [
        32.67091,
        34.89199
      ],
      [
        32.67092,
        34.891740000000006
      ],
      [
        32.670880000000004,
        34.891580000000005
      ],
      [
        32.670770000000005,
        34.891420000000004
      ],
      [
        32.67049,
        34.89124
      ],
      [
        32.670390000000005,
        34.8911
      ],
      [
        32.66996,
        34.89094
      ],
      [
        32.66973,
        34.890980000000006
      ],
      [
        32.6694,
        34.89108
      ],
      [
        32.66926,
        34.891160000000006
      ],
      [
        32.669050000000006,
        34.891130000000004
      ],
      [
        32.6689,
        34.89108
      ],
      [
        32.668820000000004,
        34.891090000000005
      ],
      [
        32.66877,
        34.89112
      ],
      [
        32.66879,
        34.89124
      ],
      [
        32.668760000000006,
        34.891270000000006
      ],
      [
        32.66819,
        34.89134
      ],
      [
        32.66818,
        34.891400000000004
      ],
      [
        32.6683,
        34.891450000000006
      ],
      [
        32.66819,
        34.891510000000004
      ],
      [
        32.66789,
        34.891560000000005
      ],
      [
        32.66774,
        34.89166
      ],
      [
        32.66749,
        34.89168
      ],
      [
        32.6674,
        34.89159
      ],
      [
        32.66729,
        34.89137
      ],
      [
        32.66706,
        34.89119
      ],
      [
        32.66704,
        34.89106
      ],
      [
        32.66693,
        34.890910000000005
      ],
      [
        32.66691,
        34.89079
      ],
      [
        32.66673,
        34.89072
      ],
      [
        32.666560000000004,
        34.890750000000004
      ],
      [
        32.665620000000004,
        34.890800000000006
      ],
      [
        32.665470000000006,
        34.89077
      ],
      [
        32.66537,
        34.89067
      ],
      [
        32.66523,
        34.89065
      ],
      [
        32.66507,
        34.89068
      ],
      [
        32.66487,
        34.89079
      ],
      [
        32.66478,
        34.8909
      ],
      [
        32.664500000000004,
        34.89099
      ],
      [
        32.664370000000005,
        34.890980000000006
      ],
      [
        32.664280000000005,
        34.89094
      ],
      [
        32.66423,
        34.89078
      ],
      [
        32.66414,
        34.89067
      ],
      [
        32.663740000000004,
        34.890600000000006
      ],
      [
        32.66364,
        34.890600000000006
      ],
      [
        32.663450000000005,
        34.89065
      ],
      [
        32.663450000000005,
        34.890600000000006
      ],
      [
        32.66353,
        34.89054
      ],
      [
        32.66331,
        34.89043
      ],
      [
        32.66313,
        34.8904
      ],
      [
        32.662910000000004,
        34.890420000000006
      ],
      [
        32.66283,
        34.89047
      ],
      [
        32.6625,
        34.89056
      ],
      [
        32.66243,
        34.890640000000005
      ],
      [
        32.662200000000006,
        34.890820000000005
      ],
      [
        32.66208,
        34.89086
      ],
      [
        32.66205,
        34.890820000000005
      ],
      [
        32.66207,
        34.89068
      ],
      [
        32.662040000000005,
        34.89065
      ],
      [
        32.66199,
        34.89054
      ],
      [
        32.66201,
        34.89038
      ],
      [
        32.66207,
        34.890280000000004
      ],
      [
        32.66212,
        34.890080000000005
      ],
      [
        32.662470000000006,
        34.889700000000005
      ]
    ]
  }
}