{
  "type": "FeatureCollection",
  "generator": "overpass-turbo",
  "copyright": "The data included in this document is from www.openstreetmap.org. The data is made available under ODbL.",
  "timestamp": "2026-09-02T21:02:21Z",
  "features": [
    {
      "type": "Feature",
      "properties": {
        "@id": "way/1030734081",
        "leisure": "park"
      },
      "geometry": {
        "type": "Polygon",
        "coordinates": [
          [
            [
              33.0994476,
              34.7089387
            ],
            [
              33.0993384,
              34.7085089
            ],
            [
              33.0998541,
              34.7084791
            ],
            [
              33.0998858,
              34.7084773
            ],
            [
              33.1001301,
              34.7083973
            ],
            [
              33.1003657,
              34.7083678
            ],
            [
              33.1003995,
              34.7086524
            ],
            [
              33.100409,
              34.7087323
            ],
            [
              33.1004206,
              34.7088294
            ],
            [
              33.1004266,
              34.7088802
            ],
            [
              33.0999788,
              34.708907
            ],
            [
              33.0999563,
              34.7089083
            ],
            [
              33.0999309,
              34.7089098
            ],
            [
              33.0994476,
              34.7089387
            ]
          ]
        ]
      },
      "id": "way/1030734081"
    }
  ]
}