{"type":"FeatureCollection","features":[{"type":"Feature","id":1022846,"geometry":{"type":"Polygon","coordinates":[[[33.166522169000018,34.788130942999999],[33.166521193999984,34.790470932999995],[33.165592052000022,34.792301708000025],[33.162806977999992,34.792604521999976],[33.158722625999985,34.792142893000005],[33.155567014999974,34.791071639999984],[33.153339530999972,34.790306310999995],[33.149070272000017,34.788928483999996],[33.146657502999972,34.787857621000001],[33.144615578000014,34.787397637000026],[33.142573088999995,34.787853456999983],[33.139228906000028,34.791055090999976],[33.137741875000017,34.793342855999981],[33.13532640699998,34.795629564000023],[33.133282768000015,34.797153612999978],[33.130681487000004,34.799287430999982],[33.128636964999998,34.801574507999987],[33.126778037000008,34.803861715999972],[33.125661729000001,34.80630239300001],[33.123989123999991,34.807674072999987],[33.122870625000019,34.812251579000019],[33.122125869000001,34.814234829999975],[33.120267678000005,34.815300913999977],[33.117295929000022,34.815602420999994],[33.113395575000027,34.815902741000002],[33.11060967100002,34.816051722999987],[33.105779856000026,34.81711366899998],[33.100206781999987,34.818327054000008],[33.097421042000008,34.818323095999972],[33.096125624000024,34.814658181000027],[33.095574965000026,34.809620720999987],[33.094464918000028,34.806413915000007],[33.092242044999978,34.802289676999976],[33.090019198999983,34.79831812499998],[33.087803090000023,34.789614973000027],[33.085770492999984,34.782743676999985],[33.086519640000006,34.778013299999998],[33.087264127000026,34.776640814000018],[33.089306647000001,34.776185920999978],[33.091719193000017,34.77664736600002],[33.096545828999979,34.776349174000018],[33.105085898000027,34.775292647000015],[33.111769916000014,34.773927902000025],[33.120311108999999,34.771344087999978],[33.125139940999986,34.768297422999979],[33.126831067000012,34.765426708999996],[33.128793519999988,34.766010144999996],[33.132875737999996,34.76722732799999],[33.137865515999977,34.768352110000023],[33.143195434999996,34.769850177000023],[33.145689136999977,34.772277825000003],[33.146708379000017,34.774797186000001],[33.147046298000021,34.778341840999985],[33.147158105000017,34.780860213999972],[33.149198787999978,34.782914260999974],[33.152601080000011,34.784689786000001],[33.156116902000008,34.786465249000003],[33.159746713000004,34.787774429000024],[33.163263407999978,34.788430447999986],[33.165759348999984,34.788339350000001],[33.166522169000018,34.788130942999999]]]},"properties":{"objectid":1022846,"site_id":344567,"site_pid":"344567","site_type":"PA","name_eng":"Kyparissia","name":"Kyparissia","desig":"Ακτές και Περιοχές Προστασίας της Φύσης","desig_eng":"Coasts and Areas for Nature Protection","desig_type":"National","iucn_cat":"IV","int_crit":"Not Applicable","realm":"Terrestrial","rep_m_area":0,"gis_m_area":0,"rep_area":21.587998049999999,"gis_area":21.5879987,"no_take":"Not Applicable","no_tk_area":0,"status":"Designated","status_yr":1990,"gov_type":"Federal or national ministry or agency","verif":"State Verified","inlnd_wtrs":"Not Reported","own_type":"Not Reported","mang_auth":"Department of Town Planning and Housing","mang_plan":"Not Reported","cons_obj":"Not Applicable","supp_info":"Not Applicable","metadataid":2013,"prnt_iso3":"CYP","iso3":"CYP","govsubtype":"Not Applicable","ownsubtype":"Not Applicable","oecm_asmt":"Not Applicable","Shape__Area":0.0021262759740555185,"Shape__Length":0.22535373889469543}}]}