{
  "type": "FeatureCollection",
  "generator": "overpass-turbo",
  "copyright": "The data included in this document is from www.openstreetmap.org. The data is made available under ODbL.",
  "timestamp": "2026-08-25T23:07:11Z",
  "features": [
    {
      "type": "Feature",
      "properties": {
        "@id": "way/14400776",
        "leisure": "park",
        "name:en": "Park of Poets and Spiritual Creators - Andi Hadjicosti"
      },
      "geometry": {
        "type": "Polygon",
        "coordinates": [
          [
            [
              33.3443289,
              35.1658378
            ],
            [
              33.3441285,
              35.1659441
            ],
            [
              33.3435694,
              35.1652373
            ],
            [
              33.3433269,
              35.1653595
            ],
            [
              33.3430534,
              35.1650188
            ],
            [
              33.3429611,
              35.1649386
            ],
            [
              33.3428619,
              35.1649075
            ],
            [
              33.3425081,
              35.1644591
            ],
            [
              33.3425161,
              35.1643955
            ],
            [
              33.3424839,
              35.1643122
            ],
            [
              33.3419216,
              35.1635666
            ],
            [
              33.3423147,
              35.1633745
            ],
            [
              33.3431629,
              35.1644499
            ],
            [
              33.3433072,
              35.1645167
            ],
            [
              33.3434777,
              35.1645057
            ],
            [
              33.343758,
              35.1648779
            ],
            [
              33.3436963,
              35.1649174
            ],
            [
              33.3443461,
              35.1657495
            ],
            [
              33.3443487,
              35.1658043
            ],
            [
              33.3443289,
              35.1658378
            ]
          ]
        ]
      },
      "id": "way/14400776"
    }
  ]
}
