{
  "type": "Feature",
  "properties": {},
  "geometry": {
    "type": "LineString",
    "coordinates": [
      [
        32.868970000000004,
        34.895720000000004
      ],
      [
        32.869,
        34.895810000000004
      ],
      [
        32.869060000000005,
        34.89591
      ],
      [
        32.869150000000005,
        34.89593
      ],
      [
        32.86918,
        34.895990000000005
      ],
      [
        32.86925,
        34.896240000000006
      ],
      [
        32.86927,
        34.89643
      ],
      [
        32.86948,
        34.89603
      ],
      [
        32.86948,
        34.89596
      ],
      [
        32.869530000000005,
        34.895880000000005
      ],
      [
        32.86968,
        34.89582
      ],
      [
        32.86977,
        34.895700000000005
      ],
      [
        32.86975,
        34.89556
      ],
      [
        32.869930000000004,
        34.895300000000006
      ],
      [
        32.8701,
        34.894760000000005
      ],
      [
        32.870250000000006,
        34.89464
      ],
      [
        32.8705,
        34.89459
      ],
      [
        32.87048,
        34.894490000000005
      ],
      [
        32.87022,
        34.89426
      ],
      [
        32.87039,
        34.89417
      ],
      [
        32.870540000000005,
        34.894180000000006
      ],
      [
        32.87075,
        34.89428
      ],
      [
        32.87079,
        34.89426
      ],
      [
        32.870670000000004,
        34.894130000000004
      ],
      [
        32.870810000000006,
        34.89399
      ],
      [
        32.87108,
        34.89401
      ],
      [
        32.871340000000004,
        34.89388
      ],
      [
        32.871610000000004,
        34.89392
      ],
      [
        32.871770000000005,
        34.893980000000006
      ],
      [
        32.8722,
        34.89385
      ],
      [
        32.87259,
        34.89336
      ],
      [
        32.873000000000005,
        34.89325
      ],
      [
        32.87304,
        34.89325
      ],
      [
        32.873020000000004,
        34.89325
      ],
      [
        32.87333,
        34.893260000000005
      ],
      [
        32.873490000000004,
        34.89314
      ],
      [
        32.873630000000006,
        34.89294
      ],
      [
        32.87382,
        34.89285
      ],
      [
        32.87416,
        34.89298
      ],
      [
        32.87473,
        34.8934
      ],
      [
        32.875280000000004,
        34.89334
      ],
      [
        32.87565,
        34.89347
      ],
      [
        32.87583,
        34.89381
      ],
      [
        32.87588,
        34.894090000000006
      ],
      [
        32.87601,
        34.89408
      ],
      [
        32.8763,
        34.89397
      ],
      [
        32.8765,
        34.89392
      ],
      [
        32.877,
        34.89394
      ],
      [
        32.877250000000004,
        34.89378
      ],
      [
        32.877610000000004,
        34.893640000000005
      ],
      [
        32.878040000000006,
        34.89365
      ],
      [
        32.878060000000005,
        34.89369
      ],
      [
        32.87801,
        34.893840000000004
      ],
      [
        32.878,
        34.89424
      ],
      [
        32.87785,
        34.89463
      ],
      [
        32.877880000000005,
        34.894960000000005
      ],
      [
        32.87773,
        34.89535
      ],
      [
        32.87773,
        34.89574
      ],
      [
        32.877990000000004,
        34.89589
      ],
      [
        32.87866,
        34.89582
      ],
      [
        32.87921,
        34.89605
      ],
      [
        32.879310000000004,
        34.89632
      ],
      [
        32.879470000000005,
        34.89631
      ],
      [
        32.880025001173685,
        34.89613000127506
      ],
      [
        32.88058,
        34.895950000000006
      ],
      [
        32.881420000000006,
        34.895610000000005
      ],
      [
        32.881550000000004,
        34.895880000000005
      ],
      [
        32.88183,
        34.89614
      ],
      [
        32.882180000000005,
        34.895950000000006
      ],
      [
        32.882450000000006,
        34.895920000000004
      ],
      [
        32.88286,
        34.895810000000004
      ],
      [
        32.88342,
        34.89589
      ],
      [
        32.88374,
        34.89578
      ],
      [
        32.88426500112123,
        34.895605001127684
      ],
      [
        32.88479,
        34.895430000000005
      ],
      [
        32.885090000000005,
        34.895450000000004
      ],
      [
        32.88562500208833,
        34.895155001079885
      ],
      [
        32.886160000000004,
        34.89486
      ],
      [
        32.887025001360435,
        34.89474500304386
      ],
      [
        32.887890000000006,
        34.89463
      ],
      [
        32.88794,
        34.894650000000006
      ],
      [
        32.88796,
        34.89475
      ],
      [
        32.88788000047058,
        34.89520499987003
      ],
      [
        32.887800000000006,
        34.89566
      ],
      [
        32.88761,
        34.8962
      ],
      [
        32.887620000000005,
        34.8965
      ],
      [
        32.8874,
        34.896890000000006
      ],
      [
        32.88725,
        34.8973
      ],
      [
        32.88738,
        34.89755
      ],
      [
        32.88743,
        34.89779
      ],
      [
        32.887480000000004,
        34.897830000000006
      ],
      [
        32.88756,
        34.897830000000006
      ],
      [
        32.88785,
        34.897740000000006
      ],
      [
        32.88788,
        34.897760000000005
      ],
      [
        32.88787,
        34.897870000000005
      ],
      [
        32.88774,
        34.89801
      ],
      [
        32.88763,
        34.89819
      ],
      [
        32.88785,
        34.898920000000004
      ],
      [
        32.88785,
        34.89931
      ],
      [
        32.88785,
        34.899300000000004
      ],
      [
        32.88786,
        34.899530000000006
      ],
      [
        32.88837,
        34.899660000000004
      ],
      [
        32.88835,
        34.8997
      ],
      [
        32.88786,
        34.90003
      ],
      [
        32.88734,
        34.90019
      ],
      [
        32.88714,
        34.90032
      ],
      [
        32.88707,
        34.90039
      ],
      [
        32.887,
        34.90053
      ],
      [
        32.88721,
        34.90095
      ],
      [
        32.887190000000004,
        34.901
      ],
      [
        32.88711,
        34.900980000000004
      ],
      [
        32.88698,
        34.900890000000004
      ],
      [
        32.886790000000005,
        34.900850000000005
      ],
      [
        32.886660000000006,
        34.90091
      ],
      [
        32.8866,
        34.901050000000005
      ],
      [
        32.886500000000005,
        34.9011
      ],
      [
        32.88606,
        34.9012
      ],
      [
        32.88584,
        34.90147
      ],
      [
        32.88581,
        34.90142
      ],
      [
        32.885960000000004,
        34.900960000000005
      ],
      [
        32.8855,
        34.90062
      ],
      [
        32.885310000000004,
        34.900420000000004
      ],
      [
        32.885040000000004,
        34.90032
      ],
      [
        32.88501,
        34.900330000000004
      ],
      [
        32.88515,
        34.90062
      ],
      [
        32.88512,
        34.901050000000005
      ],
      [
        32.88472,
        34.900800000000004
      ],
      [
        32.884690000000006,
        34.90081
      ],
      [
        32.88461,
        34.90095
      ],
      [
        32.88434,
        34.900850000000005
      ],
      [
        32.884130000000006,
        34.90084
      ],
      [
        32.884060000000005,
        34.900920000000006
      ],
      [
        32.883700000000005,
        34.900800000000004
      ],
      [
        32.883630000000004,
        34.900850000000005
      ],
      [
        32.88358,
        34.900940000000006
      ],
      [
        32.883500000000005,
        34.90095
      ],
      [
        32.88337,
        34.90082
      ],
      [
        32.883300000000006,
        34.9009
      ],
      [
        32.8832,
        34.90093
      ],
      [
        32.88313,
        34.900890000000004
      ],
      [
        32.883070000000004,
        34.90043
      ],
      [
        32.88304,
        34.90041
      ],
      [
        32.88281,
        34.90062
      ],
      [
        32.882760000000005,
        34.90062
      ],
      [
        32.8827,
        34.90044
      ],
      [
        32.882560000000005,
        34.90046
      ],
      [
        32.88239,
        34.90059
      ],
      [
        32.88221,
        34.900850000000005
      ],
      [
        32.88214,
        34.900830000000006
      ],
      [
        32.8821,
        34.90068
      ],
      [
        32.8821,
        34.900670000000005
      ],
      [
        32.882020000000004,
        34.900270000000006
      ],
      [
        32.88208,
        34.90006
      ],
      [
        32.88203,
        34.89981
      ],
      [
        32.88176,
        34.899620000000006
      ],
      [
        32.88179,
        34.89947
      ],
      [
        32.88172,
        34.89943
      ],
      [
        32.88107,
        34.899570000000004
      ],
      [
        32.880900000000004,
        34.89958
      ],
      [
        32.88071,
        34.89965
      ],
      [
        32.88055,
        34.89965
      ],
      [
        32.88006,
        34.899950000000004
      ],
      [
        32.87921,
        34.90001
      ],
      [
        32.87856,
        34.90025
      ],
      [
        32.878240000000005,
        34.900220000000004
      ],
      [
        32.87809,
        34.900090000000006
      ],
      [
        32.877950000000006,
        34.90007
      ],
      [
        32.87774,
        34.90017
      ],
      [
        32.87767,
        34.900240000000004
      ],
      [
        32.87745,
        34.9003
      ],
      [
        32.8774,
        34.900380000000006
      ],
      [
        32.87745,
        34.900490000000005
      ],
      [
        32.87796,
        34.90046
      ],
      [
        32.87798,
        34.90048
      ],
      [
        32.87742,
        34.90077
      ],
      [
        32.87731,
        34.900870000000005
      ],
      [
        32.877570000000006,
        34.900940000000006
      ],
      [
        32.87776,
        34.900920000000006
      ],
      [
        32.87785,
        34.900940000000006
      ],
      [
        32.87792,
        34.90101
      ],
      [
        32.877950000000006,
        34.90128
      ],
      [
        32.877860000000005,
        34.901520000000005
      ],
      [
        32.87733,
        34.901720000000005
      ],
      [
        32.87699,
        34.901770000000006
      ],
      [
        32.87664,
        34.901830000000004
      ],
      [
        32.87668,
        34.901610000000005
      ],
      [
        32.87628,
        34.9016
      ],
      [
        32.876470000000005,
        34.901430000000005
      ],
      [
        32.876450000000006,
        34.90137
      ],
      [
        32.876250000000006,
        34.901270000000004
      ],
      [
        32.875890000000005,
        34.90097
      ],
      [
        32.87534,
        34.900420000000004
      ],
      [
        32.87527,
        34.90021
      ],
      [
        32.87534,
        34.899800000000006
      ],
      [
        32.87558,
        34.899550000000005
      ],
      [
        32.87608,
        34.899240000000006
      ],
      [
        32.876470000000005,
        34.898920000000004
      ],
      [
        32.87695,
        34.898300000000006
      ],
      [
        32.87726,
        34.89768
      ],
      [
        32.87747,
        34.89754
      ],
      [
        32.87767,
        34.897580000000005
      ],
      [
        32.877880000000005,
        34.89755
      ],
      [
        32.87771,
        34.897360000000006
      ],
      [
        32.87693,
        34.89741
      ],
      [
        32.87684,
        34.89759
      ],
      [
        32.87664,
        34.89786
      ],
      [
        32.87632,
        34.89819
      ],
      [
        32.876540000000006,
        34.89777
      ],
      [
        32.876560000000005,
        34.89757
      ],
      [
        32.87646,
        34.897470000000006
      ],
      [
        32.87644499986644,
        34.89674499994447
      ],
      [
        32.87643,
        34.89602
      ],
      [
        32.87657,
        34.895520000000005
      ],
      [
        32.87644,
        34.89537
      ],
      [
        32.87605,
        34.89542
      ],
      [
        32.87581,
        34.89526
      ],
      [
        32.875420000000005,
        34.89519
      ],
      [
        32.87519,
        34.894890000000004
      ],
      [
        32.874950000000005,
        34.89453
      ],
      [
        32.87464,
        34.894360000000006
      ],
      [
        32.87435,
        34.894360000000006
      ],
      [
        32.874140000000004,
        34.89459
      ],
      [
        32.874120000000005,
        34.894830000000006
      ],
      [
        32.874280000000006,
        34.8952
      ],
      [
        32.874480000000005,
        34.89558
      ],
      [
        32.87442,
        34.89584
      ],
      [
        32.87433,
        34.896
      ],
      [
        32.87397,
        34.89613
      ],
      [
        32.8742,
        34.89574
      ],
      [
        32.87413,
        34.895630000000004
      ],
      [
        32.87371,
        34.8952
      ],
      [
        32.873470000000005,
        34.895070000000004
      ],
      [
        32.87332,
        34.894830000000006
      ],
      [
        32.87314,
        34.893950000000004
      ],
      [
        32.87314,
        34.89396
      ],
      [
        32.87312,
        34.893800000000006
      ],
      [
        32.873160000000006,
        34.89361
      ],
      [
        32.87351,
        34.89343
      ],
      [
        32.87357,
        34.893280000000004
      ],
      [
        32.87382,
        34.89285
      ],
      [
        32.873630000000006,
        34.89294
      ],
      [
        32.873490000000004,
        34.89314
      ],
      [
        32.87333,
        34.893260000000005
      ],
      [
        32.873000000000005,
        34.89325
      ],
      [
        32.87259,
        34.89336
      ],
      [
        32.8722,
        34.89385
      ],
      [
        32.871770000000005,
        34.893980000000006
      ],
      [
        32.871610000000004,
        34.89392
      ],
      [
        32.871340000000004,
        34.89388
      ],
      [
        32.87108,
        34.89401
      ],
      [
        32.870810000000006,
        34.89399
      ],
      [
        32.870670000000004,
        34.894130000000004
      ],
      [
        32.87079,
        34.89426
      ],
      [
        32.87075,
        34.89428
      ],
      [
        32.870540000000005,
        34.894180000000006
      ],
      [
        32.87039,
        34.89417
      ],
      [
        32.87022,
        34.89426
      ],
      [
        32.87048,
        34.894490000000005
      ],
      [
        32.8705,
        34.89459
      ],
      [
        32.870250000000006,
        34.89464
      ],
      [
        32.8701,
        34.894760000000005
      ],
      [
        32.869930000000004,
        34.895300000000006
      ],
      [
        32.86975,
        34.89556
      ],
      [
        32.86977,
        34.895700000000005
      ],
      [
        32.86968,
        34.89582
      ],
      [
        32.869530000000005,
        34.895880000000005
      ],
      [
        32.86948,
        34.89596
      ],
      [
        32.86948,
        34.89603
      ],
      [
        32.86927,
        34.89643
      ],
      [
        32.86925,
        34.896240000000006
      ],
      [
        32.86918,
        34.895990000000005
      ],
      [
        32.869150000000005,
        34.89593
      ],
      [
        32.869060000000005,
        34.89591
      ],
      [
        32.869,
        34.895810000000004
      ],
      [
        32.868970000000004,
        34.895720000000004
      ]
    ]
  }
}