{
  "type": "Feature",
  "properties": {},
  "geometry": {
    "type": "LineString",
    "coordinates": [
      [
        32.8808,
        34.924150000000004
      ],
      [
        32.88058,
        34.924150000000004
      ],
      [
        32.88029,
        34.92419
      ],
      [
        32.88013,
        34.92416
      ],
      [
        32.879830000000005,
        34.92394
      ],
      [
        32.8796,
        34.923860000000005
      ],
      [
        32.879450000000006,
        34.92383
      ],
      [
        32.87924,
        34.92387
      ],
      [
        32.878800000000005,
        34.923820000000006
      ],
      [
        32.87868,
        34.92385
      ],
      [
        32.8783,
        34.92399
      ],
      [
        32.878130000000006,
        34.924110000000006
      ],
      [
        32.87802,
        34.92425
      ],
      [
        32.877950000000006,
        34.92443
      ],
      [
        32.87789,
        34.92452
      ],
      [
        32.8778,
        34.92456
      ],
      [
        32.87762,
        34.924530000000004
      ],
      [
        32.87731,
        34.924620000000004
      ],
      [
        32.87704,
        34.92475
      ],
      [
        32.87677,
        34.924800000000005
      ],
      [
        32.876560000000005,
        34.92488
      ],
      [
        32.87657,
        34.924870000000006
      ],
      [
        32.876470000000005,
        34.92497
      ],
      [
        32.87639,
        34.925230000000006
      ],
      [
        32.876400000000004,
        34.92537
      ],
      [
        32.87644,
        34.92546
      ],
      [
        32.87659,
        34.92568
      ],
      [
        32.87689,
        34.926010000000005
      ],
      [
        32.87695,
        34.926120000000004
      ],
      [
        32.877050000000004,
        34.92624
      ],
      [
        32.87738,
        34.92649
      ],
      [
        32.87758,
        34.926550000000006
      ],
      [
        32.877610000000004,
        34.926590000000004
      ],
      [
        32.8776,
        34.92663
      ],
      [
        32.87754,
        34.92667
      ],
      [
        32.877480000000006,
        34.92674
      ],
      [
        32.877500000000005,
        34.92685
      ],
      [
        32.87749,
        34.9269
      ],
      [
        32.87745,
        34.92692
      ],
      [
        32.877430000000004,
        34.92692
      ],
      [
        32.87736,
        34.926880000000004
      ],
      [
        32.87727,
        34.92674
      ],
      [
        32.87717,
        34.92665
      ],
      [
        32.87695,
        34.926570000000005
      ],
      [
        32.87682,
        34.92656
      ],
      [
        32.87651,
        34.92647
      ],
      [
        32.87642,
        34.92625
      ],
      [
        32.876340000000006,
        34.92625
      ],
      [
        32.87612,
        34.92611
      ],
      [
        32.87579,
        34.92598
      ],
      [
        32.87574,
        34.92573
      ],
      [
        32.87563,
        34.925610000000006
      ],
      [
        32.87549,
        34.925360000000005
      ],
      [
        32.875460000000004,
        34.92524
      ],
      [
        32.87543,
        34.925200000000004
      ],
      [
        32.875350000000005,
        34.925180000000005
      ],
      [
        32.87523,
        34.925180000000005
      ],
      [
        32.875150000000005,
        34.925140000000006
      ],
      [
        32.87511,
        34.92502
      ],
      [
        32.87511,
        34.92501
      ],
      [
        32.87518,
        34.924780000000005
      ],
      [
        32.87519,
        34.92468
      ],
      [
        32.87492,
        34.92428
      ],
      [
        32.874950000000005,
        34.924200000000006
      ],
      [
        32.875440000000005,
        34.92427
      ],
      [
        32.875600000000006,
        34.92425
      ],
      [
        32.87613,
        34.923840000000006
      ],
      [
        32.87642,
        34.923570000000005
      ],
      [
        32.876470000000005,
        34.92349
      ],
      [
        32.87646,
        34.923260000000006
      ],
      [
        32.876360000000005,
        34.92318
      ],
      [
        32.8763,
        34.923100000000005
      ],
      [
        32.87621,
        34.922760000000004
      ],
      [
        32.87624,
        34.922650000000004
      ],
      [
        32.876310000000004,
        34.922560000000004
      ],
      [
        32.876340000000006,
        34.92246
      ],
      [
        32.87619,
        34.922200000000004
      ],
      [
        32.876180000000005,
        34.92219
      ],
      [
        32.87596,
        34.92201
      ],
      [
        32.87577,
        34.921910000000004
      ],
      [
        32.87559,
        34.92186
      ],
      [
        32.87549,
        34.921850000000006
      ],
      [
        32.87539,
        34.921890000000005
      ],
      [
        32.8752,
        34.921890000000005
      ],
      [
        32.875080000000004,
        34.92193
      ],
      [
        32.87496,
        34.921850000000006
      ],
      [
        32.87483,
        34.92165
      ],
      [
        32.874700000000004,
        34.921580000000006
      ],
      [
        32.874,
        34.921440000000004
      ],
      [
        32.873830000000005,
        34.92134
      ],
      [
        32.8737,
        34.921310000000005
      ],
      [
        32.87332,
        34.920910000000006
      ],
      [
        32.872960000000006,
        34.92061
      ],
      [
        32.87259,
        34.91996
      ],
      [
        32.872460000000004,
        34.91984
      ],
      [
        32.87234,
        34.919760000000004
      ],
      [
        32.872460000000004,
        34.91984
      ],
      [
        32.87259,
        34.91996
      ],
      [
        32.872960000000006,
        34.92061
      ],
      [
        32.87259,
        34.91996
      ],
      [
        32.872460000000004,
        34.91984
      ],
      [
        32.872350000000004,
        34.91977
      ],
      [
        32.872240000000005,
        34.919740000000004
      ],
      [
        32.872,
        34.919790000000006
      ],
      [
        32.871840000000006,
        34.919880000000006
      ],
      [
        32.87155,
        34.920170000000006
      ],
      [
        32.871520000000004,
        34.920190000000005
      ],
      [
        32.871480000000005,
        34.920190000000005
      ],
      [
        32.87135,
        34.920100000000005
      ],
      [
        32.87126,
        34.91995
      ],
      [
        32.871140000000004,
        34.91987
      ],
      [
        32.87111,
        34.919790000000006
      ],
      [
        32.87113,
        34.91958
      ],
      [
        32.87111,
        34.919450000000005
      ],
      [
        32.87098,
        34.91935
      ],
      [
        32.87059,
        34.919230000000006
      ],
      [
        32.870340000000006,
        34.919230000000006
      ],
      [
        32.87001,
        34.919290000000004
      ],
      [
        32.869800000000005,
        34.9193
      ],
      [
        32.86977,
        34.91931
      ],
      [
        32.86968,
        34.919450000000005
      ],
      [
        32.86959,
        34.919470000000004
      ],
      [
        32.86937,
        34.91939
      ],
      [
        32.86919,
        34.919290000000004
      ],
      [
        32.8691,
        34.919180000000004
      ],
      [
        32.868950000000005,
        34.91911
      ],
      [
        32.86882,
        34.919090000000004
      ],
      [
        32.868460000000006,
        34.919140000000006
      ],
      [
        32.868370000000006,
        34.91913
      ],
      [
        32.86798,
        34.918890000000005
      ],
      [
        32.86773,
        34.918670000000006
      ],
      [
        32.86759,
        34.91863
      ],
      [
        32.867430000000006,
        34.91864
      ],
      [
        32.86731,
        34.91868
      ],
      [
        32.86723,
        34.918760000000006
      ],
      [
        32.867200000000004,
        34.91892
      ],
      [
        32.86715,
        34.918960000000006
      ],
      [
        32.86708,
        34.91897
      ],
      [
        32.867000000000004,
        34.918940000000006
      ],
      [
        32.86674,
        34.91874
      ],
      [
        32.866310000000006,
        34.918600000000005
      ],
      [
        32.866260000000004,
        34.918600000000005
      ],
      [
        32.86616,
        34.91864
      ],
      [
        32.86605,
        34.91874
      ],
      [
        32.865860000000005,
        34.918980000000005
      ],
      [
        32.865680000000005,
        34.919290000000004
      ],
      [
        32.86567,
        34.91937
      ],
      [
        32.865860000000005,
        34.91971
      ],
      [
        32.8658,
        34.91982
      ],
      [
        32.865680000000005,
        34.91993
      ],
      [
        32.865520000000004,
        34.91993
      ],
      [
        32.86504,
        34.920030000000004
      ],
      [
        32.86482,
        34.920100000000005
      ],
      [
        32.864610000000006,
        34.920030000000004
      ],
      [
        32.864340000000006,
        34.91973
      ],
      [
        32.86413,
        34.91968
      ],
      [
        32.864000000000004,
        34.919700000000006
      ],
      [
        32.863960000000006,
        34.91973
      ],
      [
        32.863910000000004,
        34.919810000000005
      ],
      [
        32.86395,
        34.92
      ],
      [
        32.86394,
        34.920080000000006
      ],
      [
        32.863910000000004,
        34.920100000000005
      ],
      [
        32.86348,
        34.91998
      ],
      [
        32.862970000000004,
        34.91993
      ],
      [
        32.862750000000005,
        34.91996
      ],
      [
        32.86267,
        34.919940000000004
      ],
      [
        32.862300000000005,
        34.91967
      ],
      [
        32.862030000000004,
        34.919250000000005
      ],
      [
        32.86193,
        34.91919
      ],
      [
        32.861760000000004,
        34.91917
      ],
      [
        32.861270000000005,
        34.919360000000005
      ],
      [
        32.860330000000005,
        34.919160000000005
      ],
      [
        32.85953,
        34.91888
      ],
      [
        32.859480000000005,
        34.91881
      ],
      [
        32.85925,
        34.918690000000005
      ],
      [
        32.858900000000006,
        34.918620000000004
      ],
      [
        32.85849,
        34.9187
      ],
      [
        32.858610000000006,
        34.918670000000006
      ],
      [
        32.8585,
        34.9187
      ],
      [
        32.85835,
        34.918780000000005
      ],
      [
        32.8583,
        34.918910000000004
      ],
      [
        32.85833,
        34.9191
      ],
      [
        32.85833,
        34.919230000000006
      ],
      [
        32.858230000000006,
        34.91939
      ],
      [
        32.857760000000006,
        34.91978
      ],
      [
        32.85757,
        34.91998
      ],
      [
        32.85746,
        34.92015
      ],
      [
        32.857330000000005,
        34.920460000000006
      ],
      [
        32.857290000000006,
        34.920640000000006
      ],
      [
        32.85728,
        34.92072
      ],
      [
        32.8573,
        34.92085
      ],
      [
        32.857400000000005,
        34.921
      ],
      [
        32.85756,
        34.921060000000004
      ],
      [
        32.85781,
        34.921110000000006
      ],
      [
        32.85803,
        34.92118
      ],
      [
        32.858140000000006,
        34.921240000000004
      ],
      [
        32.858180000000004,
        34.92128
      ],
      [
        32.858160000000005,
        34.92136
      ],
      [
        32.85797,
        34.92161
      ],
      [
        32.85786,
        34.921850000000006
      ],
      [
        32.857760000000006,
        34.92194
      ],
      [
        32.857400000000005,
        34.92217
      ],
      [
        32.85701,
        34.922320000000006
      ],
      [
        32.85685,
        34.92244
      ],
      [
        32.85681,
        34.92249
      ],
      [
        32.85671,
        34.922900000000006
      ],
      [
        32.85652,
        34.92324
      ],
      [
        32.856390000000005,
        34.92354
      ],
      [
        32.85631,
        34.923640000000006
      ],
      [
        32.85613,
        34.92372
      ],
      [
        32.856010000000005,
        34.923880000000004
      ],
      [
        32.856010000000005,
        34.924
      ],
      [
        32.85613,
        34.92436
      ],
      [
        32.85631,
        34.9247
      ],
      [
        32.85653,
        34.92494
      ],
      [
        32.85672,
        34.925050000000006
      ],
      [
        32.85685,
        34.92502
      ],
      [
        32.85714,
        34.924780000000005
      ],
      [
        32.85728,
        34.924760000000006
      ],
      [
        32.85755,
        34.92488
      ],
      [
        32.85779,
        34.92493
      ],
      [
        32.85812,
        34.92493
      ],
      [
        32.8585,
        34.92477
      ],
      [
        32.85909,
        34.924640000000004
      ],
      [
        32.85945,
        34.92452
      ],
      [
        32.859750000000005,
        34.924490000000006
      ],
      [
        32.86021,
        34.924490000000006
      ],
      [
        32.86037,
        34.92446
      ],
      [
        32.860510000000005,
        34.92437
      ],
      [
        32.86133,
        34.92414
      ],
      [
        32.86139,
        34.9241
      ],
      [
        32.861470000000004,
        34.92399
      ],
      [
        32.861580000000004,
        34.92394
      ],
      [
        32.86168,
        34.92394
      ],
      [
        32.861720000000005,
        34.923970000000004
      ],
      [
        32.86155,
        34.92439
      ],
      [
        32.861360000000005,
        34.92455
      ],
      [
        32.86119,
        34.92474
      ],
      [
        32.861070000000005,
        34.92484
      ],
      [
        32.860910000000004,
        34.92494
      ],
      [
        32.86065,
        34.92515
      ],
      [
        32.86052,
        34.925320000000006
      ],
      [
        32.86046,
        34.92544
      ],
      [
        32.860440000000004,
        34.925540000000005
      ],
      [
        32.86047,
        34.92562
      ],
      [
        32.860530000000004,
        34.925700000000006
      ],
      [
        32.86054,
        34.92575
      ],
      [
        32.860510000000005,
        34.92578
      ],
      [
        32.860420000000005,
        34.925790000000006
      ],
      [
        32.860150000000004,
        34.925700000000006
      ],
      [
        32.859950000000005,
        34.925610000000006
      ],
      [
        32.85985,
        34.925610000000006
      ],
      [
        32.85981,
        34.925630000000005
      ],
      [
        32.85967,
        34.925760000000004
      ],
      [
        32.85958,
        34.92595
      ],
      [
        32.859500000000004,
        34.926
      ],
      [
        32.85915,
        34.926120000000004
      ],
      [
        32.858850000000004,
        34.92627
      ],
      [
        32.85877,
        34.92633
      ],
      [
        32.85871,
        34.926460000000006
      ],
      [
        32.85877,
        34.92672
      ],
      [
        32.858900000000006,
        34.926970000000004
      ],
      [
        32.858810000000005,
        34.9271
      ],
      [
        32.85889,
        34.92725
      ],
      [
        32.85889,
        34.92745
      ],
      [
        32.85895,
        34.92757
      ],
      [
        32.85916,
        34.927690000000005
      ],
      [
        32.85922,
        34.927780000000006
      ],
      [
        32.859120000000004,
        34.92785
      ],
      [
        32.859030000000004,
        34.92794
      ],
      [
        32.858920000000005,
        34.92797
      ],
      [
        32.858720000000005,
        34.927960000000006
      ],
      [
        32.858290000000004,
        34.927890000000005
      ],
      [
        32.85815,
        34.927910000000004
      ],
      [
        32.85779,
        34.92803
      ],
      [
        32.8573,
        34.928020000000004
      ],
      [
        32.85701,
        34.92804
      ],
      [
        32.85669,
        34.928090000000005
      ],
      [
        32.85654,
        34.92813
      ],
      [
        32.85649,
        34.928230000000006
      ],
      [
        32.85649,
        34.9283
      ],
      [
        32.85654,
        34.9285
      ],
      [
        32.856680000000004,
        34.92879
      ],
      [
        32.856700000000004,
        34.92943
      ],
      [
        32.85674,
        34.92981
      ],
      [
        32.856970000000004,
        34.93001
      ],
      [
        32.856950000000005,
        34.9301
      ],
      [
        32.85687,
        34.930130000000005
      ],
      [
        32.85636,
        34.93005
      ],
      [
        32.855850000000004,
        34.92989
      ],
      [
        32.85555,
        34.929730000000006
      ],
      [
        32.8552,
        34.92951
      ],
      [
        32.854690000000005,
        34.92935
      ],
      [
        32.85446,
        34.929300000000005
      ],
      [
        32.854110000000006,
        34.929140000000004
      ],
      [
        32.85351,
        34.92902
      ],
      [
        32.85324,
        34.928900000000006
      ],
      [
        32.852940000000004,
        34.92868
      ],
      [
        32.85248,
        34.928160000000005
      ],
      [
        32.85219,
        34.92775
      ],
      [
        32.851980000000005,
        34.927620000000005
      ],
      [
        32.85186,
        34.927580000000006
      ],
      [
        32.851510000000005,
        34.927580000000006
      ],
      [
        32.85134,
        34.92763
      ],
      [
        32.851240000000004,
        34.927710000000005
      ],
      [
        32.851240000000004,
        34.92785
      ],
      [
        32.851310000000005,
        34.928270000000005
      ],
      [
        32.851510000000005,
        34.928810000000006
      ],
      [
        32.85156,
        34.929170000000006
      ],
      [
        32.851510000000005,
        34.92947
      ],
      [
        32.851670000000006,
        34.929730000000006
      ],
      [
        32.851710000000004,
        34.92985
      ],
      [
        32.85199,
        34.92998
      ],
      [
        32.852090000000004,
        34.93009
      ],
      [
        32.852450000000005,
        34.93081
      ],
      [
        32.852630000000005,
        34.930980000000005
      ],
      [
        32.85304,
        34.93131
      ],
      [
        32.85325,
        34.931540000000005
      ],
      [
        32.853280000000005,
        34.93168
      ],
      [
        32.853460000000005,
        34.93211
      ],
      [
        32.85358,
        34.93229
      ],
      [
        32.8537,
        34.932370000000006
      ],
      [
        32.853570000000005,
        34.93244
      ],
      [
        32.853460000000005,
        34.93247
      ],
      [
        32.85329,
        34.93242
      ],
      [
        32.85314,
        34.932280000000006
      ],
      [
        32.852790000000006,
        34.93213
      ],
      [
        32.85258,
        34.93216
      ],
      [
        32.852790000000006,
        34.93213
      ],
      [
        32.85314,
        34.932280000000006
      ],
      [
        32.85329,
        34.93242
      ],
      [
        32.853460000000005,
        34.93247
      ],
      [
        32.853570000000005,
        34.93244
      ],
      [
        32.85369,
        34.932370000000006
      ],
      [
        32.85369,
        34.93236
      ],
      [
        32.853570000000005,
        34.93244
      ],
      [
        32.853460000000005,
        34.93247
      ],
      [
        32.85329,
        34.93242
      ],
      [
        32.85314,
        34.932280000000006
      ],
      [
        32.852790000000006,
        34.93213
      ],
      [
        32.85258,
        34.93216
      ],
      [
        32.85249,
        34.932210000000005
      ],
      [
        32.85249,
        34.93242
      ],
      [
        32.85253,
        34.932590000000005
      ],
      [
        32.852540000000005,
        34.932750000000006
      ],
      [
        32.85233,
        34.9331
      ],
      [
        32.85224,
        34.93321
      ],
      [
        32.85215,
        34.93328
      ],
      [
        32.85215,
        34.93327
      ],
      [
        32.85246,
        34.9337
      ],
      [
        32.85264,
        34.93388
      ],
      [
        32.85284,
        34.934020000000004
      ],
      [
        32.852810000000005,
        34.93424
      ],
      [
        32.85291,
        34.93435
      ],
      [
        32.85293,
        34.934470000000005
      ],
      [
        32.852880000000006,
        34.934610000000006
      ],
      [
        32.85293,
        34.93473
      ],
      [
        32.853170000000006,
        34.934990000000006
      ],
      [
        32.85318,
        34.93515
      ],
      [
        32.85323,
        34.93531
      ],
      [
        32.85343,
        34.93554
      ],
      [
        32.85378,
        34.93574
      ],
      [
        32.85383,
        34.9358
      ],
      [
        32.8538,
        34.93585
      ],
      [
        32.85336,
        34.936130000000006
      ],
      [
        32.85315,
        34.93612
      ],
      [
        32.852880000000006,
        34.9362
      ],
      [
        32.852470000000004,
        34.93621
      ],
      [
        32.85231,
        34.93625
      ],
      [
        32.85228,
        34.93636
      ],
      [
        32.852270000000004,
        34.93695
      ],
      [
        32.85219,
        34.93722
      ],
      [
        32.85219,
        34.93735
      ],
      [
        32.85224,
        34.937560000000005
      ],
      [
        32.852320000000006,
        34.93779
      ],
      [
        32.85231,
        34.937780000000004
      ],
      [
        32.85244,
        34.937940000000005
      ],
      [
        32.85315,
        34.93849
      ],
      [
        32.853390000000005,
        34.93878
      ],
      [
        32.853500000000004,
        34.93896
      ],
      [
        32.853570000000005,
        34.939260000000004
      ],
      [
        32.853770000000004,
        34.9395
      ],
      [
        32.854150000000004,
        34.939800000000005
      ],
      [
        32.854240000000004,
        34.93983
      ],
      [
        32.85461,
        34.939780000000006
      ],
      [
        32.85477,
        34.939800000000005
      ],
      [
        32.854870000000005,
        34.939890000000005
      ],
      [
        32.85508,
        34.940380000000005
      ],
      [
        32.85517,
        34.94048
      ],
      [
        32.855380000000004,
        34.94059
      ],
      [
        32.856,
        34.94061
      ],
      [
        32.85629,
        34.940670000000004
      ],
      [
        32.856880000000004,
        34.940900000000006
      ],
      [
        32.85725,
        34.94098
      ],
      [
        32.85752,
        34.941190000000006
      ],
      [
        32.85761,
        34.941210000000005
      ],
      [
        32.857620000000004,
        34.941210000000005
      ],
      [
        32.85783,
        34.94116
      ],
      [
        32.85815,
        34.941140000000004
      ],
      [
        32.85841,
        34.941140000000004
      ],
      [
        32.858700000000006,
        34.94117
      ],
      [
        32.858990000000006,
        34.94117
      ],
      [
        32.85916,
        34.9412
      ],
      [
        32.859709998774925,
        34.94135500118709
      ],
      [
        32.860260000000004,
        34.94151
      ],
      [
        32.860730000000004,
        34.94151
      ],
      [
        32.860960000000006,
        34.94147
      ],
      [
        32.861340000000006,
        34.941520000000004
      ],
      [
        32.86179,
        34.94153
      ],
      [
        32.86202,
        34.94149
      ],
      [
        32.86243,
        34.94138
      ],
      [
        32.86282,
        34.941250000000004
      ],
      [
        32.863110000000006,
        34.941230000000004
      ],
      [
        32.863550000000004,
        34.941120000000005
      ],
      [
        32.86368,
        34.94104
      ],
      [
        32.86383,
        34.94093
      ],
      [
        32.86399,
        34.94088
      ],
      [
        32.86412,
        34.940920000000006
      ],
      [
        32.86432,
        34.941050000000004
      ],
      [
        32.864450000000005,
        34.94111
      ],
      [
        32.86469,
        34.94097
      ],
      [
        32.86506,
        34.94113
      ],
      [
        32.86535,
        34.941340000000004
      ],
      [
        32.86576,
        34.941430000000004
      ],
      [
        32.86601,
        34.94155
      ],
      [
        32.86703,
        34.94165
      ],
      [
        32.867340000000006,
        34.94174
      ],
      [
        32.867540000000005,
        34.94187
      ],
      [
        32.86762,
        34.9418
      ],
      [
        32.867670000000004,
        34.941700000000004
      ],
      [
        32.86784,
        34.941680000000005
      ],
      [
        32.868010000000005,
        34.9416
      ],
      [
        32.868320000000004,
        34.941520000000004
      ],
      [
        32.86844,
        34.94155
      ],
      [
        32.868880000000004,
        34.94118
      ],
      [
        32.869020000000006,
        34.94113
      ],
      [
        32.86916,
        34.94104
      ],
      [
        32.86959,
        34.94104
      ],
      [
        32.86965,
        34.940920000000006
      ],
      [
        32.86963,
        34.940870000000004
      ],
      [
        32.86936,
        34.940670000000004
      ],
      [
        32.86907,
        34.940650000000005
      ],
      [
        32.86881,
        34.94061
      ],
      [
        32.86883,
        34.940560000000005
      ],
      [
        32.868990000000004,
        34.940400000000004
      ],
      [
        32.86919,
        34.9403
      ],
      [
        32.86932,
        34.940180000000005
      ],
      [
        32.86938,
        34.94001
      ],
      [
        32.869490000000006,
        34.93986
      ],
      [
        32.86979,
        34.939820000000005
      ],
      [
        32.86992,
        34.93974
      ],
      [
        32.870020000000004,
        34.93956
      ],
      [
        32.87021,
        34.939420000000005
      ],
      [
        32.870360000000005,
        34.9392
      ],
      [
        32.870540000000005,
        34.93903
      ],
      [
        32.8706,
        34.93878
      ],
      [
        32.870470000000005,
        34.93851
      ],
      [
        32.870490000000004,
        34.938320000000004
      ],
      [
        32.87046,
        34.93786
      ],
      [
        32.87055,
        34.93771
      ],
      [
        32.87068,
        34.93757
      ],
      [
        32.87095,
        34.937450000000005
      ],
      [
        32.871,
        34.937400000000004
      ],
      [
        32.87113,
        34.93714
      ],
      [
        32.8712,
        34.936870000000006
      ],
      [
        32.871370000000006,
        34.936780000000006
      ],
      [
        32.871390000000005,
        34.936580000000006
      ],
      [
        32.8714,
        34.93657
      ],
      [
        32.87138,
        34.936580000000006
      ],
      [
        32.871460000000006,
        34.936550000000004
      ],
      [
        32.87183,
        34.93672
      ],
      [
        32.872400000000006,
        34.93665
      ],
      [
        32.87256,
        34.93668
      ],
      [
        32.87263,
        34.93692
      ],
      [
        32.87265,
        34.93708
      ],
      [
        32.872730000000004,
        34.937180000000005
      ],
      [
        32.87304,
        34.937110000000004
      ],
      [
        32.873180000000005,
        34.937160000000006
      ],
      [
        32.87351,
        34.93746
      ],
      [
        32.87373,
        34.93762
      ],
      [
        32.87391,
        34.9377
      ],
      [
        32.87447,
        34.937760000000004
      ],
      [
        32.87445,
        34.937760000000004
      ],
      [
        32.874660000000006,
        34.93771
      ],
      [
        32.87473,
        34.93761
      ],
      [
        32.874770000000005,
        34.937430000000006
      ],
      [
        32.87473,
        34.93726
      ],
      [
        32.87476,
        34.93712
      ],
      [
        32.87487,
        34.9371
      ],
      [
        32.87518,
        34.9371
      ],
      [
        32.875310000000006,
        34.93714
      ],
      [
        32.87583,
        34.93712
      ],
      [
        32.876000000000005,
        34.937200000000004
      ],
      [
        32.87623,
        34.9371
      ],
      [
        32.876450000000006,
        34.93704
      ],
      [
        32.87664,
        34.936930000000004
      ],
      [
        32.877010000000006,
        34.93665
      ],
      [
        32.87711,
        34.936550000000004
      ],
      [
        32.877300000000005,
        34.93629
      ],
      [
        32.87742,
        34.935770000000005
      ],
      [
        32.877410000000005,
        34.93553
      ],
      [
        32.87745,
        34.9354
      ],
      [
        32.877590000000005,
        34.93535
      ],
      [
        32.87792,
        34.935550000000006
      ],
      [
        32.8781,
        34.935590000000005
      ],
      [
        32.8784,
        34.9356
      ],
      [
        32.87865,
        34.93553
      ],
      [
        32.87861,
        34.93549
      ],
      [
        32.87879,
        34.935190000000006
      ],
      [
        32.878980000000006,
        34.93504
      ],
      [
        32.87905,
        34.934940000000005
      ],
      [
        32.879110000000004,
        34.934740000000005
      ],
      [
        32.8791,
        34.93464
      ],
      [
        32.87905,
        34.934490000000004
      ],
      [
        32.878890000000006,
        34.934180000000005
      ],
      [
        32.8789,
        34.93392
      ],
      [
        32.878750000000004,
        34.933730000000004
      ],
      [
        32.878690000000006,
        34.933620000000005
      ],
      [
        32.87866,
        34.9335
      ],
      [
        32.87838,
        34.933350000000004
      ],
      [
        32.878350000000005,
        34.933260000000004
      ],
      [
        32.87834,
        34.93312
      ],
      [
        32.878370000000004,
        34.932970000000005
      ],
      [
        32.87843,
        34.93285
      ],
      [
        32.87866,
        34.93281
      ],
      [
        32.87876,
        34.932770000000005
      ],
      [
        32.87894,
        34.93263
      ],
      [
        32.87917,
        34.93254
      ],
      [
        32.87941,
        34.93247
      ],
      [
        32.8795,
        34.932390000000005
      ],
      [
        32.87955,
        34.93227
      ],
      [
        32.87968,
        34.932170000000006
      ],
      [
        32.87984,
        34.932
      ],
      [
        32.8799,
        34.93182
      ],
      [
        32.8798,
        34.93151
      ],
      [
        32.8798,
        34.93128
      ],
      [
        32.879760000000005,
        34.93079
      ],
      [
        32.87977,
        34.93065
      ],
      [
        32.880050000000004,
        34.93047
      ],
      [
        32.880120000000005,
        34.93037
      ],
      [
        32.88015,
        34.930260000000004
      ],
      [
        32.880120000000005,
        34.93012
      ],
      [
        32.880160000000004,
        34.92991
      ],
      [
        32.8802,
        34.92945
      ],
      [
        32.88031,
        34.929320000000004
      ],
      [
        32.88035,
        34.929
      ],
      [
        32.880340000000004,
        34.92873
      ],
      [
        32.88027,
        34.92862
      ],
      [
        32.880340000000004,
        34.928520000000006
      ],
      [
        32.880630000000004,
        34.928360000000005
      ],
      [
        32.880660000000006,
        34.92819
      ],
      [
        32.880570000000006,
        34.92801
      ],
      [
        32.880590000000005,
        34.92788
      ],
      [
        32.88064,
        34.92772
      ],
      [
        32.88069,
        34.9273
      ],
      [
        32.880770000000005,
        34.927150000000005
      ],
      [
        32.88073,
        34.92698
      ],
      [
        32.88084,
        34.9268
      ],
      [
        32.88101,
        34.926280000000006
      ],
      [
        32.88109,
        34.926100000000005
      ],
      [
        32.88116,
        34.926050000000004
      ],
      [
        32.88134,
        34.92577
      ],
      [
        32.88138,
        34.925270000000005
      ],
      [
        32.8815,
        34.92508
      ],
      [
        32.8815,
        34.92495
      ],
      [
        32.881350000000005,
        34.9247
      ],
      [
        32.881170000000004,
        34.92432
      ]
    ]
  }
}