{
  "type": "FeatureCollection",
  "generator": "overpass-turbo",
  "copyright": "The data included in this document is from www.openstreetmap.org. The data is made available under ODbL.",
  "timestamp": "2026-09-02T21:12:36Z",
  "features": [
    {
      "type": "Feature",
      "properties": {
        "@id": "way/1265838801",
        "leisure": "park",
        "name": "Garyllis Linear Park"
      },
      "geometry": {
        "type": "Polygon",
        "coordinates": [
          [
            [
              33.0143338,
              34.6912384
            ],
            [
              33.0145555,
              34.6913207
            ],
            [
              33.0147908,
              34.6908919
            ],
            [
              33.0151887,
              34.6910395
            ],
            [
              33.0152384,
              34.6909489
            ],
            [
              33.0154559,
              34.6910296
            ],
            [
              33.0155444,
              34.6908683
            ],
            [
              33.0156409,
              34.6909041
            ],
            [
              33.0157887,
              34.6906345
            ],
            [
              33.0160648,
              34.6907368
            ],
            [
              33.0163469,
              34.6905097
            ],
            [
              33.0166531,
              34.6899055
            ],
            [
              33.0162587,
              34.689756
            ],
            [
              33.0163986,
              34.6895009
            ],
            [
              33.0168508,
              34.6896686
            ],
            [
              33.0169421,
              34.6892303
            ],
            [
              33.0170495,
              34.6892207
            ],
            [
              33.0171495,
              34.6893497
            ],
            [
              33.0170955,
              34.6899417
            ],
            [
              33.0167795,
              34.6905389
            ],
            [
              33.0167211,
              34.6907155
            ],
            [
              33.0166004,
              34.690893
            ],
            [
              33.0166141,
              34.6910328
            ],
            [
              33.016405,
              34.6913028
            ],
            [
              33.0164763,
              34.6913401
            ],
            [
              33.0164451,
              34.6913804
            ],
            [
              33.0162019,
              34.6912529
            ],
            [
              33.0159628,
              34.6915615
            ],
            [
              33.0157862,
              34.691469
            ],
            [
              33.01564,
              34.6913924
            ],
            [
              33.015569,
              34.6914373
            ],
            [
              33.0155029,
              34.6915344
            ],
            [
              33.0148386,
              34.6916634
            ],
            [
              33.0145154,
              34.6917891
            ],
            [
              33.0143442,
              34.691916
            ],
            [
              33.0140434,
              34.6923155
            ],
            [
              33.013996,
              34.6924391
            ],
            [
              33.0139254,
              34.6925355
            ],
            [
              33.0140069,
              34.6927513
            ],
            [
              33.0140596,
              34.6928142
            ],
            [
              33.0138699,
              34.6929217
            ],
            [
              33.0140065,
              34.6930847
            ],
            [
              33.0138201,
              34.6933747
            ],
            [
              33.0135788,
              34.6935357
            ],
            [
              33.0132884,
              34.6932414
            ],
            [
              33.0142198,
              34.6912888
            ],
            [
              33.0143338,
              34.6912384
            ]
          ]
        ]
      },
      "id": "way/1265838801"
    }
  ]
}