{"type":"FeatureCollection","features":[{"type":"Feature","id":1022844,"geometry":{"type":"Polygon","coordinates":[[[32.416902655999991,34.905116899000006],[32.416617293000002,34.905469572000015],[32.416059244999985,34.905390168999986],[32.415883865000012,34.905365705000008],[32.415833125999995,34.905456969999989],[32.415758883000024,34.905425868999998],[32.415740345000017,34.905418118],[32.41542885299998,34.904897412000025],[32.415021942999999,34.904214056000001],[32.414882858999988,34.904162809000013],[32.414250455999991,34.903930046000028],[32.413479170000016,34.903631336999979],[32.412632701999996,34.903320447999988],[32.412115858999982,34.902996363999989],[32.411649060999991,34.902666658999976],[32.411165091999976,34.902239500999997],[32.410489052999992,34.901637407999999],[32.410204346,34.901391164000017],[32.410237578000022,34.901249689999986],[32.410213585999998,34.90109621900001],[32.410087028000021,34.900771132999978],[32.409897321000017,34.900265701000023],[32.409748266999998,34.900070330000005],[32.409610402999988,34.899824797000008],[32.409298808000017,34.899339415999975],[32.40901911200001,34.898886736999998],[32.408831501999998,34.898593810000023],[32.40856646200001,34.898111629000027],[32.408807622999973,34.897921040000028],[32.409040962000006,34.897839592000025],[32.409180610000021,34.897822599999984],[32.409269424000001,34.89743067400002],[32.409491409999987,34.897434637000003],[32.409621743000002,34.897243597999989],[32.409818076000022,34.897338945000001],[32.410125146999974,34.897446639999998],[32.410328646999972,34.897524259000022],[32.410363738000001,34.897551747000023],[32.410439038999982,34.897610353000005],[32.410728290999998,34.897723908999978],[32.411010282000007,34.897843290000026],[32.411252816000001,34.897965364000015],[32.411498207000022,34.898205555999994],[32.411779087000014,34.898481259999983],[32.412168337000026,34.898633523000001],[32.412400581999975,34.898705509000024],[32.412554370000009,34.898718062],[32.412633167000024,34.898742425000023],[32.41265090600001,34.89874801000002],[32.412761295999985,34.898822290999988],[32.41289313599998,34.898926157000005],[32.412835199000028,34.899014410000007],[32.41289909599999,34.899103161000028],[32.413033960999996,34.899251307999975],[32.413158560999989,34.899358113000005],[32.413132387000019,34.899523242999976],[32.413178340000002,34.899597212000003],[32.413320768999995,34.899709963000021],[32.413616658000024,34.899894318000008],[32.413769952999985,34.899989450000021],[32.413987168000006,34.900170448999972],[32.414083187000017,34.900260887999991],[32.414207626000007,34.900378058999991],[32.414314165000008,34.900499470999989],[32.414384127000005,34.900738811999986],[32.414418678999994,34.900918928999999],[32.414345953000009,34.901068958999986],[32.414530429000024,34.901323546000015],[32.414796226000021,34.901705374000016],[32.414955754999994,34.901927474999979],[32.414987661999987,34.901971805000017],[32.415198981999993,34.901966962000017],[32.415431726999998,34.901982867000015],[32.415601949999996,34.902198977000012],[32.415752629999986,34.902167245999976],[32.415816526000015,34.902244275999976],[32.415923027000019,34.902371636999987],[32.416206337000006,34.902308086000005],[32.416532501000006,34.902259524999977],[32.416566438000018,34.902272040000014],[32.416686073999983,34.902316338999981],[32.416789891999997,34.902325673000007],[32.416943839999988,34.902329387000009],[32.417075581999995,34.902372031000027],[32.417101065999987,34.902380268000002],[32.417361791000019,34.902472935999981],[32.417533338999988,34.902515049999977],[32.417734358000018,34.902448214999993],[32.417884843000024,34.902431175000004],[32.418049489999987,34.902440798999976],[32.418121714999984,34.902463504000025],[32.418135313999983,34.902467806000004],[32.418384504000016,34.902174009000021],[32.418618899000023,34.901930267000012],[32.418828728999983,34.901624470000002],[32.419002408999972,34.901350954999998],[32.419107644999997,34.901171507000015],[32.419209927999987,34.90088584099999],[32.419229334000022,34.900667666999993],[32.41917717299998,34.900449058999982],[32.419130246999998,34.900307199999986],[32.419093132,34.900194958999975],[32.418919963999997,34.899857849999989],[32.418872226000019,34.899754482999981],[32.418835334999983,34.899674518999973],[32.418834967000009,34.899662707000005],[32.418829964999986,34.89941195900002],[32.418845809999993,34.899199626999973],[32.418948070999988,34.898916935999978],[32.419071373000008,34.898696282999992],[32.419201638999994,34.898499193000021],[32.419349510000018,34.898352405000026],[32.41956355100001,34.898087827999973],[32.41972924800001,34.897972677999974],[32.419892420999986,34.897895651999988],[32.420017874999985,34.897869023999988],[32.420169480000027,34.897884261999991],[32.420296870000016,34.897890279000023],[32.420462246999989,34.897807763999992],[32.420603132999986,34.897781298999973],[32.420783368999992,34.897793067000009],[32.420904324999981,34.897777324999993],[32.421010561000003,34.897917122000024],[32.421081879999974,34.898004011000012],[32.421106695999981,34.898081663000028],[32.421127891000026,34.898147848000008],[32.421146399999998,34.898275597999998],[32.421131349999996,34.898439610000025],[32.421066702000019,34.898585174000004],[32.421008176999976,34.898655487999974],[32.420783690999997,34.898711397],[32.42059789000001,34.898772087999987],[32.420483951999984,34.898842135999985],[32.420409204000009,34.898857737000014],[32.420407759999989,34.898857731000021],[32.420210042999997,34.898854534000009],[32.420129459000009,34.898904275999996],[32.420034837999992,34.89899957099999],[32.419981459999974,34.899095061000025],[32.419964020999998,34.899213443999997],[32.419971826999983,34.899284163000004],[32.420076406000021,34.899364450000007],[32.420077744000025,34.899366620000023],[32.420136544999991,34.899462735999975],[32.420160380000027,34.899615573999995],[32.420142861999977,34.899745315000018],[32.420180491999986,34.899758838000025],[32.420355411000003,34.899821609000014],[32.420506857000021,34.899911223999993],[32.420611276999978,34.900014231],[32.420646486999999,34.900128354999993],[32.420612011000003,34.900308231999986],[32.420572142000026,34.900472126000011],[32.420479222999973,34.90069734399998],[32.420467427999995,34.900808989999973],[32.42047792599999,34.900881975999994],[32.420549504000007,34.900932445000024],[32.420670915000017,34.900980896000021],[32.42086950700002,34.901066137999976],[32.42087200200001,34.901070747999995],[32.420902212999977,34.901125525999987],[32.420888117000004,34.901166479999972],[32.420749456999999,34.901209183999981],[32.420591351999974,34.901283621000005],[32.420508138999992,34.901321992000021],[32.420342263000009,34.901307497000005],[32.42015935500001,34.901340792999974],[32.42010092999999,34.901383789000022],[32.420039443999997,34.901476988000013],[32.419952968000018,34.901581426999996],[32.419851676999997,34.901649281000005],[32.41976688699998,34.90168079099999],[32.419647768999994,34.901716736000026],[32.419348850999995,34.901728922000018],[32.419298856000012,34.901753745999997],[32.419127004000018,34.902190542000028],[32.419016778000014,34.902527288999977],[32.41896908199999,34.902622806000011],[32.418802272999983,34.902740563999998],[32.418588585999998,34.902837540999997],[32.418683969000028,34.903044995000016],[32.418701387999988,34.90307068300001],[32.418716752000023,34.903093384999977],[32.418816182,34.903123521999987],[32.418873910000002,34.903167071999974],[32.41888886800001,34.903221868999992],[32.418895550000002,34.903246964999994],[32.418926950000014,34.903299494999999],[32.418958439999983,34.903352116000008],[32.419075900999985,34.90356463400002],[32.419237811000016,34.903745448999985],[32.419354313999975,34.903799467999988],[32.419386700000018,34.903814497999974],[32.419408751999981,34.90382316900002],[32.419480486999987,34.903851459999998],[32.419546545999992,34.90390415600001],[32.419681207999986,34.904032459999996],[32.419825027000002,34.904103829000007],[32.419987115000026,34.904195749999985],[32.420155072,34.904312762000018],[32.420322951999992,34.904441134000024],[32.420670329000018,34.90461147100001],[32.421012336999979,34.90474986800001],[32.421082465999973,34.904775626000003],[32.421401335999974,34.904892994000022],[32.421754642999986,34.905029188000015],[32.421662448000006,34.905138109000006],[32.421581870000011,34.905199302000028],[32.421384739000018,34.905303215000004],[32.421193929000026,34.905432400999985],[32.421032138999976,34.905528999000012],[32.420885025000018,34.905566705000012],[32.420659538999985,34.905556703999991],[32.420530466999992,34.905582685000013],[32.419806443000027,34.905809309000006],[32.419418025000027,34.905916632000014],[32.418796208000003,34.905727759000001],[32.418121427000017,34.905447300999981],[32.417488778000006,34.905284965000021],[32.416902655999991,34.905116899000006]]]},"properties":{"objectid":1022844,"site_id":344565,"site_pid":"344565","site_type":"PA","name_eng":"Geomorfomata Kathika - Kathikas Melange (klasikes emfaniseis)","name":"Geomorfomata Kathika - Kathikas Melange (klasikes emfaniseis)","desig":"Προστατευόμενα Τοπία","desig_eng":"Protected Landscape","desig_type":"National","iucn_cat":"III","int_crit":"Not Applicable","realm":"Terrestrial","rep_m_area":0,"gis_m_area":0,"rep_area":0.43622250000000001,"gis_area":0.43622249000000002,"no_take":"Not Applicable","no_tk_area":0,"status":"Designated","status_yr":1990,"gov_type":"Federal or national ministry or agency","verif":"State Verified","inlnd_wtrs":"Not Reported","own_type":"Not Reported","mang_auth":"Department of Town Planning and Housing","mang_plan":"Not Reported","cons_obj":"Not Applicable","supp_info":"Not Applicable","metadataid":2013,"prnt_iso3":"CYP","iso3":"CYP","govsubtype":"Not Applicable","ownsubtype":"Not Applicable","oecm_asmt":"Not Applicable","Shape__Area":4.3022147627228498e-05,"Shape__Length":0.048576278993012964}}]}