{"type":"FeatureCollection","features":[{"type":"Feature","id":1022840,"geometry":{"type":"Polygon","coordinates":[[[32.381216461999998,35.020003277000001],[32.381329541000014,35.020145672000012],[32.382152704000021,35.021151824000015],[32.382444819,35.021508868000012],[32.382765996999979,35.021901431999993],[32.383368518999987,35.023580654],[32.383509838000009,35.023974496999983],[32.383519424999974,35.024462975999995],[32.383524399999999,35.025078882000003],[32.383527058000027,35.02540793899999],[32.383530604999976,35.025847167999984],[32.383707608000009,35.026006703999997],[32.383760666000001,35.026087583999981],[32.383762935999982,35.026184720000003],[32.383755012999984,35.026288728999987],[32.383713243999978,35.026402179999991],[32.383632464000016,35.026533368999992],[32.383589367000013,35.026614903999985],[32.383566359999975,35.026710461999983],[32.383558456999992,35.026811693000013],[32.383571069000027,35.026889485000027],[32.383600661999992,35.026959820000002],[32.383638424000026,35.027049573999989],[32.383554161999996,35.027142572000002],[32.383541872000023,35.027139556000009],[32.383472568999991,35.027085234000026],[32.383467802999974,35.027081499000019],[32.383463946000006,35.027074557999981],[32.382615981000015,35.026024686000028],[32.382613368000023,35.025958064999998],[32.382577890999983,35.025813482999979],[32.382464027000026,35.025590610999984],[32.382478819000028,35.025105176000011],[32.382478585999991,35.025104279000004],[32.381212661999996,35.022747713000001],[32.379949298999975,35.020667834999983],[32.37981109499998,35.020361526999977],[32.379368220000003,35.020000136000021],[32.379480360999992,35.019781779000027],[32.379465744000015,35.019583249999982],[32.379270414000018,35.019702461999998],[32.379041966999978,35.019321906000016],[32.378896981000025,35.019168176999983],[32.378699553999979,35.019174969999995],[32.378434689000017,35.018882931999997],[32.378165914000022,35.018705844999999],[32.377305116000002,35.018512382999972],[32.377534801000024,35.018163469000001],[32.377644911999994,35.017874173999985],[32.377176399999996,35.017925545000026],[32.37669116699999,35.017475252999986],[32.376642899999979,35.017430462999982],[32.376461267000025,35.017305279000027],[32.376010203000021,35.017058372999998],[32.375918551999973,35.017002869000009],[32.375678978999986,35.016857780999999],[32.375753440999972,35.016705704000003],[32.375616329000025,35.016634504000024],[32.375700790999986,35.016484572000024],[32.375273382999978,35.015484913000023],[32.374910592999981,35.015195360000007],[32.37478950000002,35.015039711999975],[32.374370515999999,35.01440110499999],[32.37352858600002,35.013691155999993],[32.373551002999989,35.01348503600002],[32.373194726999998,35.013031918000024],[32.373116159000006,35.012931992000006],[32.372186741000007,35.011749909999992],[32.372176409000019,35.011628529999996],[32.372152960999983,35.011570118000009],[32.372096587999977,35.011489155999982],[32.372002547000022,35.011412228999973],[32.371943541000007,35.011310696999999],[32.371790315999988,35.011199823000027],[32.371652239000014,35.011128962999976],[32.371277597000017,35.011000217999992],[32.371061999000005,35.010777811000025],[32.370760847999975,35.010581564999995],[32.370721408000009,35.010542100999999],[32.370619551999994,35.010440184999993],[32.370642120000014,35.010221704000003],[32.370540945000016,35.01008065000002],[32.370168680999996,35.00930830599998],[32.370029724999995,35.009181389999981],[32.369458048000013,35.008962402000009],[32.369255532000011,35.008911309999974],[32.368955570000026,35.008830588000023],[32.368877798000028,35.008456701999989],[32.368877773000008,35.008456686999978],[32.368461711000009,35.008335518000024],[32.368206251000004,35.008353177999993],[32.368128581000008,35.008355864999999],[32.368042898999988,35.008392336999975],[32.36787134299999,35.008483825999974],[32.367836064000016,35.00849780499999],[32.367493492999984,35.008633520999979],[32.367239966,35.008658362000006],[32.366810413999985,35.008725140000024],[32.366721695000024,35.00880902199998],[32.366515626000023,35.008848675000024],[32.366360152000027,35.008849514000019],[32.366068956999982,35.008878185000015],[32.365993602999993,35.008978544999991],[32.365963255999986,35.008961700999976],[32.365934177999975,35.008940897999992],[32.365902955000024,35.008911308999984],[32.365876680999975,35.008876577000024],[32.365855532000012,35.008833514999992],[32.365849335000007,35.008797110999978],[32.365866690000018,35.008745377000025],[32.365885592999973,35.008689034999975],[32.366037360000007,35.008574700999986],[32.366571459999989,35.008401859999992],[32.366605369000013,35.008390695000003],[32.366676643000005,35.008367226000018],[32.367098736000003,35.008294196999998],[32.36731219699999,35.008264920999977],[32.367407522999997,35.008234660000028],[32.367470751999974,35.008214588999977],[32.367687365999984,35.008129637000025],[32.367820639999991,35.008055511000009],[32.367939723000006,35.007989275999989],[32.368094466000002,35.007884027999978],[32.368213355000023,35.007791155000007],[32.368285850000007,35.007762997999976],[32.368675124999982,35.007708275000027],[32.368833913000003,35.007637312999975],[32.369549735000021,35.007096237999974],[32.369554995999977,35.007083651000016],[32.369660603,35.006830992999994],[32.369753590000016,35.006594490999987],[32.369753520000017,35.006420875000003],[32.369715961999987,35.006282725999995],[32.369727780999995,35.006222985000022],[32.369749434000028,35.006179644999975],[32.369802805000006,35.006240075999983],[32.369959487000017,35.006642453999973],[32.37047650300002,35.006525864000025],[32.372564309999973,35.008782337000014],[32.372469932000001,35.008818672000018],[32.373034043000018,35.009365657999979],[32.373527992999982,35.009476509000024],[32.373767231999977,35.009715839000023],[32.37421503500002,35.009585225000023],[32.374461420999978,35.009529371999975],[32.374656555000001,35.009568022999986],[32.375227178999978,35.009661134999988],[32.375243200999989,35.009795353000015],[32.375187046000008,35.009881559999997],[32.374842816000012,35.009944889999986],[32.374647548999974,35.010014952999995],[32.374555782000016,35.010047880000002],[32.37451321399999,35.010041363000028],[32.374344375000021,35.009895660999973],[32.373966896000013,35.010233089999986],[32.374160779000022,35.010383127000011],[32.374853475000009,35.011203317000025],[32.376272044000018,35.010824422999974],[32.376482080000017,35.010656891999986],[32.37659546499998,35.010389595999982],[32.376666207000028,35.010342705000028],[32.376734003000024,35.010334978999992],[32.376943305999987,35.010450047999996],[32.377293743999985,35.010064945000011],[32.377454962000002,35.010000169000023],[32.377142932000027,35.009657392000008],[32.377043286000003,35.009380200999999],[32.376949593000006,35.009241265000014],[32.376815793999981,35.008881289999977],[32.377052742999979,35.008771738999997],[32.377136054999994,35.008502142999987],[32.377169483999978,35.008209479000016],[32.377341070999989,35.007895191999978],[32.377961017000018,35.007182109999974],[32.378127574000018,35.007656241000007],[32.378207179000015,35.00780286600002],[32.378407105999997,35.00804197299999],[32.378408055000023,35.00804430300002],[32.378455794999979,35.008022406999999],[32.378628476000017,35.007928863000018],[32.378784563000011,35.007844309000006],[32.379373778999991,35.007525118999979],[32.379591694999988,35.007545375999996],[32.379644428000006,35.007758258000024],[32.380414434999977,35.007958090999978],[32.380323276000013,35.008256501000005],[32.380384224000011,35.008409622999977],[32.381052090000026,35.00824353500002],[32.381201755000006,35.008399417000021],[32.381729258999997,35.008507393999992],[32.38183773999998,35.008529597999996],[32.381934735000016,35.008549452000011],[32.382598926000014,35.00813167299998],[32.382860728000026,35.008040857000026],[32.382905735000008,35.007830795000018],[32.383042310000008,35.007726634999983],[32.383070496000016,35.007673215000011],[32.383274406999988,35.007602593000001],[32.383441874000027,35.007194704000028],[32.383465211999976,35.007137854000007],[32.383793677000028,35.006917579999993],[32.383928486000002,35.006845124999984],[32.384043415999997,35.006783342999995],[32.384686422000016,35.006503060999989],[32.384894907999978,35.006430937999994],[32.385312525000018,35.006308305999994],[32.385583137000026,35.00643364299998],[32.385837862000017,35.006636710999999],[32.385840825000002,35.006485107000003],[32.385648580000009,35.00630210700001],[32.385510034999982,35.006025663999992],[32.385367556999995,35.005875006999986],[32.384786921999989,35.005559070000004],[32.384673549000013,35.005276632999994],[32.384467305999976,35.004779957999972],[32.384467954999991,35.004610821000028],[32.384380553000028,35.004580241999975],[32.384324358000015,35.004457474999981],[32.384284942000022,35.004371363000018],[32.384260041999994,35.004316963999997],[32.384260028000028,35.004316932999984],[32.384231801999988,35.004255324999974],[32.384257452999975,35.004070709000018],[32.384286076000024,35.003942762000008],[32.384333516000027,35.003752369999972],[32.384201432999987,35.003420496999979],[32.384277150000003,35.003219380000019],[32.384334029000001,35.003068299999995],[32.384325219999994,35.002886423000007],[32.384158968999998,35.002689900000007],[32.384018265999998,35.002639650999981],[32.384080659000006,35.002535083999987],[32.384082890999991,35.002531345000023],[32.384189837999998,35.002363763999995],[32.384342885000024,35.002285943999993],[32.384401419000028,35.002235727000027],[32.384484300999986,35.002114156999994],[32.384649088000003,35.002112431],[32.384698571000001,35.002118801999984],[32.384787824999989,35.002088727],[32.384866897999984,35.002072008000027],[32.384946887000012,35.002055095000003],[32.384971398000005,35.002038185999993],[32.385298067999997,35.001917016999982],[32.385372292999989,35.001875466000001],[32.385527635000017,35.001732858000025],[32.385668495000004,35.001673142000016],[32.385876960000019,35.001500362999991],[32.385944146999975,35.001484490999985],[32.385942852000028,35.001559384000018],[32.385941559999992,35.00163351499998],[32.385931357000004,35.001736268999991],[32.385782802999984,35.002075149000007],[32.385786327999995,35.002105927999992],[32.385796774000028,35.00211376499999],[32.385807265999972,35.002118687000007],[32.38582218800002,35.002122321999991],[32.385841534999997,35.00212224400002],[32.385889247000023,35.002095107000002],[32.385993473999974,35.002007983999988],[32.385993854999981,35.002100094000014],[32.385901448000027,35.002405797999984],[32.385980659999973,35.002660642000023],[32.386105038999972,35.002751913999987],[32.386479328000007,35.002935697999987],[32.386534356000027,35.002961829000014],[32.386872727000025,35.003122510000026],[32.386959886999989,35.003207648],[32.387147320999986,35.003452009],[32.387465651000014,35.003816577000009],[32.387609245000021,35.003932448],[32.387750659000005,35.004082550000021],[32.387879349000002,35.004237047999993],[32.388050937999992,35.004280074999997],[32.388115810999977,35.004310382000028],[32.388165465999975,35.004346858000019],[32.388173960000017,35.00435311199999],[32.388354288000016,35.004566479000005],[32.38840901399999,35.00464767699998],[32.388629040000012,35.005036132999976],[32.388653826999985,35.005141977999983],[32.388707506999992,35.005194542000027],[32.38917954599998,35.005304534999993],[32.389197765000006,35.005251567000016],[32.389228942999978,35.005258826999977],[32.389422330000002,35.005061794000028],[32.389388653000026,35.004933629999982],[32.389970233999975,35.004499710000005],[32.391028555999981,35.004313222999997],[32.391236284000001,35.004246783999974],[32.391697652000005,35.004363704000014],[32.391793113000006,35.004301156999986],[32.391946362999988,35.004043003999982],[32.392017151000005,35.003869172000009],[32.392256799999984,35.003704459999994],[32.392345331000001,35.003643612000019],[32.392493393999985,35.00352402499999],[32.392541372999972,35.003456401999983],[32.392388933999996,35.003365056000007],[32.392293703000007,35.003285244999972],[32.392334500999993,35.003256417999978],[32.392525502000012,35.003217631999973],[32.392608784999993,35.003159988999982],[32.392659933999994,35.003110428000014],[32.392743231999987,35.003051400000004],[32.392895882999994,35.002973472000008],[32.39302967499998,35.002923150000015],[32.393131472999983,35.002868422999995],[32.393211586000007,35.002792719000013],[32.393277849000015,35.002748822000001],[32.393329224000013,35.002700118000007],[32.393356255000015,35.002674492999972],[32.393394118000003,35.002606791999995],[32.393367510000019,35.002573289999987],[32.393374938000022,35.00251229600002],[32.393349209999997,35.002467046999982],[32.393439210999986,35.002428408000014],[32.393538143000001,35.002400232000014],[32.393742900000007,35.002354426000011],[32.393931430000009,35.002303760000018],[32.393938882999976,35.002300384000023],[32.394121383000027,35.002217740999981],[32.395336664000013,35.001721040999996],[32.395746710000026,35.001683489000015],[32.396000183000012,35.001679432999993],[32.396169785999973,35.001641631999973],[32.396379303000003,35.001579599000024],[32.396542434000025,35.001507778000018],[32.396673157999999,35.001420504000009],[32.396778440999981,35.001317812000025],[32.396815770999979,35.001240960000018],[32.396840015000009,35.001198234000015],[32.396941979000019,35.001128241999993],[32.396990417999973,35.001018994999981],[32.397020774999987,35.000867986999992],[32.397017079000022,35.000812583000027],[32.397013553000022,35.000759706999986],[32.397051673000021,35.000668420000011],[32.397121939999977,35.000567663000027],[32.39721049000002,35.000490634000016],[32.397280045000002,35.000453697000012],[32.397385797000027,35.000346271000012],[32.397511693000013,35.000247322000007],[32.398349129999986,34.999646691000009],[32.399461770000016,34.99885806399999],[32.399762160000023,34.998645146000001],[32.399800984000024,34.998617627999977],[32.399926128000004,34.998663432000001],[32.399894965999977,34.998557877999986],[32.40017420700002,34.998356902000012],[32.401229128000011,34.997597639999981],[32.40128473599998,34.997552426000027],[32.401344504999997,34.997477993000018],[32.401538510000023,34.99704916799999],[32.401545257999999,34.997004624999988],[32.401572981000015,34.99695271600001],[32.401617502000022,34.99702875600002],[32.401608701999976,34.99706199000002],[32.401609909000001,34.99710501200002],[32.401651092000009,34.997192734999999],[32.401685853000004,34.997251272000028],[32.401743237999995,34.997312987999976],[32.401841448000027,34.997410179999974],[32.40192168599998,34.997486862000017],[32.401956052000003,34.997519705999991],[32.401989003999972,34.997589328999993],[32.401998149999997,34.997676811000019],[32.401980363999996,34.997759927000004],[32.402138374000003,34.997957324000026],[32.402186802000017,34.998017824999977],[32.402433764000023,34.998326347999978],[32.402523410000015,34.998438339000018],[32.402543481999999,34.998469191000027],[32.402431021999973,34.998483712999985],[32.402372904999993,34.998491522999984],[32.402305903000013,34.998499396999989],[32.402253695000013,34.998503393000021],[32.402256763000025,34.998684696999987],[32.402043816999992,34.998878733000026],[32.40201043899998,34.99899919500001],[32.401940826999976,34.999041684000019],[32.401832532000014,34.999226795000027],[32.401565356999981,34.99929277199999],[32.401319654000019,34.999399148000009],[32.401177936000011,34.999405018000004],[32.401123612999982,34.999361593000003],[32.401075316999993,34.999437213000022],[32.400857954000003,34.999688489999983],[32.400728217999983,34.999887257000012],[32.400737760000027,35.000014980000003],[32.40071339299999,35.000014899999996],[32.400664043000006,35.000052154999992],[32.400554747000001,35.000138149000009],[32.400452336000001,35.000241485000004],[32.400385071000017,35.00033201399998],[32.400342376000026,35.000418336999985],[32.40029191299999,35.000608462999992],[32.400263006999978,35.000726584000006],[32.400225453000019,35.000828796999997],[32.400126026000009,35.000962199000014],[32.400004169999988,35.00100151700002],[32.399918124999999,35.001005030999977],[32.399774471000001,35.001033086000007],[32.399757138999973,35.001042836000011],[32.399694549999992,35.001078052000025],[32.399653983999997,35.001100872999984],[32.399580798999978,35.001160664999986],[32.399280154999985,35.001355423000007],[32.399126825999986,35.001360277000003],[32.399180222999973,35.001695992999998],[32.399170337999976,35.001826343000005],[32.399102554000024,35.002017543000022],[32.399081541999976,35.002076810999995],[32.39906135199999,35.002374971999984],[32.398994877999996,35.002589532999991],[32.399061709000023,35.002645538000024],[32.399256741999977,35.002547110000023],[32.399364215999981,35.00258815799998],[32.399342574000002,35.002612520000014],[32.399299317999976,35.002661206000028],[32.399299195000026,35.002823542999977],[32.399282273999972,35.002980203999982],[32.399174145000018,35.003029727000012],[32.399011060000021,35.003104420999989],[32.398871794999991,35.003192167999998],[32.398787588999994,35.00333305800001],[32.398678229999973,35.003461270999992],[32.398165315000028,35.00393608600001],[32.397718547000011,35.004222758000026],[32.39760680400002,35.004294453999989],[32.397415659999979,35.004417101999991],[32.397415625999997,35.004417172999979],[32.397147346999986,35.004931139999997],[32.396819694999976,35.005586414999982],[32.396727879000025,35.005770035000012],[32.396413369000015,35.005927185000019],[32.396078518000024,35.006770400999983],[32.396017910000012,35.006923023000013],[32.396014867000019,35.006930532000013],[32.395728693000024,35.007636934000004],[32.395783352000024,35.007831908000014],[32.395926120000013,35.007963862999986],[32.396071502999973,35.008115572999998],[32.396153137999988,35.008201305],[32.396541136999986,35.008138508999991],[32.396777136000026,35.008210077999991],[32.39659521599998,35.008372039999983],[32.396355744000005,35.008556103999979],[32.396337558000027,35.00858002199999],[32.396315157000004,35.008609481999997],[32.396292173999996,35.008758078000028],[32.396281623999982,35.008942905000026],[32.396287773999973,35.008946784999978],[32.396674356999995,35.009190739000019],[32.396810703000028,35.009316771999977],[32.396802087000026,35.009613005999995],[32.396749251000017,35.009887817999982],[32.396864488999995,35.010158045000026],[32.396878252000022,35.010389078999992],[32.396922016000019,35.010543908999978],[32.396971812000004,35.01072188400002],[32.397044216999973,35.010975597000026],[32.397100724999973,35.011174089000008],[32.397268750000023,35.011578858999997],[32.397335677000001,35.011740083999996],[32.397487506000004,35.012015039999994],[32.397435836,35.012098835000018],[32.397428960000013,35.012109983000016],[32.397263061999979,35.012269328000002],[32.397186248000025,35.012349047999976],[32.397247646999972,35.012414239999998],[32.39765569399998,35.012560021000013],[32.397691205000001,35.012670841999977],[32.397692027000005,35.012773148999997],[32.397692921999976,35.012884471000007],[32.397780189000002,35.012953872000026],[32.39793966000002,35.012983685999984],[32.398107330000016,35.013013564000005],[32.398240278000003,35.013045487999989],[32.398442459000023,35.013094949999982],[32.39859455200002,35.013132156999973],[32.398764127999982,35.013173771000027],[32.398896615000012,35.013146345999985],[32.399115196000025,35.013035994000006],[32.399229917000014,35.013038635999976],[32.399248246000013,35.013052445000028],[32.399355802999992,35.013133476999997],[32.399380002999976,35.01316549500001],[32.399428195999974,35.013262046000023],[32.39947401500001,35.013353841000026],[32.399516858000027,35.013383936000025],[32.399693875000025,35.013508283000021],[32.399767826000016,35.013556875000006],[32.399852540999973,35.013612540999986],[32.399925510000003,35.013678470000002],[32.39998467800001,35.013738487000012],[32.400001723999992,35.013835718999985],[32.40001973599999,35.013938454000026],[32.400003998999978,35.013937786999975],[32.39989278500002,35.01397646700002],[32.39961946599999,35.014071526000009],[32.399409757000001,35.014144461000001],[32.398867085000006,35.014164450999999],[32.398834921999992,35.014165635999973],[32.398653333000027,35.014172324000015],[32.398507423000012,35.014399468000022],[32.398529062000023,35.014446726000017],[32.398604454000008,35.014611387000002],[32.39859186000001,35.014777503999994],[32.398584717000006,35.014871722999999],[32.398833920000015,35.014947365000012],[32.399060076000012,35.015028058999974],[32.399083098000006,35.015036033999991],[32.399185455999998,35.015071526999975],[32.399277313000027,35.015226631000019],[32.399352555000007,35.015335988999993],[32.399361704,35.015349274000016],[32.399375392000024,35.015525326999978],[32.399455594000017,35.015661990000012],[32.399567740000009,35.015821867999989],[32.399653479999984,35.015939160000016],[32.399715893000007,35.016019672000027],[32.399679065999976,35.016078574999995],[32.399672726000006,35.016069747000017],[32.398935309000024,35.016798305000009],[32.398514377000026,35.01704821300001],[32.398132104000013,35.017030148999993],[32.397996291000027,35.016882274000011],[32.397935029999985,35.016900346999989],[32.397877612000002,35.017054222000013],[32.397789475000025,35.016940668000018],[32.397664564000024,35.016882916999975],[32.397422014000028,35.016785862999996],[32.397156001999974,35.016718645000026],[32.396828516000028,35.016638397999998],[32.396650242000021,35.016594714000007],[32.396338820999972,35.016088989000025],[32.395889570000008,35.01535233300001],[32.395437277999974,35.014730579000002],[32.395362073999991,35.014588404999984],[32.395302297000001,35.014295172000004],[32.395294236999973,35.014255632000015],[32.395165629000019,35.014107630000012],[32.394730214999981,35.013768766999988],[32.394611423000015,35.013666756000021],[32.394573951999973,35.013634577000005],[32.394284606999975,35.013496616999987],[32.394171513999993,35.013442694999981],[32.393697087000021,35.013051729999972],[32.393100847000028,35.012588413000003],[32.393042152000021,35.012455063000004],[32.392875081,35.012247699999989],[32.392688589999977,35.01205097899998],[32.392686738999998,35.012200377999989],[32.392701122999995,35.012359452999988],[32.392715511000006,35.012518527999987],[32.392748740000002,35.012833342000022],[32.392726845000027,35.012974480000025],[32.392715612000018,35.01304688099998],[32.392675456999996,35.013375170000018],[32.392635720999976,35.013674485000024],[32.392600674999983,35.013878793999993],[32.392582487000027,35.013999391000027],[32.392546048999975,35.014150261999987],[32.392462208999973,35.014375074999975],[32.392393590999973,35.014553270000022],[32.392273798000019,35.014729300999988],[32.392155887999991,35.014851478000026],[32.392131221,35.014877726000009],[32.392131199999994,35.014877748999993],[32.392126621999978,35.014882621000027],[32.392043261000026,35.014934607999976],[32.391977592999979,35.014975151999977],[32.391953188999992,35.015010793999977],[32.391909370000008,35.015021531999992],[32.391851659999986,35.014845954000009],[32.391653362999989,35.015052559000026],[32.391536679000012,35.015130812999985],[32.391336035999984,35.015149803999975],[32.391265164000004,35.01517150799998],[32.39115164399999,35.015206270000022],[32.391065189000017,35.015232744999992],[32.390637078999987,35.015536915999974],[32.390851345999977,35.015661290000025],[32.390737311000009,35.016212235000012],[32.390739531000008,35.016459793000024],[32.390720448000025,35.016596823999976],[32.390680812000028,35.01666561799999],[32.390586589999998,35.016792806000012],[32.390577349000012,35.016833990000009],[32.390900245000012,35.017109780999988],[32.39099442700001,35.01715307500001],[32.391073634000008,35.017189486999996],[32.391409142999976,35.017235362000008],[32.391825142000016,35.017485528999998],[32.391868611000007,35.017598367999994],[32.391903769999999,35.01767944300002],[32.391947323000011,35.017834103999974],[32.391982292000023,35.017940920000001],[32.392023751000011,35.018066673000021],[32.392026009000006,35.018073517999994],[32.39208327099999,35.018187800000021],[32.392093627000008,35.018218955999998],[32.392113879000021,35.01827988399998],[32.392144459000008,35.018375644000002],[32.392170078999982,35.018537571000024],[32.392178338999997,35.018629542999975],[32.392186487999993,35.018736224000008],[32.392181095000012,35.018861221999998],[32.392178774999991,35.018881720000024],[32.392171528999995,35.01894575099999],[32.39218790000001,35.019074072000024],[32.392188427999997,35.019078214999979],[32.392240952000009,35.019251021000002],[32.39232580700002,35.019619223999996],[32.392345368000008,35.019704102999981],[32.392466533000004,35.020229862999997],[32.392833316999997,35.020286983000005],[32.393109228000014,35.020220952999978],[32.393149794999999,35.020312541999999],[32.393202256999984,35.020454409000024],[32.39331265300001,35.020789310999987],[32.393454449999979,35.020966905000023],[32.393611766999982,35.021277184999974],[32.393727296999998,35.021531835000019],[32.393748174999985,35.021624614000018],[32.393736030000014,35.021707688999982],[32.39372851600001,35.021759084999985],[32.393726366999999,35.021773777000021],[32.393720085999973,35.021822831000009],[32.393598799000017,35.022019272000023],[32.393651627999986,35.022189047999973],[32.393606089999992,35.02253523600001],[32.393538535999994,35.022695180000028],[32.393527216999985,35.02277602700002],[32.393527167999991,35.022776340000007],[32.393529892999993,35.022774280000021],[32.393580440999983,35.022792701000014],[32.393757547000007,35.02285716199998],[32.393812046999983,35.022877929000003],[32.393905969999992,35.022913736000021],[32.394011222000017,35.02307358500002],[32.394249842000022,35.023358846999997],[32.39429259000002,35.023478946000012],[32.394314168999983,35.023539572000004],[32.394426848000023,35.023575687999994],[32.394629087999988,35.023707350999985],[32.394952484999976,35.023850881999977],[32.395121641999992,35.023787991999995],[32.395286157999976,35.023644977000004],[32.395433514999979,35.023840353000026],[32.395595270000001,35.024056235999979],[32.395613270000013,35.024159209999993],[32.395470563999993,35.024326563999978],[32.395410635000019,35.024458503000005],[32.395358498000007,35.024700972999995],[32.395424027999979,35.024709578],[32.395418489999997,35.02473811599998],[32.395626221999976,35.024921999000014],[32.395473557999992,35.025792910000007],[32.395463155000016,35.025833417999991],[32.395551888999989,35.025977244999979],[32.395681335000006,35.026168090999988],[32.395686880000028,35.026296582999976],[32.395656900000006,35.026390418999995],[32.395586749000017,35.026338560999989],[32.395495337,35.026319335999972],[32.395369689000006,35.026323162999972],[32.395331907000013,35.026341381999998],[32.395303523999985,35.026355067999987],[32.395292161999976,35.026382622000028],[32.395268980000026,35.02643883799999],[32.395274228000005,35.02647508199999],[32.395283819999975,35.026541318999989],[32.395287586999984,35.026567337000017],[32.395230366000021,35.026601110000001],[32.39519046800001,35.026624661000028],[32.395123000000012,35.026631543000008],[32.394968874000028,35.026647265000008],[32.394860391999998,35.026658331000021],[32.394829049000009,35.026661525999998],[32.394760641000005,35.026700650999999],[32.394690834000016,35.026740572999984],[32.394638142000019,35.026822637999999],[32.394554938999988,35.026952224000013],[32.394510389999994,35.027021606000005],[32.394359387000009,35.026859059000003],[32.394276708000007,35.026693387000023],[32.394272659000023,35.026508134999972],[32.394084258000021,35.02618550599999],[32.393961428000011,35.025838645000022],[32.393933071999982,35.025758569999994],[32.393853890999992,35.02553496500002],[32.393803260000027,35.025317291000022],[32.39377430899998,35.025246271000015],[32.393648643000006,35.024936305999972],[32.393863297999985,35.024724803000026],[32.393874837999988,35.024555037000027],[32.393777640999986,35.024468778000028],[32.393771612000023,35.024291076999987],[32.393592861000002,35.024195614999996],[32.393485859999998,35.024040018999983],[32.39344398999998,35.023805901999992],[32.393351891000009,35.023728937999977],[32.393303988000014,35.023683915999982],[32.393211391000023,35.023597284999994],[32.393148897999993,35.023515061000012],[32.39301466400002,35.023388109999985],[32.392854236000005,35.023347574000013],[32.392721629999983,35.023351521999984],[32.392621928999972,35.023354504999986],[32.392601683999999,35.023340264000012],[32.392585483000005,35.023329015999991],[32.392528081000023,35.023289166999973],[32.392378244999975,35.023234460000026],[32.392333203000021,35.023186685999974],[32.392226742999981,35.023042040000007],[32.392154995999988,35.022944558999995],[32.392040989000009,35.02290190399998],[32.391940067999997,35.022864145000028],[32.391875680999988,35.022682576000022],[32.391973834999988,35.022400424000011],[32.391892609000024,35.022184704999972],[32.391477402000021,35.021818940999992],[32.391334375999975,35.021669427000006],[32.391300030000025,35.021600997999997],[32.391272833000016,35.021546811000007],[32.391256708000014,35.021131437000008],[32.391188938000028,35.020941674000028],[32.391089330999989,35.020803150000006],[32.390749927000002,35.021140978000005],[32.390692305000016,35.021198320999986],[32.390566239000009,35.021317076999992],[32.390293282000016,35.021545580999998],[32.390201316999992,35.021534363000001],[32.390136453000025,35.021526451],[32.389977041000009,35.021448050999993],[32.389675031000024,35.021398175000002],[32.389607338000019,35.021822063999991],[32.389605057999972,35.021882398999992],[32.389598897999974,35.022241323000003],[32.389093740000021,35.022410105999995],[32.389309033000018,35.022635288999993],[32.389485239999999,35.022823424000023],[32.389489745999981,35.022828240000024],[32.389518769000006,35.022863701999995],[32.389596525000002,35.022976761999985],[32.389668068999981,35.02307663900001],[32.389419916999998,35.023235317000001],[32.389396751999982,35.023237197000014],[32.389241554000023,35.023154728999998],[32.389129677000028,35.023052592999989],[32.388968477999981,35.022987537999995],[32.388701201999993,35.022905019999996],[32.388592039000002,35.022862561000011],[32.38843480700001,35.022744815999999],[32.388301289000026,35.022618910000006],[32.387770675000013,35.02225411500001],[32.387603764000005,35.022247289000006],[32.385964349000005,35.020965267999998],[32.385811782000019,35.020845957000006],[32.385353241000018,35.020487365000008],[32.385094535000007,35.020543667000027],[32.38504807999999,35.020177008000019],[32.384940174999997,35.019875085000024],[32.384320514000024,35.020115926000017],[32.383648042999994,35.020216216999984],[32.383170491999977,35.020680142999993],[32.382634322999991,35.020362444999989],[32.382407398999987,35.020441174999974],[32.381311137000012,35.019984578999981],[32.381216461999998,35.020003277000001]]]},"properties":{"objectid":1022840,"site_id":344560,"site_pid":"344560","site_type":"PA","name_eng":"Faraggia - Kranassi & Ampelatzia / Petratis","name":"Faraggia - Kranassi & Ampelatzia / Petratis","desig":"Προστατευόμενα Τοπία","desig_eng":"Protected Landscape","desig_type":"National","iucn_cat":"III","int_crit":"Not Applicable","realm":"Terrestrial","rep_m_area":0,"gis_m_area":0,"rep_area":3.6158602900000001,"gis_area":3.6158604000000003,"no_take":"Not Applicable","no_tk_area":0,"status":"Designated","status_yr":1990,"gov_type":"Federal or national ministry or agency","verif":"State Verified","inlnd_wtrs":"Not Reported","own_type":"Not Reported","mang_auth":"Department of Town Planning and Housing","mang_plan":"Not Reported","cons_obj":"Not Applicable","supp_info":"Not Applicable","metadataid":2013,"prnt_iso3":"CYP","iso3":"CYP","govsubtype":"Not Applicable","ownsubtype":"Not Applicable","oecm_asmt":"Not Applicable","Shape__Area":0.00035708434143132248,"Shape__Length":0.18184484315335045}}]}