{"type":"FeatureCollection","features":[{"type":"Feature","id":1022835,"geometry":{"type":"Polygon","coordinates":[[[32.647336799000016,34.658138597999994],[32.647450854999988,34.674489157999972],[32.647087107000004,34.677593044999981],[32.645012345999987,34.680123408999975],[32.644307538000021,34.682943186999978],[32.643947490000016,34.685482397999976],[32.646320090000017,34.689729714999999],[32.646989065000014,34.692274167999983],[32.646284127000001,34.695093951999979],[32.644553845000019,34.697343817999979],[32.642484221000018,34.699027179999973],[32.639051848999998,34.69929178000001],[32.634941062999985,34.698423376999983],[32.629460181000013,34.697265231000017],[32.621925212000008,34.695531302999996],[32.610627395999984,34.692364838999993],[32.603785357999982,34.689786484000024],[32.596602862999987,34.686923517000025],[32.590921744000013,34.682394061000025],[32.591209357000025,34.682282054999973],[32.591779491000011,34.682049640000002],[32.592274034000013,34.681609961999982],[32.592459581000014,34.681421426999975],[32.592773695999995,34.681153530000017],[32.593108732000019,34.680822498999987],[32.593382114000008,34.68050794200002],[32.593593122000016,34.68035753700002],[32.593680356999982,34.680337000999998],[32.59394727199998,34.680258639999977],[32.59448101800001,34.680118685000025],[32.594748535999997,34.679934835999973],[32.595175268999981,34.679680379999979],[32.595283067000025,34.679651525999986],[32.595621133999998,34.679674827999975],[32.595734040000025,34.679650228000014],[32.595831658000009,34.679604480000023],[32.595980929000007,34.679487406000021],[32.596212404000028,34.679328590000011],[32.596372229999986,34.679169355999989],[32.596629977000021,34.678901171000007],[32.596867201999999,34.678632739000022],[32.596949678999977,34.678553130000012],[32.597212484000011,34.678280723],[32.59735174399998,34.67812980399998],[32.597480985999994,34.677928182000016],[32.597810777000007,34.677613980999979],[32.598140435000005,34.677308254000025],[32.598331089999988,34.677119635999986],[32.598666106999985,34.676784441999985],[32.599094048999973,34.676310617000013],[32.599315936999972,34.67604636599998],[32.599527765000005,34.675739797000006],[32.599661734999984,34.675601480000012],[32.599764474999972,34.675555745999986],[32.599841421000008,34.67553940900001],[32.600271914000018,34.675525314000026],[32.600692213000002,34.675515421999989],[32.601009765000015,34.675534313000014],[32.601127733999988,34.675522436999984],[32.601476350999974,34.675482465000016],[32.601758613000015,34.675408372999982],[32.601933358999986,34.67532518500002],[32.602138978000028,34.675204231000009],[32.602503698000021,34.67503366599999],[32.602724937999994,34.674883188000024],[32.603018354000028,34.674640531000023],[32.603260374000001,34.674435394],[32.603379215000018,34.674258975999976],[32.603559710000013,34.674045073000002],[32.603786766999974,34.673768208000013],[32.603869162000024,34.673684356000024],[32.604049072999999,34.673592707000012],[32.604526717999988,34.673389143000009],[32.604803821000019,34.673319266000021],[32.604994069999975,34.673210788000006],[32.605292412999972,34.672989149999978],[32.605493242000023,34.672813356000006],[32.605838512999981,34.672469700000022],[32.60608616899998,34.672154939999984],[32.606354572999976,34.67181085499999],[32.606612405000021,34.671513075999997],[32.606803475999982,34.671248531000003],[32.606953343999976,34.671017574000018],[32.607087154999988,34.670908730999997],[32.607282525000016,34.670800357000019],[32.607816716000002,34.670567570000003],[32.608037842999977,34.670417171999986],[32.608423379999977,34.670196076000025],[32.608706928999993,34.66988160599999],[32.609021068000004,34.669588331],[32.609272911000005,34.669450743000027],[32.609544828000026,34.669389222999996],[32.60989327599998,34.669378798000025],[32.610073170000021,34.669287230000009],[32.610530879000009,34.668969616000027],[32.610859865000009,34.66879034599998],[32.611101779000023,34.668580953999992],[32.611348524999983,34.668434960000013],[32.611487742999998,34.668284024999991],[32.611714086000006,34.668112539999981],[32.611811848999992,34.668049828999983],[32.612156246999973,34.667845360000001],[32.612361635000013,34.667766582000013],[32.612771850999991,34.667710182999997],[32.613105502999986,34.667589975999988],[32.613306222999995,34.667430939999974],[32.613624033000008,34.667407694000019],[32.615074259999972,34.667357825000011],[32.615463544000022,34.667389888000002],[32.615867782999999,34.667476814999986],[32.616123948999984,34.667491056000017],[32.616323938999983,34.667450121000002],[32.616539084999999,34.667459995000002],[32.616769923999982,34.667423483999983],[32.617149892999976,34.667269782000005],[32.617457538999986,34.667225398000028],[32.617801364000002,34.667122161000009],[32.618140573999995,34.666926042999989],[32.618895265999981,34.666660899000021],[32.619777719000012,34.666442942000003],[32.620239304999984,34.666348809999988],[32.620772231999979,34.666339559999983],[32.621566422000001,34.666331930000013],[32.621868624000001,34.666354866000006],[32.62221138000001,34.666445639000017],[32.622462643000006,34.66640927100002],[32.622724376000008,34.666326502999993],[32.623201782000024,34.66615658500001],[32.623514982000017,34.666036286000008],[32.623782333999998,34.665864994999993],[32.624096060999989,34.66564768500001],[32.624512691999996,34.665342424000016],[32.624774571999978,34.665225931999998],[32.625113961000011,34.665004549999992],[32.625355391000028,34.66489223100001],[32.625622247000024,34.664809472000002],[32.625986779000016,34.664659932999996],[32.626207782999984,34.664526362000004],[32.626433744999986,34.664430763999974],[32.626701142000002,34.66424684399999],[32.626784081999972,34.664074441000025],[32.627102272000002,34.663962622999975],[32.627444778999973,34.664108107999994],[32.627402743999994,34.664310299000022],[32.627387223000028,34.664339734000009],[32.62783609600001,34.664709500000015],[32.628152806999992,34.664888623000024],[32.628613232000021,34.665030677000004],[32.628811767999991,34.665272370000025],[32.629005813999981,34.665391612000008],[32.629169337999997,34.66547280399999],[32.629286974000024,34.665511478999974],[32.629819838999992,34.66551481099998],[32.630301816999975,34.665446128999974],[32.630814852000015,34.665314335999994],[32.631332827999984,34.665224751999972],[32.631711852000024,34.665235543999984],[32.632260254000016,34.665205282999977],[32.632988851999983,34.665007322999998],[32.633410613000024,34.664693661000001],[32.633677809999995,34.664551830999983],[32.633924579999984,34.664388931000019],[32.634171404000028,34.664213318000009],[32.634305203999986,34.66409606000002],[32.634341462000009,34.66403720400001],[32.634629673999996,34.663781742000026],[32.634789361999992,34.663609742999995],[32.634938879999993,34.663437804000012],[32.635010697999974,34.663417101999983],[32.635199505000003,34.663561743000002],[32.635424407000016,34.663664297000025],[32.635716252999998,34.663708355999972],[32.635900670000012,34.663705210999979],[32.636136711999995,34.663647672000025],[32.636280382999985,34.663597881999976],[32.636511460999998,34.663502370000003],[32.636752983000008,34.663364693000005],[32.637133098999982,34.663164586999983],[32.637431079999999,34.663018781999995],[32.637626155000021,34.66294407800001],[32.637841933000004,34.662827330000027],[32.638150520000011,34.662601402999996],[32.638597898,34.662287890000016],[32.638844889999973,34.662070072999995],[32.639086913000028,34.661835380000014],[32.639303268999981,34.661604758999999],[32.639514184000006,34.661445798999978],[32.639647808999996,34.661366493000003],[32.63981746799999,34.661257809000006],[32.640089918000001,34.661082350000015],[32.640203059999976,34.660994506999998],[32.64078884700001,34.660656420000009],[32.641163918000018,34.660452137999982],[32.641353910000021,34.660364700999992],[32.641503064999995,34.660251717999984],[32.641616223000028,34.660159636000003],[32.641780802000028,34.660038311999983],[32.641909202000022,34.659980086000019],[32.642248162999977,34.659821856999997],[32.642684799999984,34.659592597000028],[32.642916004000028,34.659463263000021],[32.643388543000015,34.65923419500001],[32.643850676,34.659017719000019],[32.644199547000028,34.658918568999979],[32.644440663000012,34.658869503999995],[32.644609735000017,34.65885358700001],[32.645004732000018,34.658763224999973],[32.645881904000021,34.65854506300002],[32.646451474000003,34.658371444000011],[32.647046492000015,34.658223231000022],[32.647251645999972,34.65818649800002],[32.647297863000006,34.658153002000006],[32.647336799000016,34.658138597999994]]]},"properties":{"objectid":1022835,"site_id":344555,"site_pid":"344555","site_type":"PA","name_eng":"Dasos Orites","name":"Dasos Orites","desig":"Ακτές και Περιοχές Προστασίας της Φύσης","desig_eng":"Coasts and Areas for Nature Protection","desig_type":"National","iucn_cat":"IV","int_crit":"Not Applicable","realm":"Terrestrial","rep_m_area":0,"gis_m_area":0.030437769999999999,"rep_area":14.196450200000001,"gis_area":14.19645064,"no_take":"Not Applicable","no_tk_area":0,"status":"Designated","status_yr":1990,"gov_type":"Federal or national ministry or agency","verif":"State Verified","inlnd_wtrs":"Not Reported","own_type":"Not Reported","mang_auth":"Department of Town Planning and Housing","mang_plan":"Not Reported","cons_obj":"Not Applicable","supp_info":"Not Applicable","metadataid":2013,"prnt_iso3":"CYP","iso3":"CYP","govsubtype":"Not Applicable","ownsubtype":"Not Applicable","oecm_asmt":"Not Applicable","Shape__Area":0.0013964274943454845,"Shape__Length":0.16485742417550736}}]}