{
  "type": "FeatureCollection",
  "generator": "overpass-turbo",
  "copyright": "The data included in this document is from www.openstreetmap.org. The data is made available under ODbL.",
  "timestamp": "2026-09-02T21:11:36Z",
  "features": [
    {
      "type": "Feature",
      "properties": {
        "@id": "way/1008022132",
        "leisure": "park"
      },
      "geometry": {
        "type": "Polygon",
        "coordinates": [
          [
            [
              32.9936266,
              34.7042136
            ],
            [
              32.9936171,
              34.7042906
            ],
            [
              32.9935862,
              34.7043479
            ],
            [
              32.9935433,
              34.7044052
            ],
            [
              32.9934803,
              34.7044945
            ],
            [
              32.993436,
              34.7045386
            ],
            [
              32.9933019,
              34.7046368
            ],
            [
              32.9932201,
              34.7046753
            ],
            [
              32.9931892,
              34.7046764
            ],
            [
              32.9931356,
              34.7047183
            ],
            [
              32.9925911,
              34.705123
            ],
            [
              32.9920895,
              34.704704
            ],
            [
              32.9921204,
              34.7044328
            ],
            [
              32.9921472,
              34.7044063
            ],
            [
              32.992575,
              34.7043589
            ],
            [
              32.9926608,
              34.7043468
            ],
            [
              32.9926426,
              34.7043018
            ],
            [
              32.9936266,
              34.7042136
            ]
          ]
        ]
      },
      "id": "way/1008022132"
    }
  ]
}