{
  "type": "FeatureCollection",
  "generator": "overpass-turbo",
  "copyright": "The data included in this document is from www.openstreetmap.org. The data is made available under ODbL.",
  "timestamp": "2026-08-26T22:14:20Z",
  "features": [
    {
      "type": "Feature",
      "properties": {
        "@id": "relation/17902451",
        "addr:city": "Anaguia",
        "addr:postcode": "2640",
        "leisure": "park",
        "name": "Community Park Andreas Christou",
        "type": "multipolygon"
      },
      "geometry": {
        "type": "Polygon",
        "coordinates": [
          [
            [
              33.2535433,
              35.0728892
            ],
            [
              33.2534533,
              35.0729199
            ],
            [
              33.2533948,
              35.072805
            ],
            [
              33.2534598,
              35.0727795
            ],
            [
              33.2534999,
              35.0727461
            ],
            [
              33.2535548,
              35.072698
            ],
            [
              33.2537022,
              35.0726777
            ],
            [
              33.2539903,
              35.0726146
            ],
            [
              33.2541124,
              35.0725902
            ],
            [
              33.2542429,
              35.0725274
            ],
            [
              33.2543087,
              35.0724989
            ],
            [
              33.2543124,
              35.0724973
            ],
            [
              33.2544396,
              35.0724676
            ],
            [
              33.2544876,
              35.0725906
            ],
            [
              33.2542994,
              35.0726443
            ],
            [
              33.2543102,
              35.0727162
            ],
            [
              33.2543401,
              35.0728466
            ],
            [
              33.2542914,
              35.0728621
            ],
            [
              33.2542276,
              35.0727352
            ],
            [
              33.2542097,
              35.0726711
            ],
            [
              33.2540363,
              35.0727327
            ],
            [
              33.2539025,
              35.0727814
            ],
            [
              33.2538292,
              35.072808
            ],
            [
              33.2537362,
              35.0728374
            ],
            [
              33.2535433,
              35.0728892
            ]
          ]
        ]
      },
      "id": "relation/17902451"
    }
  ]
}