{
  "type": "Feature",
  "properties": {},
  "geometry": {
    "type": "LineString",
    "coordinates": [
      [
        32.930110000000006,
        34.92016
      ],
      [
        32.92998,
        34.92022
      ],
      [
        32.92987,
        34.92022
      ],
      [
        32.92973,
        34.920260000000006
      ],
      [
        32.9296,
        34.92022
      ],
      [
        32.92945,
        34.920120000000004
      ],
      [
        32.929410000000004,
        34.92005
      ],
      [
        32.92922,
        34.91993
      ],
      [
        32.928960000000004,
        34.9198
      ],
      [
        32.92846,
        34.91962
      ],
      [
        32.928490000000004,
        34.91957
      ],
      [
        32.928580000000004,
        34.91951
      ],
      [
        32.92869,
        34.919360000000005
      ],
      [
        32.928720000000006,
        34.919250000000005
      ],
      [
        32.92897,
        34.919000000000004
      ],
      [
        32.92902,
        34.918850000000006
      ],
      [
        32.92898,
        34.91879
      ],
      [
        32.928900000000006,
        34.91874
      ],
      [
        32.92851,
        34.91865
      ],
      [
        32.92817,
        34.9185
      ],
      [
        32.92804,
        34.918400000000005
      ],
      [
        32.92784,
        34.91819
      ],
      [
        32.92768,
        34.918150000000004
      ],
      [
        32.92738,
        34.918000000000006
      ],
      [
        32.927220000000005,
        34.91785
      ],
      [
        32.9271,
        34.91765
      ],
      [
        32.927040000000005,
        34.91745
      ],
      [
        32.92701,
        34.917280000000005
      ],
      [
        32.927040000000005,
        34.917170000000006
      ],
      [
        32.92701,
        34.91709
      ],
      [
        32.92665,
        34.91698
      ],
      [
        32.926520000000004,
        34.916900000000005
      ],
      [
        32.926390000000005,
        34.916850000000004
      ],
      [
        32.92613,
        34.91702
      ],
      [
        32.926170000000006,
        34.91695
      ],
      [
        32.926280000000006,
        34.916850000000004
      ],
      [
        32.92627,
        34.916790000000006
      ],
      [
        32.92613,
        34.91673
      ],
      [
        32.925990000000006,
        34.91659
      ],
      [
        32.92596,
        34.916230000000006
      ],
      [
        32.925990000000006,
        34.91612
      ],
      [
        32.92573,
        34.915960000000005
      ],
      [
        32.925700000000006,
        34.9159
      ],
      [
        32.925760000000004,
        34.915820000000004
      ],
      [
        32.925830000000005,
        34.91584
      ],
      [
        32.926120000000004,
        34.915820000000004
      ],
      [
        32.926370000000006,
        34.915850000000006
      ],
      [
        32.926570000000005,
        34.91593
      ],
      [
        32.92665,
        34.916030000000006
      ],
      [
        32.92667,
        34.91612
      ],
      [
        32.92665,
        34.916230000000006
      ],
      [
        32.926700000000004,
        34.91631
      ],
      [
        32.92682,
        34.9163
      ],
      [
        32.927150000000005,
        34.916380000000004
      ],
      [
        32.92732,
        34.91639
      ],
      [
        32.927310000000006,
        34.91639
      ],
      [
        32.927530000000004,
        34.916500000000006
      ],
      [
        32.92774,
        34.91669
      ],
      [
        32.9279,
        34.91678
      ],
      [
        32.92804,
        34.91693
      ],
      [
        32.928160000000005,
        34.917010000000005
      ],
      [
        32.928630000000005,
        34.917210000000004
      ],
      [
        32.92902,
        34.91725
      ],
      [
        32.929320000000004,
        34.91734
      ],
      [
        32.92942,
        34.917480000000005
      ],
      [
        32.92956,
        34.91761
      ],
      [
        32.92972,
        34.9176
      ],
      [
        32.93003,
        34.91745
      ],
      [
        32.93037,
        34.91709
      ],
      [
        32.93079,
        34.91677
      ],
      [
        32.93132,
        34.916520000000006
      ],
      [
        32.931070000000005,
        34.916630000000005
      ],
      [
        32.93132,
        34.916520000000006
      ],
      [
        32.93121,
        34.916320000000006
      ],
      [
        32.93119,
        34.91615
      ],
      [
        32.931250000000006,
        34.91606
      ],
      [
        32.93161,
        34.91588
      ],
      [
        32.931740000000005,
        34.915560000000006
      ],
      [
        32.93204,
        34.91534
      ],
      [
        32.93215,
        34.914950000000005
      ],
      [
        32.93213,
        34.914930000000005
      ],
      [
        32.932120000000005,
        34.91492
      ],
      [
        32.93191,
        34.91471
      ],
      [
        32.9318,
        34.91443
      ],
      [
        32.931830000000005,
        34.91422
      ],
      [
        32.932320000000004,
        34.914010000000005
      ],
      [
        32.93285,
        34.914010000000005
      ],
      [
        32.933,
        34.91395
      ],
      [
        32.93305,
        34.913830000000004
      ],
      [
        32.933040000000005,
        34.9136
      ],
      [
        32.9335,
        34.913920000000005
      ],
      [
        32.934160000000006,
        34.914010000000005
      ],
      [
        32.934250000000006,
        34.914060000000006
      ],
      [
        32.93428,
        34.91415
      ],
      [
        32.93424,
        34.914260000000006
      ],
      [
        32.93366,
        34.91447
      ],
      [
        32.93361,
        34.91461
      ],
      [
        32.93361,
        34.91476
      ],
      [
        32.93372,
        34.91499
      ],
      [
        32.93385,
        34.91541
      ],
      [
        32.93377,
        34.91601
      ],
      [
        32.9337,
        34.91615
      ],
      [
        32.93352,
        34.916410000000006
      ],
      [
        32.93348,
        34.91651
      ],
      [
        32.93356,
        34.916720000000005
      ],
      [
        32.933600000000006,
        34.916970000000006
      ],
      [
        32.933710000000005,
        34.91713
      ],
      [
        32.9339,
        34.91722
      ],
      [
        32.93399,
        34.917190000000005
      ],
      [
        32.93397,
        34.917030000000004
      ],
      [
        32.93392,
        34.916850000000004
      ],
      [
        32.93397,
        34.916720000000005
      ],
      [
        32.934110000000004,
        34.916650000000004
      ],
      [
        32.934290000000004,
        34.91662
      ],
      [
        32.934490000000004,
        34.91664
      ],
      [
        32.934670000000004,
        34.916700000000006
      ],
      [
        32.9348,
        34.916810000000005
      ],
      [
        32.934830000000005,
        34.916940000000004
      ],
      [
        32.934830000000005,
        34.917320000000004
      ],
      [
        32.934720000000006,
        34.91776
      ],
      [
        32.93461,
        34.91801
      ],
      [
        32.934470000000005,
        34.91823
      ],
      [
        32.934360000000005,
        34.918510000000005
      ],
      [
        32.9343,
        34.918980000000005
      ],
      [
        32.93406,
        34.91948
      ],
      [
        32.93366,
        34.919830000000005
      ],
      [
        32.9335,
        34.919920000000005
      ],
      [
        32.93307,
        34.92016
      ],
      [
        32.93276,
        34.920300000000005
      ],
      [
        32.932480000000005,
        34.92034
      ],
      [
        32.93209,
        34.920320000000004
      ],
      [
        32.931810000000006,
        34.92027
      ],
      [
        32.93117,
        34.92004
      ],
      [
        32.930820000000004,
        34.920100000000005
      ],
      [
        32.930600000000005,
        34.92016
      ],
      [
        32.930110000000006,
        34.92016
      ]
    ]
  }
}