{
  "type": "Feature",
  "properties": {},
  "geometry": {
    "type": "LineString",
    "coordinates": [
      [
        32.887150000000005,
        34.931740000000005
      ],
      [
        32.887100000000004,
        34.931830000000005
      ],
      [
        32.88723,
        34.93244
      ],
      [
        32.88723,
        34.93245
      ],
      [
        32.886990000000004,
        34.93282
      ],
      [
        32.886660000000006,
        34.933150000000005
      ],
      [
        32.886,
        34.933490000000006
      ],
      [
        32.88561,
        34.9339
      ],
      [
        32.88535,
        34.9341
      ],
      [
        32.884730000000005,
        34.934360000000005
      ],
      [
        32.884100000000004,
        34.93441
      ],
      [
        32.88375,
        34.934520000000006
      ],
      [
        32.88364,
        34.93462
      ],
      [
        32.883660000000006,
        34.934940000000005
      ],
      [
        32.883770000000005,
        34.93517
      ],
      [
        32.88383,
        34.935500000000005
      ],
      [
        32.88378,
        34.935810000000004
      ],
      [
        32.88362,
        34.936130000000006
      ],
      [
        32.88373,
        34.93619
      ],
      [
        32.88378,
        34.936400000000006
      ],
      [
        32.883680000000005,
        34.93652
      ],
      [
        32.883520000000004,
        34.93663
      ],
      [
        32.88324,
        34.93674
      ],
      [
        32.883160000000004,
        34.93686
      ],
      [
        32.88311,
        34.93728
      ],
      [
        32.883120000000005,
        34.937340000000006
      ],
      [
        32.882870000000004,
        34.937720000000006
      ],
      [
        32.882780000000004,
        34.93793
      ],
      [
        32.882740000000005,
        34.93833
      ],
      [
        32.882690000000004,
        34.938460000000006
      ],
      [
        32.882540000000006,
        34.938660000000006
      ],
      [
        32.88232,
        34.93887
      ],
      [
        32.88232,
        34.93903
      ],
      [
        32.88217,
        34.93932
      ],
      [
        32.881910000000005,
        34.93948
      ],
      [
        32.88172,
        34.93957
      ],
      [
        32.88159,
        34.93967
      ],
      [
        32.88111,
        34.939840000000004
      ],
      [
        32.88083,
        34.940020000000004
      ],
      [
        32.880810000000004,
        34.940090000000005
      ],
      [
        32.88067,
        34.940180000000005
      ],
      [
        32.88058,
        34.940290000000005
      ],
      [
        32.88056,
        34.9405
      ],
      [
        32.880500000000005,
        34.940560000000005
      ],
      [
        32.88049,
        34.94059
      ],
      [
        32.880480000000006,
        34.940920000000006
      ],
      [
        32.880410000000005,
        34.94104
      ],
      [
        32.880430000000004,
        34.941190000000006
      ],
      [
        32.8804,
        34.941320000000005
      ],
      [
        32.880320000000005,
        34.94149
      ],
      [
        32.880300000000005,
        34.9416
      ],
      [
        32.880230000000005,
        34.94174
      ],
      [
        32.880160000000004,
        34.94198
      ],
      [
        32.880100000000006,
        34.9421
      ],
      [
        32.88007,
        34.942260000000005
      ],
      [
        32.88009,
        34.942350000000005
      ],
      [
        32.880230000000005,
        34.942170000000004
      ],
      [
        32.880320000000005,
        34.94214
      ],
      [
        32.88029,
        34.94241
      ],
      [
        32.880210000000005,
        34.94265
      ],
      [
        32.88022,
        34.94281
      ],
      [
        32.88027,
        34.943000000000005
      ],
      [
        32.88042,
        34.94339
      ],
      [
        32.8804,
        34.943630000000006
      ],
      [
        32.88042,
        34.94384
      ],
      [
        32.880410000000005,
        34.94406
      ],
      [
        32.880160000000004,
        34.9444
      ],
      [
        32.88013,
        34.94458
      ],
      [
        32.88008,
        34.94464
      ],
      [
        32.88,
        34.94516
      ],
      [
        32.88008,
        34.94539
      ],
      [
        32.88013,
        34.94545
      ],
      [
        32.88015,
        34.94552
      ],
      [
        32.880300000000005,
        34.94565
      ],
      [
        32.88033,
        34.94586
      ],
      [
        32.88047,
        34.946000000000005
      ],
      [
        32.880500000000005,
        34.946070000000006
      ],
      [
        32.88065,
        34.946200000000005
      ],
      [
        32.880680000000005,
        34.946270000000005
      ],
      [
        32.8808,
        34.94641
      ],
      [
        32.88093,
        34.946600000000004
      ],
      [
        32.88105,
        34.946650000000005
      ],
      [
        32.88141,
        34.94695
      ],
      [
        32.88159,
        34.947050000000004
      ],
      [
        32.881710000000005,
        34.94715
      ],
      [
        32.88176,
        34.947210000000005
      ],
      [
        32.88179,
        34.94731
      ],
      [
        32.881840000000004,
        34.94737
      ],
      [
        32.881890000000006,
        34.94747
      ],
      [
        32.88201,
        34.947570000000006
      ],
      [
        32.8821,
        34.947810000000004
      ],
      [
        32.882130000000004,
        34.94803
      ],
      [
        32.88219,
        34.94807
      ],
      [
        32.88223,
        34.94821
      ],
      [
        32.88228,
        34.94827
      ],
      [
        32.88228,
        34.94852
      ],
      [
        32.882250000000006,
        34.94863
      ],
      [
        32.8823,
        34.94877
      ],
      [
        32.882270000000005,
        34.948930000000004
      ],
      [
        32.88221,
        34.949020000000004
      ],
      [
        32.88221,
        34.949090000000005
      ],
      [
        32.88223,
        34.949160000000006
      ],
      [
        32.88228,
        34.94923
      ],
      [
        32.88235,
        34.94928
      ],
      [
        32.88252,
        34.949360000000006
      ],
      [
        32.882490000000004,
        34.949400000000004
      ],
      [
        32.882250000000006,
        34.94941
      ],
      [
        32.88233,
        34.9495
      ],
      [
        32.882540000000006,
        34.94962
      ],
      [
        32.882650000000005,
        34.949560000000005
      ],
      [
        32.883160000000004,
        34.94971
      ],
      [
        32.883570000000006,
        34.9498
      ],
      [
        32.88374,
        34.94999
      ],
      [
        32.88376,
        34.95006
      ],
      [
        32.88391,
        34.95024
      ],
      [
        32.88394,
        34.95031
      ],
      [
        32.88407,
        34.95049
      ],
      [
        32.884170000000005,
        34.9506
      ],
      [
        32.884150000000005,
        34.950680000000006
      ],
      [
        32.884350000000005,
        34.95083
      ],
      [
        32.884350000000005,
        34.950990000000004
      ],
      [
        32.88439,
        34.95118
      ],
      [
        32.884350000000005,
        34.951600000000006
      ],
      [
        32.884440000000005,
        34.95176
      ],
      [
        32.88458,
        34.95186
      ],
      [
        32.884640000000005,
        34.951950000000004
      ],
      [
        32.88503,
        34.95224
      ],
      [
        32.88512,
        34.95244
      ],
      [
        32.88512,
        34.953010000000006
      ],
      [
        32.88515,
        34.953120000000006
      ],
      [
        32.88523,
        34.9532
      ],
      [
        32.88541,
        34.953300000000006
      ],
      [
        32.885490000000004,
        34.953390000000006
      ],
      [
        32.88571,
        34.95351
      ],
      [
        32.88581,
        34.95362
      ],
      [
        32.88582,
        34.953950000000006
      ],
      [
        32.88597,
        34.95416
      ],
      [
        32.886,
        34.95441
      ],
      [
        32.88606,
        34.954510000000006
      ],
      [
        32.88609,
        34.95472
      ],
      [
        32.88615,
        34.954820000000005
      ],
      [
        32.88618,
        34.95496
      ],
      [
        32.886230000000005,
        34.95501
      ],
      [
        32.886250000000004,
        34.95516
      ],
      [
        32.886300000000006,
        34.955220000000004
      ],
      [
        32.88644,
        34.95552
      ],
      [
        32.88649,
        34.95557
      ],
      [
        32.88651,
        34.95579
      ],
      [
        32.88658,
        34.95588
      ],
      [
        32.886590000000005,
        34.95613
      ],
      [
        32.886500000000005,
        34.95629
      ],
      [
        32.88651,
        34.9564
      ],
      [
        32.88682,
        34.95674
      ],
      [
        32.886900000000004,
        34.95687
      ],
      [
        32.88692,
        34.956970000000005
      ],
      [
        32.88694,
        34.957550000000005
      ],
      [
        32.88692,
        34.95776
      ],
      [
        32.88689,
        34.95787
      ],
      [
        32.886900000000004,
        34.95797
      ],
      [
        32.88678,
        34.95812
      ],
      [
        32.88645,
        34.95821
      ],
      [
        32.8864,
        34.958270000000006
      ],
      [
        32.886070000000004,
        34.95837
      ],
      [
        32.88584,
        34.95853
      ],
      [
        32.88581,
        34.958600000000004
      ],
      [
        32.885690000000004,
        34.958740000000006
      ],
      [
        32.88561,
        34.95877
      ],
      [
        32.885130000000004,
        34.95879
      ],
      [
        32.88497,
        34.958740000000006
      ],
      [
        32.88481,
        34.95862
      ],
      [
        32.88456,
        34.958540000000006
      ],
      [
        32.884420000000006,
        34.95846
      ],
      [
        32.88407,
        34.958360000000006
      ],
      [
        32.88376,
        34.958330000000004
      ],
      [
        32.88356,
        34.958270000000006
      ],
      [
        32.88336,
        34.95825
      ],
      [
        32.88315,
        34.958200000000005
      ],
      [
        32.882540000000006,
        34.95817
      ],
      [
        32.88235,
        34.958200000000005
      ],
      [
        32.88224,
        34.95826
      ],
      [
        32.882130000000004,
        34.95841
      ],
      [
        32.88187,
        34.95848
      ],
      [
        32.881730000000005,
        34.95857
      ],
      [
        32.88161,
        34.95861
      ],
      [
        32.88149,
        34.95875
      ],
      [
        32.88145,
        34.958920000000006
      ],
      [
        32.88132,
        34.95913
      ],
      [
        32.88127,
        34.95918
      ],
      [
        32.881240000000005,
        34.959250000000004
      ],
      [
        32.881170000000004,
        34.959300000000006
      ],
      [
        32.881150000000005,
        34.959360000000004
      ],
      [
        32.8811,
        34.95942
      ],
      [
        32.88111,
        34.959450000000004
      ],
      [
        32.88123,
        34.95955
      ],
      [
        32.88134,
        34.95971
      ],
      [
        32.88136,
        34.95978
      ],
      [
        32.88158,
        34.95996
      ],
      [
        32.88161,
        34.96002
      ],
      [
        32.88167,
        34.96007
      ],
      [
        32.8817,
        34.96022
      ],
      [
        32.881840000000004,
        34.960350000000005
      ],
      [
        32.88187,
        34.96041
      ],
      [
        32.8821,
        34.960530000000006
      ],
      [
        32.882160000000006,
        34.96058
      ],
      [
        32.88224,
        34.9606
      ],
      [
        32.88253,
        34.960820000000005
      ],
      [
        32.882580000000004,
        34.96088
      ],
      [
        32.88291,
        34.961090000000006
      ],
      [
        32.88288,
        34.96108
      ],
      [
        32.88295,
        34.96112
      ],
      [
        32.883190000000006,
        34.96114
      ],
      [
        32.883250000000004,
        34.96123
      ],
      [
        32.88338,
        34.96132
      ],
      [
        32.8834,
        34.961360000000006
      ],
      [
        32.8834,
        34.96146
      ],
      [
        32.883340000000004,
        34.961510000000004
      ],
      [
        32.883320000000005,
        34.96155
      ],
      [
        32.88335,
        34.961580000000005
      ],
      [
        32.88373,
        34.961760000000005
      ],
      [
        32.88375,
        34.961780000000005
      ],
      [
        32.883770000000005,
        34.961890000000004
      ],
      [
        32.88392,
        34.96201
      ],
      [
        32.88403,
        34.96213
      ],
      [
        32.88418,
        34.96226
      ],
      [
        32.8843,
        34.962300000000006
      ],
      [
        32.884370000000004,
        34.96235
      ],
      [
        32.884420000000006,
        34.9624
      ],
      [
        32.88445,
        34.96247
      ],
      [
        32.884660000000004,
        34.9626
      ],
      [
        32.8849,
        34.962700000000005
      ],
      [
        32.88496,
        34.96275
      ],
      [
        32.88526,
        34.962900000000005
      ],
      [
        32.88534,
        34.96298
      ],
      [
        32.88534,
        34.96309
      ],
      [
        32.88541,
        34.963260000000005
      ],
      [
        32.885540000000006,
        34.963350000000005
      ],
      [
        32.88559,
        34.96341
      ],
      [
        32.885630000000006,
        34.963420000000006
      ],
      [
        32.88568,
        34.963480000000004
      ],
      [
        32.88604,
        34.963680000000004
      ],
      [
        32.88638,
        34.963770000000004
      ],
      [
        32.88642,
        34.96383
      ],
      [
        32.88667,
        34.96397
      ],
      [
        32.88683,
        34.96403
      ],
      [
        32.887260000000005,
        34.9641
      ],
      [
        32.887420000000006,
        34.964150000000004
      ],
      [
        32.887420000000006,
        34.96421
      ],
      [
        32.887370000000004,
        34.964270000000006
      ],
      [
        32.887350000000005,
        34.96434
      ],
      [
        32.887280000000004,
        34.96443
      ],
      [
        32.887280000000004,
        34.96461
      ],
      [
        32.8873,
        34.96464
      ],
      [
        32.88752,
        34.964760000000005
      ],
      [
        32.88758,
        34.964850000000006
      ],
      [
        32.887550000000005,
        34.96488
      ],
      [
        32.88752,
        34.96499
      ],
      [
        32.88747,
        34.96504
      ],
      [
        32.887460000000004,
        34.96508
      ],
      [
        32.88747,
        34.96515
      ],
      [
        32.88752,
        34.965210000000006
      ],
      [
        32.887530000000005,
        34.9656
      ],
      [
        32.887550000000005,
        34.96582
      ],
      [
        32.88769,
        34.96595
      ],
      [
        32.8877,
        34.965990000000005
      ],
      [
        32.887620000000005,
        34.96611
      ],
      [
        32.88754,
        34.96609
      ],
      [
        32.88741,
        34.96611
      ],
      [
        32.88694,
        34.9662
      ],
      [
        32.886700000000005,
        34.966280000000005
      ],
      [
        32.8866,
        34.966350000000006
      ],
      [
        32.88656,
        34.966530000000006
      ],
      [
        32.88651,
        34.966590000000004
      ],
      [
        32.886480000000006,
        34.966730000000005
      ],
      [
        32.8864,
        34.96676
      ],
      [
        32.886230000000005,
        34.96678
      ],
      [
        32.88602,
        34.96683
      ],
      [
        32.88589,
        34.966800000000006
      ],
      [
        32.88575,
        34.96672
      ],
      [
        32.885380000000005,
        34.966620000000006
      ],
      [
        32.88512,
        34.966640000000005
      ],
      [
        32.88503,
        34.96663
      ],
      [
        32.884690000000006,
        34.96669
      ],
      [
        32.88456,
        34.966770000000004
      ],
      [
        32.884370000000004,
        34.96681
      ],
      [
        32.88452,
        34.967180000000006
      ],
      [
        32.884530000000005,
        34.967290000000006
      ],
      [
        32.88441,
        34.96746
      ],
      [
        32.88434,
        34.96761
      ],
      [
        32.88432,
        34.96773
      ],
      [
        32.88432,
        34.967830000000006
      ],
      [
        32.884330000000006,
        34.96784
      ],
      [
        32.8844,
        34.96793
      ],
      [
        32.884600000000006,
        34.96802
      ],
      [
        32.88559,
        34.968090000000004
      ],
      [
        32.885830000000006,
        34.96819
      ],
      [
        32.886269998382026,
        34.9685150008877
      ],
      [
        32.88671,
        34.96884
      ],
      [
        32.886880000000005,
        34.969100000000005
      ],
      [
        32.8875,
        34.9698
      ],
      [
        32.88768,
        34.96994
      ],
      [
        32.887980000000006,
        34.970090000000006
      ],
      [
        32.88806,
        34.970150000000004
      ],
      [
        32.8881,
        34.970220000000005
      ],
      [
        32.888110000000005,
        34.97023
      ],
      [
        32.888110000000005,
        34.9703
      ],
      [
        32.888090000000005,
        34.97035
      ],
      [
        32.88803,
        34.970420000000004
      ],
      [
        32.88759,
        34.970690000000005
      ],
      [
        32.88714,
        34.97106
      ],
      [
        32.88705,
        34.9711
      ],
      [
        32.88664,
        34.9712
      ],
      [
        32.88656,
        34.97126
      ],
      [
        32.88646,
        34.97138
      ],
      [
        32.88644,
        34.97146
      ],
      [
        32.88645,
        34.971880000000006
      ],
      [
        32.886430000000004,
        34.97198
      ],
      [
        32.88609,
        34.97242
      ],
      [
        32.88602,
        34.97247
      ],
      [
        32.885940000000005,
        34.972480000000004
      ],
      [
        32.885160000000006,
        34.97238
      ],
      [
        32.88497,
        34.97231
      ],
      [
        32.88483,
        34.97229
      ],
      [
        32.88400999913138,
        34.97220000275954
      ],
      [
        32.883190000000006,
        34.97211
      ],
      [
        32.88212,
        34.97209
      ],
      [
        32.881820000000005,
        34.972100000000005
      ],
      [
        32.8817,
        34.972120000000004
      ],
      [
        32.881640000000004,
        34.972170000000006
      ],
      [
        32.88159,
        34.972260000000006
      ],
      [
        32.88159,
        34.972280000000005
      ],
      [
        32.881600000000006,
        34.97236
      ],
      [
        32.881640000000004,
        34.97243
      ],
      [
        32.881710000000005,
        34.972480000000004
      ],
      [
        32.88214,
        34.972680000000004
      ],
      [
        32.882490000000004,
        34.97278
      ],
      [
        32.882954998230794,
        34.97305500076324
      ],
      [
        32.88342,
        34.973330000000004
      ],
      [
        32.88356,
        34.973490000000005
      ],
      [
        32.88365,
        34.97363
      ],
      [
        32.883770000000005,
        34.974140000000006
      ],
      [
        32.883810000000004,
        34.97424
      ],
      [
        32.88385,
        34.97429
      ],
      [
        32.884420000000006,
        34.97468
      ],
      [
        32.88454,
        34.97484
      ],
      [
        32.88486,
        34.975100000000005
      ],
      [
        32.8857,
        34.975570000000005
      ],
      [
        32.88579,
        34.97565
      ],
      [
        32.88581,
        34.9757
      ],
      [
        32.88581,
        34.97592
      ],
      [
        32.88588,
        34.97594
      ],
      [
        32.88593,
        34.975880000000004
      ],
      [
        32.885920000000006,
        34.97579
      ],
      [
        32.88586,
        34.97565
      ],
      [
        32.885940000000005,
        34.975590000000004
      ],
      [
        32.88602,
        34.975640000000006
      ],
      [
        32.886070000000004,
        34.97583
      ],
      [
        32.88606,
        34.975970000000004
      ],
      [
        32.88599,
        34.976130000000005
      ],
      [
        32.88562,
        34.976710000000004
      ],
      [
        32.88559,
        34.976910000000004
      ],
      [
        32.88566,
        34.977090000000004
      ],
      [
        32.885670000000005,
        34.977180000000004
      ],
      [
        32.88566,
        34.97726
      ],
      [
        32.885600000000004,
        34.977380000000004
      ],
      [
        32.885510000000004,
        34.97748
      ],
      [
        32.88544,
        34.97753
      ],
      [
        32.885180000000005,
        34.97764
      ],
      [
        32.88486,
        34.97782
      ],
      [
        32.884660000000004,
        34.977880000000006
      ],
      [
        32.88461,
        34.97791
      ],
      [
        32.884600000000006,
        34.97796
      ],
      [
        32.884640000000005,
        34.978010000000005
      ],
      [
        32.884710000000005,
        34.97802
      ],
      [
        32.88488,
        34.97796
      ],
      [
        32.885040000000004,
        34.977880000000006
      ],
      [
        32.88525,
        34.97786
      ],
      [
        32.885220000000004,
        34.97802
      ]
    ]
  }
}