{
  "type": "FeatureCollection",
  "generator": "overpass-turbo",
  "copyright": "The data included in this document is from www.openstreetmap.org. The data is made available under ODbL.",
  "timestamp": "2026-08-25T23:00:03Z",
  "features": [
    {
      "type": "Feature",
      "properties": {
        "@id": "way/493408631",
        "leisure": "park",
        "name:en": "Agios Dimitrios Park"
      },
      "geometry": {
        "type": "Polygon",
        "coordinates": [
          [
            [
              33.3579006,
              35.1515277
            ],
            [
              33.3577534,
              35.1515206
            ],
            [
              33.3576434,
              35.1515206
            ],
            [
              33.3575174,
              35.1515261
            ],
            [
              33.3574517,
              35.1515392
            ],
            [
              33.3573725,
              35.1515875
            ],
            [
              33.3573511,
              35.1515842
            ],
            [
              33.3572492,
              35.1515118
            ],
            [
              33.3569568,
              35.1512936
            ],
            [
              33.3568777,
              35.151304
            ],
            [
              33.356529,
              35.1516352
            ],
            [
              33.3564928,
              35.1516165
            ],
            [
              33.3564458,
              35.1516691
            ],
            [
              33.3563815,
              35.1516428
            ],
            [
              33.3562581,
              35.1520716
            ],
            [
              33.3562594,
              35.1521012
            ],
            [
              33.3563761,
              35.152394
            ],
            [
              33.3564552,
              35.1525365
            ],
            [
              33.3566101,
              35.1528175
            ],
            [
              33.3567137,
              35.1529251
            ],
            [
              33.3567553,
              35.1529602
            ],
            [
              33.3569122,
              35.1531071
            ],
            [
              33.3572367,
              35.1533428
            ],
            [
              33.3574285,
              35.1534975
            ],
            [
              33.3575586,
              35.153629
            ],
            [
              33.3576163,
              35.15364
            ],
            [
              33.3576753,
              35.1536367
            ],
            [
              33.3577263,
              35.1536181
            ],
            [
              33.357749,
              35.1535896
            ],
            [
              33.3577759,
              35.1535523
            ],
            [
              33.3577879,
              35.1535029
            ],
            [
              33.3578121,
              35.1534536
            ],
            [
              33.3583311,
              35.1533116
            ],
            [
              33.3586154,
              35.153373
            ],
            [
              33.3587549,
              35.1533996
            ],
            [
              33.3587053,
              35.1535509
            ],
            [
              33.3585296,
              35.1535915
            ],
            [
              33.3574014,
              35.1538321
            ],
            [
              33.3571133,
              35.1538936
            ],
            [
              33.3566118,
              35.1540054
            ],
            [
              33.3562928,
              35.1540739
            ],
            [
              33.3558655,
              35.1541856
            ],
            [
              33.3558259,
              35.1541699
            ],
            [
              33.3557467,
              35.1541914
            ],
            [
              33.3546867,
              35.154479
            ],
            [
              33.3545858,
              35.1545108
            ],
            [
              33.3542909,
              35.1546139
            ],
            [
              33.3536762,
              35.1547704
            ],
            [
              33.3532278,
              35.155046
            ],
            [
              33.3532068,
              35.1550589
            ],
            [
              33.3531648,
              35.1550847
            ],
            [
              33.3527485,
              35.1553406
            ],
            [
              33.352628,
              35.1554146
            ],
            [
              33.3525774,
              35.155372
            ],
            [
              33.3531935,
              35.1549684
            ],
            [
              33.3530397,
              35.1548363
            ],
            [
              33.3529585,
              35.1548899
            ],
            [
              33.3527646,
              35.1547128
            ],
            [
              33.3524725,
              35.1549164
            ],
            [
              33.3522394,
              35.1547354
            ],
            [
              33.3519409,
              35.1545251
            ],
            [
              33.3522294,
              35.1542827
            ],
            [
              33.3524024,
              35.1540916
            ],
            [
              33.3524452,
              35.1540297
            ],
            [
              33.3522366,
              35.1536776
            ],
            [
              33.3511528,
              35.1541011
            ],
            [
              33.3514688,
              35.1546846
            ],
            [
              33.3513673,
              35.1547741
            ],
            [
              33.3506241,
              35.1541113
            ],
            [
              33.3500367,
              35.1545515
            ],
            [
              33.3508136,
              35.1552198
            ],
            [
              33.3506044,
              35.1553994
            ],
            [
              33.3500521,
              35.1549807
            ],
            [
              33.3499021,
              35.1546151
            ],
            [
              33.3501044,
              35.1544257
            ],
            [
              33.3501951,
              35.1538908
            ],
            [
              33.3501281,
              35.1535411
            ],
            [
              33.3499458,
              35.1532407
            ],
            [
              33.349914,
              35.1529587
            ],
            [
              33.349659,
              35.1528182
            ],
            [
              33.3496326,
              35.1518668
            ],
            [
              33.3501767,
              35.151924
            ],
            [
              33.3508063,
              35.1518677
            ],
            [
              33.3511557,
              35.1517774
            ],
            [
              33.3511934,
              35.1521383
            ],
            [
              33.3511554,
              35.1523275
            ],
            [
              33.3511028,
              35.1524079
            ],
            [
              33.3509278,
              35.1524331
            ],
            [
              33.3508983,
              35.1526167
            ],
            [
              33.351104,
              35.1528325
            ],
            [
              33.3511101,
              35.1530353
            ],
            [
              33.3516613,
              35.1530705
            ],
            [
              33.3518414,
              35.152638
            ],
            [
              33.352286,
              35.1526366
            ],
            [
              33.3524537,
              35.1527853
            ],
            [
              33.352688,
              35.1528578
            ],
            [
              33.3528682,
              35.153753
            ],
            [
              33.3536694,
              35.1536633
            ],
            [
              33.3534684,
              35.1525102
            ],
            [
              33.3535325,
              35.1523852
            ],
            [
              33.3535107,
              35.151438
            ],
            [
              33.3533807,
              35.1511623
            ],
            [
              33.3529938,
              35.1510309
            ],
            [
              33.3525018,
              35.1509888
            ],
            [
              33.3520862,
              35.1508992
            ],
            [
              33.3520413,
              35.1505958
            ],
            [
              33.3517869,
              35.1506183
            ],
            [
              33.3518145,
              35.1508835
            ],
            [
              33.3517515,
              35.150926
            ],
            [
              33.3518284,
              35.1515376
            ],
            [
              33.3516719,
              35.1515598
            ],
            [
              33.3515405,
              35.1509171
            ],
            [
              33.3513971,
              35.1501983
            ],
            [
              33.3510217,
              35.1501581
            ],
            [
              33.3510425,
              35.1499483
            ],
            [
              33.3504147,
              35.1498765
            ],
            [
              33.3504969,
              35.1496438
            ],
            [
              33.3506119,
              35.1493181
            ],
            [
              33.3511256,
              35.1493906
            ],
            [
              33.3517594,
              35.1495073
            ],
            [
              33.3521911,
              35.1496848
            ],
            [
              33.3526154,
              35.1498401
            ],
            [
              33.3530388,
              35.149838
            ],
            [
              33.3533017,
              35.149821
            ],
            [
              33.3533201,
              35.15013
            ],
            [
              33.3533878,
              35.1503152
            ],
            [
              33.3540165,
              35.1505297
            ],
            [
              33.3539204,
              35.1508371
            ],
            [
              33.3538242,
              35.1510623
            ],
            [
              33.3538507,
              35.1514932
            ],
            [
              33.3541745,
              35.1515067
            ],
            [
              33.3543442,
              35.1530145
            ],
            [
              33.3551644,
              35.1529727
            ],
            [
              33.3553079,
              35.1529483
            ],
            [
              33.3553478,
              35.1528693
            ],
            [
              33.3555057,
              35.1528536
            ],
            [
              33.3554975,
              35.1525533
            ],
            [
              33.3554229,
              35.1525086
            ],
            [
              33.3554014,
              35.1523813
            ],
            [
              33.3553035,
              35.1522202
            ],
            [
              33.3552714,
              35.1520316
            ],
            [
              33.3552888,
              35.1519197
            ],
            [
              33.3553344,
              35.1518057
            ],
            [
              33.3553089,
              35.1517168
            ],
            [
              33.3552942,
              35.1515929
            ],
            [
              33.3552807,
              35.1514932
            ],
            [
              33.3553139,
              35.151328
            ],
            [
              33.355317,
              35.1513128
            ],
            [
              33.3550876,
              35.1512645
            ],
            [
              33.3551078,
              35.1512072
            ],
            [
              33.3552432,
              35.1508226
            ],
            [
              33.3555946,
              35.1508928
            ],
            [
              33.3558279,
              35.1509268
            ],
            [
              33.356021,
              35.1509586
            ],
            [
              33.3563201,
              35.1510134
            ],
            [
              33.3565923,
              35.1510672
            ],
            [
              33.356933,
              35.1511417
            ],
            [
              33.3570859,
              35.1511697
            ],
            [
              33.357169,
              35.1511746
            ],
            [
              33.3572367,
              35.1511806
            ],
            [
              33.3572689,
              35.1511801
            ],
            [
              33.3573092,
              35.1511817
            ],
            [
              33.357914,
              35.1512914
            ],
            [
              33.357963,
              35.1513062
            ],
            [
              33.357975,
              35.1513385
            ],
            [
              33.3579683,
              35.1513961
            ],
            [
              33.3579589,
              35.1514586
            ],
            [
              33.3579321,
              35.1514992
            ],
            [
              33.3579006,
              35.1515277
            ]
          ]
        ]
      },
      "id": "way/493408631"
    }
  ]
}
