{
  "type": "Feature",
  "properties": {},
  "geometry": {
    "type": "LineString",
    "coordinates": [
      [
        33.00686,
        34.965520000000005
      ],
      [
        33.00687,
        34.96555
      ],
      [
        33.006840000000004,
        34.965680000000006
      ],
      [
        33.00649,
        34.965860000000006
      ],
      [
        33.00632,
        34.965990000000005
      ],
      [
        33.00659,
        34.96593
      ],
      [
        33.00687,
        34.96576
      ],
      [
        33.00696,
        34.96567
      ],
      [
        33.00699,
        34.96556
      ],
      [
        33.006884999362505,
        34.965079999942944
      ],
      [
        33.006780000000006,
        34.964600000000004
      ],
      [
        33.006780000000006,
        34.964490000000005
      ],
      [
        33.00685,
        34.964360000000006
      ],
      [
        33.006980000000006,
        34.964270000000006
      ],
      [
        33.007960000000004,
        34.96401
      ],
      [
        33.00808,
        34.963890000000006
      ],
      [
        33.00824,
        34.963330000000006
      ],
      [
        33.008320000000005,
        34.963240000000006
      ],
      [
        33.00847,
        34.963190000000004
      ],
      [
        33.009080000000004,
        34.96318
      ],
      [
        33.009350000000005,
        34.963210000000004
      ],
      [
        33.00952,
        34.96341
      ],
      [
        33.009620000000005,
        34.96345
      ],
      [
        33.0097,
        34.963460000000005
      ],
      [
        33.00979,
        34.963420000000006
      ],
      [
        33.00983,
        34.963300000000004
      ],
      [
        33.00965,
        34.962950000000006
      ],
      [
        33.00972,
        34.962720000000004
      ],
      [
        33.00979,
        34.96266
      ],
      [
        33.009910000000005,
        34.962610000000005
      ],
      [
        33.010090000000005,
        34.96258
      ],
      [
        33.010180000000005,
        34.96249
      ],
      [
        33.0103,
        34.962140000000005
      ],
      [
        33.01035,
        34.96211
      ],
      [
        33.01039,
        34.962120000000006
      ],
      [
        33.01043,
        34.962160000000004
      ],
      [
        33.01048,
        34.96248
      ],
      [
        33.01046,
        34.96266
      ],
      [
        33.01032,
        34.962970000000006
      ],
      [
        33.01032,
        34.963060000000006
      ],
      [
        33.01042,
        34.963210000000004
      ],
      [
        33.01043,
        34.963330000000006
      ],
      [
        33.010290000000005,
        34.963680000000004
      ],
      [
        33.010290000000005,
        34.96385
      ],
      [
        33.01033,
        34.96401
      ],
      [
        33.01033,
        34.96416
      ],
      [
        33.01033,
        34.96419
      ],
      [
        33.01028,
        34.964270000000006
      ],
      [
        33.010160000000006,
        34.964330000000004
      ],
      [
        33.010310000000004,
        34.96434
      ],
      [
        33.01041,
        34.9643
      ],
      [
        33.01046,
        34.964150000000004
      ],
      [
        33.01046,
        34.963860000000004
      ],
      [
        33.01057,
        34.96372
      ],
      [
        33.010580000000004,
        34.96369
      ],
      [
        33.01095,
        34.963350000000005
      ],
      [
        33.011050000000004,
        34.96316
      ],
      [
        33.01113,
        34.96312
      ],
      [
        33.01138,
        34.963190000000004
      ],
      [
        33.011500000000005,
        34.96318
      ],
      [
        33.01158,
        34.96314
      ],
      [
        33.011610000000005,
        34.963080000000005
      ],
      [
        33.0116,
        34.962880000000006
      ],
      [
        33.01158,
        34.96284
      ],
      [
        33.01158,
        34.962360000000004
      ],
      [
        33.01158,
        34.96238
      ],
      [
        33.01151,
        34.96206
      ],
      [
        33.01155,
        34.961960000000005
      ],
      [
        33.01171,
        34.961890000000004
      ],
      [
        33.011810000000004,
        34.96175
      ],
      [
        33.01176,
        34.96154
      ],
      [
        33.011630000000004,
        34.96146
      ],
      [
        33.01155,
        34.961240000000004
      ],
      [
        33.011630000000004,
        34.960910000000005
      ],
      [
        33.011590000000005,
        34.96074
      ],
      [
        33.01165,
        34.96059
      ],
      [
        33.011770000000006,
        34.960480000000004
      ],
      [
        33.011770000000006,
        34.96036
      ],
      [
        33.011720000000004,
        34.960240000000006
      ],
      [
        33.01176,
        34.96014
      ],
      [
        33.01171,
        34.96011
      ],
      [
        33.011720000000004,
        34.96004
      ],
      [
        33.011700000000005,
        34.959860000000006
      ],
      [
        33.01175,
        34.959830000000004
      ],
      [
        33.01183,
        34.95985
      ],
      [
        33.01191,
        34.959920000000004
      ],
      [
        33.01209,
        34.95998
      ],
      [
        33.012240000000006,
        34.96
      ],
      [
        33.012710000000006,
        34.96016
      ],
      [
        33.012980000000006,
        34.960300000000004
      ],
      [
        33.013070000000006,
        34.96041
      ],
      [
        33.01319,
        34.9605
      ],
      [
        33.013580000000005,
        34.96063
      ],
      [
        33.0137,
        34.96072
      ],
      [
        33.013690000000004,
        34.96072
      ],
      [
        33.01384,
        34.960770000000004
      ],
      [
        33.01393,
        34.960770000000004
      ],
      [
        33.014050000000005,
        34.96072
      ],
      [
        33.01427,
        34.96074
      ],
      [
        33.014390000000006,
        34.960710000000006
      ],
      [
        33.014480000000006,
        34.96085
      ],
      [
        33.01447,
        34.961090000000006
      ],
      [
        33.01473,
        34.96186
      ],
      [
        33.014810000000004,
        34.962
      ],
      [
        33.01493,
        34.96208
      ],
      [
        33.01491,
        34.962
      ],
      [
        33.01509,
        34.96219
      ],
      [
        33.01527,
        34.96256
      ],
      [
        33.015350000000005,
        34.962610000000005
      ],
      [
        33.015640000000005,
        34.962680000000006
      ],
      [
        33.015890000000006,
        34.962790000000005
      ],
      [
        33.01597,
        34.962810000000005
      ],
      [
        33.01628,
        34.96304
      ],
      [
        33.01672,
        34.963300000000004
      ],
      [
        33.01684,
        34.96349
      ],
      [
        33.01688,
        34.96352
      ],
      [
        33.01697,
        34.963550000000005
      ],
      [
        33.017300000000006,
        34.963420000000006
      ],
      [
        33.017480000000006,
        34.9634
      ],
      [
        33.017430000000004,
        34.963350000000005
      ],
      [
        33.01775,
        34.963370000000005
      ],
      [
        33.017990000000005,
        34.96318
      ],
      [
        33.018060000000006,
        34.96316
      ],
      [
        33.01838,
        34.96314
      ],
      [
        33.0185,
        34.963080000000005
      ],
      [
        33.01867,
        34.962920000000004
      ],
      [
        33.01876,
        34.96275
      ],
      [
        33.01879,
        34.9626
      ],
      [
        33.01879,
        34.96249
      ],
      [
        33.018910000000005,
        34.96231
      ],
      [
        33.01905,
        34.961850000000005
      ],
      [
        33.01917,
        34.961710000000004
      ],
      [
        33.01944,
        34.96152
      ],
      [
        33.01975,
        34.9615
      ],
      [
        33.020050000000005,
        34.961560000000006
      ],
      [
        33.020160000000004,
        34.96155
      ],
      [
        33.02035,
        34.9615
      ],
      [
        33.02055,
        34.96148
      ],
      [
        33.020680000000006,
        34.96135
      ],
      [
        33.020950000000006,
        34.96115
      ],
      [
        33.02116,
        34.9611
      ],
      [
        33.02143,
        34.961110000000005
      ],
      [
        33.02156,
        34.96116
      ],
      [
        33.02206,
        34.96116
      ],
      [
        33.02206,
        34.9611
      ],
      [
        33.02232,
        34.96106
      ],
      [
        33.02257,
        34.9611
      ],
      [
        33.02284,
        34.961040000000004
      ],
      [
        33.023230000000005,
        34.96112
      ],
      [
        33.02333,
        34.96125
      ],
      [
        33.023360000000004,
        34.96139
      ],
      [
        33.023410000000005,
        34.9615
      ],
      [
        33.02358,
        34.96209
      ],
      [
        33.02367,
        34.962320000000005
      ],
      [
        33.02369,
        34.96244
      ],
      [
        33.02367,
        34.962650000000004
      ],
      [
        33.02364,
        34.962680000000006
      ],
      [
        33.02369,
        34.962920000000004
      ],
      [
        33.02393,
        34.96331
      ],
      [
        33.02403,
        34.96341
      ],
      [
        33.024150000000006,
        34.963480000000004
      ],
      [
        33.02427,
        34.963770000000004
      ],
      [
        33.024300000000004,
        34.96401
      ],
      [
        33.024260000000005,
        34.96408
      ],
      [
        33.02413,
        34.964200000000005
      ],
      [
        33.02405,
        34.964330000000004
      ],
      [
        33.02405,
        34.96445
      ],
      [
        33.024100000000004,
        34.964580000000005
      ],
      [
        33.024170000000005,
        34.96468
      ],
      [
        33.02418,
        34.96477
      ],
      [
        33.024150000000006,
        34.964890000000004
      ],
      [
        33.024280000000005,
        34.965090000000004
      ],
      [
        33.02414,
        34.96515
      ],
      [
        33.024080000000005,
        34.96526
      ],
      [
        33.02403,
        34.965520000000005
      ],
      [
        33.024060000000006,
        34.96575
      ],
      [
        33.024210000000004,
        34.965630000000004
      ],
      [
        33.024260000000005,
        34.965630000000004
      ],
      [
        33.02429,
        34.965680000000006
      ],
      [
        33.024170000000005,
        34.965920000000004
      ],
      [
        33.02429,
        34.96589
      ],
      [
        33.024660000000004,
        34.96593
      ],
      [
        33.02465,
        34.96593
      ],
      [
        33.025090000000006,
        34.965990000000005
      ],
      [
        33.02523,
        34.96604
      ],
      [
        33.02532,
        34.966120000000004
      ],
      [
        33.02532,
        34.96623
      ],
      [
        33.025600000000004,
        34.966460000000005
      ],
      [
        33.02593,
        34.96658
      ],
      [
        33.02617,
        34.96669
      ],
      [
        33.02624,
        34.96678
      ],
      [
        33.026810000000005,
        34.96725
      ],
      [
        33.02696,
        34.967420000000004
      ],
      [
        33.027,
        34.96752
      ],
      [
        33.02704,
        34.96777
      ],
      [
        33.02713,
        34.967980000000004
      ],
      [
        33.027210000000004,
        34.9681
      ],
      [
        33.027300000000004,
        34.96837
      ],
      [
        33.027440000000006,
        34.96855
      ],
      [
        33.02761,
        34.96887
      ],
      [
        33.02769,
        34.96911
      ],
      [
        33.027910000000006,
        34.969460000000005
      ],
      [
        33.028200000000005,
        34.969730000000006
      ],
      [
        33.028560000000006,
        34.96985
      ],
      [
        33.02882,
        34.969840000000005
      ],
      [
        33.02901,
        34.96987
      ],
      [
        33.02926,
        34.96999
      ],
      [
        33.029320000000006,
        34.970040000000004
      ],
      [
        33.0296,
        34.97005
      ],
      [
        33.02984,
        34.9701
      ],
      [
        33.030030000000004,
        34.9703
      ],
      [
        33.03022,
        34.970380000000006
      ],
      [
        33.03031,
        34.970560000000006
      ],
      [
        33.0302,
        34.970780000000005
      ],
      [
        33.03036,
        34.97101
      ],
      [
        33.03051,
        34.97106
      ],
      [
        33.030620000000006,
        34.971120000000006
      ],
      [
        33.03094,
        34.971160000000005
      ],
      [
        33.03105,
        34.97115
      ],
      [
        33.03117,
        34.971470000000004
      ],
      [
        33.03146,
        34.971830000000004
      ],
      [
        33.03155,
        34.971900000000005
      ],
      [
        33.03168,
        34.97195
      ],
      [
        33.032030000000006,
        34.97258
      ],
      [
        33.032340000000005,
        34.972950000000004
      ],
      [
        33.03231,
        34.97314
      ],
      [
        33.03233,
        34.97328
      ],
      [
        33.032320000000006,
        34.973490000000005
      ],
      [
        33.032360000000004,
        34.973560000000006
      ],
      [
        33.03242,
        34.973600000000005
      ],
      [
        33.032590000000006,
        34.973690000000005
      ],
      [
        33.03286,
        34.973710000000004
      ],
      [
        33.03316,
        34.973780000000005
      ],
      [
        33.033480000000004,
        34.973980000000005
      ],
      [
        33.03371,
        34.9742
      ],
      [
        33.03379,
        34.97406
      ],
      [
        33.03381,
        34.97417
      ],
      [
        33.034130000000005,
        34.973980000000005
      ],
      [
        33.034200000000006,
        34.97392
      ],
      [
        33.03426,
        34.973760000000006
      ],
      [
        33.03435,
        34.97388
      ],
      [
        33.03443,
        34.97363
      ],
      [
        33.03468,
        34.973490000000005
      ],
      [
        33.03495,
        34.973380000000006
      ],
      [
        33.03537,
        34.97326
      ],
      [
        33.035940000000004,
        34.97335
      ],
      [
        33.03616,
        34.973330000000004
      ],
      [
        33.03649,
        34.97336
      ],
      [
        33.03665,
        34.973440000000004
      ],
      [
        33.03676,
        34.97352
      ],
      [
        33.037220000000005,
        34.97364
      ],
      [
        33.037600000000005,
        34.973690000000005
      ],
      [
        33.037850000000006,
        34.97379
      ],
      [
        33.038270000000004,
        34.9739
      ],
      [
        33.03855,
        34.973940000000006
      ],
      [
        33.038970000000006,
        34.974160000000005
      ],
      [
        33.03909,
        34.97433
      ],
      [
        33.03927,
        34.974520000000005
      ],
      [
        33.03951,
        34.97471
      ],
      [
        33.0398,
        34.9748
      ],
      [
        33.040330000000004,
        34.97493
      ],
      [
        33.0405,
        34.975080000000005
      ],
      [
        33.04064,
        34.97527
      ],
      [
        33.040620000000004,
        34.97549
      ],
      [
        33.04063,
        34.97554
      ],
      [
        33.04079,
        34.97569
      ],
      [
        33.040780000000005,
        34.97569
      ],
      [
        33.041050000000006,
        34.975950000000005
      ],
      [
        33.04104,
        34.976380000000006
      ],
      [
        33.04112,
        34.97652
      ],
      [
        33.04173,
        34.97684
      ],
      [
        33.04225,
        34.97686
      ],
      [
        33.04254,
        34.97673
      ],
      [
        33.042730000000006,
        34.97672
      ],
      [
        33.04289,
        34.97675
      ],
      [
        33.0431,
        34.9767
      ],
      [
        33.04328,
        34.976620000000004
      ],
      [
        33.04354,
        34.97643
      ],
      [
        33.04354,
        34.97636
      ],
      [
        33.04368,
        34.97634
      ],
      [
        33.04388,
        34.97654
      ],
      [
        33.04401,
        34.976560000000006
      ],
      [
        33.04435,
        34.97645
      ],
      [
        33.04441,
        34.97646
      ],
      [
        33.0444,
        34.9765
      ],
      [
        33.04402,
        34.97665
      ],
      [
        33.04381,
        34.97677
      ],
      [
        33.043730000000004,
        34.97697
      ],
      [
        33.04359,
        34.97708
      ],
      [
        33.04336,
        34.97721
      ],
      [
        33.04337,
        34.97742
      ],
      [
        33.043310000000005,
        34.977830000000004
      ],
      [
        33.043330000000005,
        34.97804
      ],
      [
        33.04332,
        34.978210000000004
      ],
      [
        33.043130000000005,
        34.97831
      ],
      [
        33.043060000000004,
        34.9784
      ],
      [
        33.043020000000006,
        34.978500000000004
      ],
      [
        33.04303,
        34.978660000000005
      ],
      [
        33.0431,
        34.97878
      ],
      [
        33.043290000000006,
        34.97894
      ],
      [
        33.043290000000006,
        34.979110000000006
      ],
      [
        33.043130000000005,
        34.979380000000006
      ],
      [
        33.04314,
        34.979490000000006
      ],
      [
        33.043290000000006,
        34.97955
      ],
      [
        33.04336,
        34.97972
      ],
      [
        33.04348,
        34.979780000000005
      ],
      [
        33.043730000000004,
        34.97977
      ],
      [
        33.044000000000004,
        34.979890000000005
      ],
      [
        33.04403,
        34.97988
      ],
      [
        33.04394,
        34.9797
      ],
      [
        33.04496,
        34.97968
      ],
      [
        33.04507,
        34.97963
      ],
      [
        33.045410000000004,
        34.97963
      ],
      [
        33.04562,
        34.97979
      ],
      [
        33.04565,
        34.97975
      ],
      [
        33.04544,
        34.979420000000005
      ],
      [
        33.04533,
        34.97932
      ],
      [
        33.045750000000005,
        34.979470000000006
      ],
      [
        33.04598,
        34.97959
      ],
      [
        33.04581,
        34.979350000000004
      ],
      [
        33.04571,
        34.979150000000004
      ],
      [
        33.04576,
        34.979000000000006
      ],
      [
        33.04583,
        34.978860000000005
      ],
      [
        33.04585,
        34.97898
      ],
      [
        33.04591,
        34.97907
      ],
      [
        33.04608,
        34.979220000000005
      ],
      [
        33.04621,
        34.979260000000004
      ],
      [
        33.046400000000006,
        34.97961
      ],
      [
        33.046530000000004,
        34.97968
      ],
      [
        33.046910000000004,
        34.979800000000004
      ],
      [
        33.047050000000006,
        34.97988
      ]
    ]
  }
}