{"type":"FeatureCollection","features":[{"type":"Feature","id":1235897,"geometry":{"type":"Polygon","coordinates":[[[32.340565078999987,34.902728169],[32.340565194000021,34.90272810099998],[32.340822962000004,34.902577038000004],[32.340930719000028,34.902507453999988],[32.341017535999981,34.902488603999984],[32.341076182999984,34.902469107999991],[32.341139315000021,34.90244812200001],[32.34113984999999,34.902447944000016],[32.341211038999973,34.902424295000003],[32.341343032999987,34.902220725000006],[32.341461650999975,34.902199913999993],[32.341609612000013,34.902131153000028],[32.341835157999981,34.902013511999996],[32.341853823000008,34.902003776000015],[32.341929735999997,34.901860935999991],[32.341964320999978,34.901825197999983],[32.342099598999994,34.901742366000008],[32.34211884299998,34.901734276000013],[32.342418109999983,34.901608526000018],[32.342442235000021,34.901598604000014],[32.342788207000012,34.901456306],[32.342848426999979,34.901435608999975],[32.342910673000006,34.901426069000024],[32.342994283999985,34.901413261000016],[32.34341423799998,34.901390752999987],[32.343716948999997,34.901383763000013],[32.344286450000027,34.901501016999987],[32.349720149999996,34.901888961999987],[32.350338670999975,34.901767305000021],[32.350913049999974,34.901655850999987],[32.354503243000011,34.900687177999998],[32.355980531,34.900536568999996],[32.356347862000007,34.900665050999976],[32.356574647999992,34.900744373999999],[32.357066266000004,34.900367639000024],[32.358776819000013,34.89984016599999],[32.360646592000023,34.899387644000001],[32.361539323999978,34.899476173999972],[32.362525088999973,34.900218116000019],[32.363196443999982,34.900517191000006],[32.363886959000013,34.901327626000011],[32.364269137999997,34.901441272999989],[32.364895709999985,34.900908703000027],[32.365410452999981,34.901134628000023],[32.365464667000026,34.901091849000011],[32.365983604000007,34.901112136999984],[32.366539518000025,34.901331133999975],[32.366556154000023,34.901337694000006],[32.366771060000019,34.901624142000003],[32.366985246000013,34.901698350999993],[32.366988418000005,34.901699569000016],[32.367219535999993,34.901788366000005],[32.367511777000004,34.901759749999997],[32.367552264999972,34.901760959000001],[32.367912274999981,34.901868885999988],[32.368181903999982,34.90193513600002],[32.368423586000006,34.90198690699998],[32.368776769000021,34.901932672999976],[32.369170462999989,34.901932193999983],[32.369600341000023,34.901983668000014],[32.370259986999997,34.901990626999975],[32.370511138999973,34.901971218000028],[32.370744548000005,34.90196245300001],[32.370745372999977,34.901723654000023],[32.370950192000009,34.901591653000025],[32.371033336999972,34.901570902999993],[32.371135778999985,34.901562925999997],[32.371315776000017,34.901579190000007],[32.371615571999996,34.901577046999989],[32.371746068999983,34.901576114000022],[32.372371423000004,34.901615799000012],[32.372720346999984,34.901612085000011],[32.373074686999985,34.901683143000014],[32.373288950000017,34.901688686999989],[32.373396567999976,34.901717872999996],[32.373547222000013,34.901780744000007],[32.373707982999974,34.901847900000007],[32.373870866000004,34.901934553999979],[32.373970825000015,34.901987776999988],[32.374171792000027,34.902064058000008],[32.374388102000012,34.902167924000025],[32.374388142999976,34.902167944999974],[32.374453764000009,34.902204343999983],[32.374470007000014,34.902241471000025],[32.374507311000002,34.902295220999974],[32.374684806000005,34.902413516000024],[32.374750342000027,34.902457184000014],[32.374879017000012,34.902542937000021],[32.374935124999979,34.902580328999989],[32.375154411999972,34.902715795000006],[32.375207413999988,34.90274851800001],[32.375331748000008,34.902920271000028],[32.375484391999976,34.903179621999982],[32.375584987000025,34.903268492999985],[32.375667699000019,34.903323189999981],[32.375723557000015,34.903336369999977],[32.375914157000011,34.903529920999972],[32.375955506000025,34.903564211999992],[32.376530706999972,34.903898756999979],[32.376765562000003,34.904005262999988],[32.377154433999976,34.904094707000013],[32.377364946,34.904138068000009],[32.377455343999998,34.904274847000011],[32.377481160999992,34.904298330000017],[32.377601249000008,34.904328065000016],[32.37773568199998,34.904430449000017],[32.377954805000002,34.90466074599999],[32.378022068000007,34.90478938199999],[32.378131317999987,34.904987923000022],[32.378188690000002,34.905075936999992],[32.378352690999975,34.905243202000008],[32.378441919000011,34.905320022000012],[32.378634206000015,34.905470933000004],[32.378687962000015,34.905511778000005],[32.37926373900001,34.905641118999995],[32.379441079000003,34.905687531000012],[32.379575956999986,34.905722829000013],[32.380063749999977,34.90585048600002],[32.380480922000004,34.905982978999987],[32.380552996000006,34.906060878999995],[32.380688426000006,34.906199688000015],[32.380500868000013,34.906391844999973],[32.380565150999985,34.906701767000015],[32.380618896999977,34.907068974000026],[32.380638062999992,34.907124968000005],[32.380463408000026,34.907197284999995],[32.380585363000023,34.907231534999994],[32.380557828000008,34.907424506999973],[32.380776622999974,34.908037147000016],[32.380862091999973,34.908338791000006],[32.380822737000017,34.908437651999975],[32.380766418000007,34.90853391600001],[32.380766393999977,34.90853394200002],[32.380670495999993,34.90857656899999],[32.380515511999988,34.908645481000008],[32.380400251000026,34.908670066000013],[32.380322153000009,34.908686746000001],[32.380190771999992,34.908660974999975],[32.37987573800001,34.908599209999977],[32.379785267999978,34.908467009999981],[32.379706742999986,34.908352261999994],[32.379453480999985,34.908103331000007],[32.379132597000023,34.907955354000023],[32.378971987999989,34.90789331000002],[32.378927880999981,34.90787627200001],[32.378909643999975,34.90797705],[32.378893559999995,34.908066124000015],[32.378965074000007,34.908170348999988],[32.379105532999972,34.90838527599999],[32.37930942700001,34.908697265000001],[32.379457226999989,34.908913859999984],[32.379527353000015,34.909016625999982],[32.37956688700001,34.909068917000013],[32.379777009000009,34.90934675699998],[32.379935977000002,34.909700719999989],[32.380507465999983,34.909825289000025],[32.380638560000023,34.910489063],[32.380510125000001,34.910542963000012],[32.380373263000024,34.910699802000011],[32.380315397999993,34.910616831000027],[32.380218437999986,34.910594356999979],[32.380128452000008,34.910573501999977],[32.38001122999998,34.910546332000024],[32.379904576999991,34.91052149799998],[32.379797612000004,34.910496591000026],[32.379646714999978,34.910461453999972],[32.379547822999996,34.910438425999985],[32.379432882000003,34.910411662000001],[32.379296438999972,34.910380222000015],[32.379207496999982,34.910359830000004],[32.379070134000017,34.910309880999989],[32.37895592000001,34.910268347999988],[32.378825183000004,34.910218805],[32.378709854000022,34.910175100000004],[32.378679866000027,34.910155922000001],[32.378545208999981,34.910069808999992],[32.378500582000015,34.910037370999987],[32.378468399999974,34.910006378999981],[32.378426729000012,34.909966243999975],[32.378362723000009,34.909904601999983],[32.378256964000002,34.909807520000015],[32.378113826000003,34.909679974000028],[32.378038855999989,34.90961573200002],[32.377997299000015,34.909585433000018],[32.377827454999988,34.909461597000018],[32.377728078000018,34.909389139999973],[32.377546143000018,34.909248171999991],[32.37748714899999,34.909206781000023],[32.377439627000001,34.90917605300001],[32.377391041999999,34.909144635000018],[32.377275429000008,34.909069873000021],[32.377198838000027,34.909011702999976],[32.377103708999982,34.908939453000016],[32.377034477999985,34.908881353000027],[32.376988831999995,34.908834951000017],[32.376874937000025,34.908719177000023],[32.376795791000006,34.908638719999999],[32.376710559999992,34.908552080999982],[32.376679075000027,34.908520076999991],[32.376580439000008,34.908393616000012],[32.376536369000007,34.908337114999995],[32.376494322999974,34.908283209999979],[32.376425955000002,34.908139424000012],[32.376365177000025,34.908058234000009],[32.376320614000008,34.907998705000011],[32.376258597999993,34.907915861999982],[32.376222620000021,34.907865060999995],[32.37616933999999,34.907786843999986],[32.376112544000023,34.907703464999997],[32.376099581999995,34.907691688999989],[32.376047624000023,34.907644484999992],[32.375956879,34.907562041000006],[32.375859536000007,34.907473603000028],[32.375754905999997,34.907379923000008],[32.375704025999994,34.907335081999975],[32.375646718999974,34.907275641000012],[32.375630093999973,34.907238931999984],[32.375606843000014,34.907187592000014],[32.375560141999983,34.907084474999976],[32.375454444000013,34.907033408000018],[32.375279415000023,34.906966936000003],[32.375214608000022,34.906922794000025],[32.375158451999994,34.906876688000011],[32.375045682999996,34.906824057999984],[32.374962088000018,34.906791694999981],[32.374890515999994,34.906763988000023],[32.374801537999986,34.906729542999983],[32.374754214000006,34.906693964999988],[32.37468514699998,34.906642044000023],[32.374628447000021,34.906606748000002],[32.37454664400002,34.906573961999982],[32.374342290000016,34.906507286000021],[32.374180310999975,34.906436125000027],[32.374022233000005,34.906447705000005],[32.37395449600001,34.906452667999986],[32.373926815000004,34.906454696000026],[32.37387432700001,34.906434554999976],[32.373825424000017,34.906413453000027],[32.37372376899998,34.906369585999983],[32.373610434999989,34.906320678999975],[32.373554463000005,34.906294590000016],[32.373390643999983,34.906220282999982],[32.373326404000011,34.906193486000006],[32.373281411999983,34.906174720000024],[32.373236775000009,34.906166481000014],[32.373197517999984,34.90617755300002],[32.373140377000027,34.906193669999993],[32.373073282999997,34.906212595],[32.373036524999975,34.906239330999995],[32.372992725000017,34.906271189999984],[32.37296672299999,34.906256545000019],[32.372879194000006,34.906207246000008],[32.37278418599999,34.906153736000022],[32.372751805000007,34.906140086999983],[32.372648414000025,34.906096509000008],[32.372536615000001,34.906050723000021],[32.372450430000015,34.906018580000023],[32.372405269000012,34.906001736000007],[32.372303516999978,34.905963788000008],[32.372202725000022,34.905926196999985],[32.372098860999984,34.90588746100002],[32.372019842999975,34.905857991000005],[32.371911407000027,34.905788583999993],[32.371823483000014,34.905732304000026],[32.371770718999983,34.905698530999985],[32.37167632400002,34.905719461999979],[32.371601041000019,34.905736155],[32.371538489999978,34.905739439999991],[32.371468650999986,34.905713787000025],[32.371425871999975,34.905690354000001],[32.371368656000016,34.905659017000005],[32.371304501999987,34.905604590999985],[32.371265605000019,34.905571592999991],[32.371222925999973,34.905535385999997],[32.371174428000018,34.905526435000013],[32.371116423999979,34.905515729000001],[32.371044890999997,34.905506398999989],[32.370945201999973,34.905493397999976],[32.370886159999998,34.905485697000017],[32.370836525000016,34.90546728999999],[32.370786131999978,34.905448600999989],[32.370730546000004,34.905427986000007],[32.370652649000021,34.905372141999976],[32.37061423099999,34.905344602000014],[32.370562322000012,34.905307385000015],[32.370514359000026,34.905283839999981],[32.370466580000027,34.905260386000009],[32.370405845999983,34.905241541000009],[32.370318139000005,34.905220976999999],[32.370252678999975,34.905205630000012],[32.370191212000009,34.905191220000006],[32.370117732999972,34.905172025000013],[32.370047263999993,34.905153616000007],[32.36994891400002,34.905127924999988],[32.369862897000019,34.905105456000001],[32.369855583999993,34.905103546000021],[32.369789013999991,34.905086154999992],[32.369723695000005,34.905080353000017],[32.369674072000009,34.905080450000014],[32.369504475999975,34.905094545999987],[32.369475770000008,34.905096931999992],[32.36936108499998,34.905095421999988],[32.369255891000023,34.905094034999991],[32.369199373000015,34.905084774999978],[32.369148325000026,34.905076409999992],[32.369074938999972,34.905059547000008],[32.368975476000003,34.905036691000021],[32.368887896999979,34.905007601000023],[32.368768573000011,34.904967966000015],[32.368636727000023,34.904924171000005],[32.368559936999986,34.904898663999973],[32.368512821000024,34.904891971999973],[32.368413361000023,34.904877844999987],[32.368321464000019,34.904864793000002],[32.368289702000027,34.904860106000001],[32.36820885100002,34.904848174999984],[32.368136058999994,34.904837433000012],[32.368103340999994,34.904832603999978],[32.368064463999985,34.904843491000008],[32.36799358899998,34.904863337999984],[32.367923141000006,34.904883066000025],[32.367868735999991,34.90489179399998],[32.367841515000009,34.904896161000011],[32.367766097000015,34.904887465000002],[32.367689279999979,34.904878607000001],[32.367624697999986,34.904871160000027],[32.367573916000026,34.904865304999987],[32.367501262000019,34.904856925999979],[32.367460359999995,34.904847140000015],[32.367393497000023,34.904831143000024],[32.367316076000009,34.904812619999973],[32.36725751900002,34.90479861],[32.36720713599999,34.904781678999996],[32.367132095999978,34.904756459999987],[32.367096910999976,34.904740767000021],[32.367064242000026,34.904726195000023],[32.367011099000024,34.904702492000013],[32.366954178000015,34.904677106999998],[32.366899392999983,34.904652668999972],[32.36685944200002,34.904635814000017],[32.366736817000003,34.904584081999985],[32.366658703999974,34.904546917000005],[32.366575451000017,34.904529092000018],[32.366457191999984,34.904503773999977],[32.366372551999973,34.904485652000005],[32.366341777000002,34.904473121000024],[32.366289316000007,34.904451759999972],[32.366221014000018,34.904423946999998],[32.366175414999987,34.904405381000004],[32.366127640000002,34.904386106000004],[32.366019058000006,34.904342299000007],[32.365942035999979,34.904317936999973],[32.365820252999981,34.904279416000008],[32.365763868999977,34.904261581000014],[32.365700504000017,34.904250310999998],[32.365651506000006,34.90424159600002],[32.365587392000009,34.904230192999989],[32.365541377,34.904222009000023],[32.365474698000014,34.904210149999983],[32.365433296999981,34.904202785999985],[32.365428028999986,34.90429094000001],[32.365416327999981,34.904486738999992],[32.365378392000025,34.90459794100002],[32.365351178000026,34.904677712000023],[32.365324456999986,34.904756034999991],[32.365289039000004,34.904859852000016],[32.365235289999987,34.904969818999973],[32.365167147000022,34.905109236999976],[32.365124861000027,34.905195753999976],[32.364977423000028,34.905497400999991],[32.364963912999997,34.90553815200002],[32.364943493999988,34.905661939000026],[32.364922190000016,34.905791098000009],[32.364901319000012,34.905917624999972],[32.364880604999996,34.906043201999978],[32.364862964999986,34.906150131999993],[32.364859125000009,34.906173420000016],[32.364836449999984,34.906310878999989],[32.364812872000016,34.906453818999978],[32.364789624000025,34.906594750000011],[32.364764179000019,34.906748999000001],[32.364743397999973,34.906875043000014],[32.364719987000001,34.907017033999978],[32.364696560000027,34.907159134999972],[32.364673600999993,34.907298385999979],[32.364653843999974,34.907418216999986],[32.364650745000006,34.907437013999981],[32.364629190000016,34.907567745999984],[32.364607776000014,34.907697638999991],[32.364586480000014,34.907826797999974],[32.364565758000026,34.907952485999999],[32.364546913000027,34.908066775000009],[32.36453015799998,34.908167337999998],[32.364516036999987,34.908251482000026],[32.364512929999989,34.90826999799998],[32.364489449000018,34.908409912000025],[32.364466594000021,34.908546098999977],[32.364443692999998,34.908682940999995],[32.36442075399998,34.908820205999973],[32.364397849999989,34.908957262000001],[32.364374962999989,34.909094211000024],[32.364355562000014,34.90921029499998],[32.364353006999977,34.90922881900002],[32.364336138999988,34.909351118000018],[32.364318701999991,34.909477537999976],[32.364304077999975,34.909583584000018],[32.364301082999987,34.909601759999987],[32.364279440000018,34.909733130000006],[32.364257813999984,34.909864396999978],[32.364236172000005,34.909995767999987],[32.364214547000017,34.910127034000027],[32.364192886000012,34.91025850699998],[32.364171014000021,34.910391274999995],[32.364152908999984,34.91050117399999],[32.363955995000026,34.91076753599998],[32.363865395000005,34.911003827000002],[32.363864143000001,34.911111086000005],[32.363869345000012,34.911252160999993],[32.363877947999981,34.911485384999992],[32.363908148000007,34.911567742999978],[32.363966016999996,34.911725547999993],[32.363871657000004,34.911764733999973],[32.363884122999991,34.911994336000021],[32.363950233000025,34.912039747999984],[32.364276883000002,34.912082177000002],[32.364368995000007,34.91218703200002],[32.364367000000016,34.912353420999978],[32.36437881400002,34.912488599000028],[32.364387947000012,34.912593098999992],[32.364395380000019,34.912678175999986],[32.364409867999996,34.912843952999992],[32.364415796999992,34.912911801000007],[32.364435473000015,34.913133823999999],[32.364453074999972,34.913332448000006],[32.364456528000005,34.91337142499998],[32.364535631000024,34.913307502999999],[32.364668101000007,34.91325800300001],[32.364764545000014,34.913223001000006],[32.364844704999996,34.913195836],[32.365063263000025,34.913121766000017],[32.365094608999982,34.913102313000024],[32.365158076,34.913078485000028],[32.365209585000002,34.913070618000006],[32.36525326200001,34.913070929000014],[32.365283482999985,34.913074869000013],[32.365312893999999,34.913081813000019],[32.365341058000013,34.913091657999985],[32.365388642000028,34.913117105000026],[32.365552691000005,34.913049612999998],[32.365714577999995,34.913001510000015],[32.365775965000012,34.913002373999973],[32.366052326999977,34.913006269999983],[32.366171140000006,34.913016560000017],[32.366313468999977,34.913028887999985],[32.366400305000013,34.913040696999985],[32.366520560000026,34.91305705100001],[32.366593559000023,34.913075884000023],[32.366672214000005,34.91309617600001],[32.366771882000023,34.913158126999974],[32.366856053999982,34.913210445999994],[32.366992456999981,34.913295230000017],[32.367157717999987,34.913388553999994],[32.367351311999982,34.913137491999976],[32.367845210999974,34.913085314999989],[32.368762230000016,34.91298843200002],[32.368893135000008,34.912974600999974],[32.369437844000004,34.912987256000008],[32.369635759000005,34.912990875999981],[32.369740510999975,34.912991990000023],[32.369898375999981,34.912993670999981],[32.370063593999987,34.913138568000022],[32.370304637000004,34.912926315999982],[32.37053683900001,34.912553633000016],[32.370673056999976,34.912619516999996],[32.370736107000027,34.912642677000008],[32.371057335999978,34.912716022999973],[32.371085010000002,34.912656631000004],[32.371124029999976,34.91246208199999],[32.371300279000025,34.912358116000007],[32.371522190000007,34.912434792999989],[32.371635480000009,34.912473937000016],[32.371681980000005,34.912490004999995],[32.371668407000016,34.912619190999976],[32.371659452000017,34.912736861999974],[32.371817565000015,34.912722235999979],[32.372043405999989,34.912701345000016],[32.372294769000007,34.912863243999993],[32.372448650000024,34.912993576000019],[32.372560157999999,34.913088017999996],[32.37269388499999,34.913187006999976],[32.372947811000017,34.913370429999986],[32.373001649999992,34.913382726999998],[32.373027937000018,34.913384813999983],[32.373093539000024,34.913313773000027],[32.373170282999979,34.913230666000004],[32.373279331999981,34.913112579000028],[32.373507410000002,34.912976775999994],[32.373889884999983,34.912943915000028],[32.374066230999972,34.912922711000022],[32.374508515000002,34.912797441000009],[32.374562383000011,34.91278218299999],[32.374722062999979,34.912726446000022],[32.375118175000011,34.91258818],[32.375658191000014,34.912299339000015],[32.376022508999995,34.912464831000023],[32.376698311999974,34.912771813999996],[32.376949093000007,34.912628465000012],[32.377212686000007,34.912477722999995],[32.37736055900001,34.91241431100002],[32.377448431999994,34.912379756000007],[32.377722367999979,34.912274949999983],[32.377903327000013,34.912193964999972],[32.377902027000005,34.912781030000019],[32.377901564000013,34.912821461000021],[32.377975726999978,34.91301372700002],[32.378015199000004,34.913153454999986],[32.37803601600001,34.913235610000015],[32.378047606999985,34.913313996999989],[32.37806185300002,34.913524299000017],[32.378096232000019,34.913924020000024],[32.378136138999992,34.914031323000017],[32.378520090999984,34.914511055999981],[32.378525217000004,34.914682368999991],[32.378651821000005,34.914738941999985],[32.378745557000002,34.914902082000026],[32.378853504000006,34.914942557000018],[32.378975261999983,34.914940756000021],[32.379232907000016,34.914903526999979],[32.379288921000011,34.914921687999993],[32.379355428999986,34.915018551999992],[32.379412393999985,34.915241799],[32.379472161000024,34.915392600000018],[32.379629970999986,34.916002819000028],[32.379688742999974,34.916196082999988],[32.379693394000014,34.916623883],[32.378970062999997,34.916545652000025],[32.378214372999992,34.917243955999993],[32.378066734000015,34.917380380999987],[32.377955851000024,34.917378325000016],[32.37668785599999,34.917328392000002],[32.376507042000014,34.917321270999992],[32.375407181000014,34.917277946000013],[32.375165289999984,34.917220408999981],[32.374872356000026,34.917150728000024],[32.374487116000012,34.917052979000005],[32.374163377999992,34.916606613999988],[32.373880125000028,34.916599781999992],[32.373537969999973,34.916983322000021],[32.373049134999974,34.916933900000004],[32.373092036000003,34.917192549999982],[32.373069757999986,34.917204180999988],[32.372880630999987,34.917302910999979],[32.37286048499999,34.917368916999976],[32.372813279000013,34.917668642000024],[32.372776466999994,34.917987112999981],[32.371610243000021,34.918474045999972],[32.371324236000021,34.918339202000027],[32.370704633999992,34.918256057000008],[32.370624428999974,34.918262932999994],[32.370403914000008,34.918330063999974],[32.370286138999973,34.918355793999979],[32.370228801999986,34.918370288999995],[32.37017879199999,34.918382912000027],[32.370065963000002,34.918422700999997],[32.370040463000009,34.918454380000014],[32.369719652000015,34.918735690999995],[32.369403588000011,34.918445753000015],[32.368768339999974,34.918464514999982],[32.368315945000006,34.918087151999998],[32.368276892999972,34.918095941999979],[32.367941658000007,34.917982585000004],[32.367716171999973,34.917940977000001],[32.367571698000006,34.917818080000018],[32.367419055000028,34.917809659],[32.36740787399998,34.917877685000008],[32.367121151999982,34.917926205000015],[32.366981555999985,34.917949828000019],[32.366798302000007,34.918231541000011],[32.366751459,34.918303550000019],[32.366602220999994,34.918547783000008],[32.36598614799999,34.918443695999997],[32.36522438999998,34.918339761000027],[32.365204317999996,34.918354602000022],[32.365153308000004,34.918415921000019],[32.365127918999974,34.918476742999985],[32.364865125999984,34.918645936000019],[32.364708891000021,34.918965447000005],[32.364696364999986,34.919040336000023],[32.364844831000028,34.919255992999979],[32.365136725000013,34.920091827000022],[32.365175763000025,34.920246743000007],[32.365244841999981,34.920263580999972],[32.365217334000022,34.920342554999991],[32.365947802999983,34.920697012999995],[32.365951748999976,34.920912492000014],[32.365817283000013,34.921448333000001],[32.365742033000004,34.921468409999989],[32.365644105000001,34.921497460000012],[32.364963814000021,34.922060511999973],[32.364826697000012,34.922258516999989],[32.364674008000009,34.922407172000021],[32.364584579999985,34.922626777000005],[32.364215546000025,34.923421376000022],[32.36416565899998,34.923426042000017],[32.364167846999976,34.923659266000016],[32.364021960999992,34.923701203000007],[32.364002563999975,34.924021256999993],[32.364018005999981,34.924134805999984],[32.364171231,34.924513295999986],[32.364036381000005,34.924591433999979],[32.36393818099998,34.924701642000002],[32.363913405000005,34.924848623999992],[32.363908364999986,34.924961110000027],[32.363874241000019,34.925017576000016],[32.363887659,34.925078659000008],[32.363849730000027,34.925150432000009],[32.363834989999987,34.925258532999976],[32.364037111000016,34.925297770999975],[32.364416613000003,34.925385215000006],[32.364690857000028,34.925458731999981],[32.364876190000018,34.925485650999974],[32.365019994000022,34.925450361000003],[32.365219674999992,34.925432664000027],[32.36528750399998,34.925489242000026],[32.365356917999975,34.925567451999996],[32.365517182000019,34.925667764000025],[32.365638949000015,34.925766431],[32.365719997999975,34.925828023999998],[32.365780238000013,34.925830599999983],[32.365843472999984,34.92580209800002],[32.365939928999978,34.925778094000009],[32.366018349000001,34.925823192999985],[32.366110906000017,34.925851067999986],[32.366234958000007,34.92588054700002],[32.36653108500002,34.925840283000014],[32.36671043299998,34.925869123999973],[32.366716397999994,34.925870083000007],[32.366935366999996,34.925848158000008],[32.367019890999984,34.92578228299999],[32.36717334399998,34.925630266999974],[32.367338682000025,34.925525887999981],[32.367484170000012,34.925499254999977],[32.367613591999998,34.925512903000026],[32.367911935999985,34.925639879000016],[32.367976079000016,34.925720943999977],[32.368170292999991,34.925959825999996],[32.36830052900001,34.92609601700002],[32.368417238000006,34.926170147999983],[32.368465661000016,34.926246805999995],[32.368553519999978,34.926202572000022],[32.368691952000006,34.926183109000021],[32.368922610000027,34.926234764000014],[32.369133880999982,34.926303619000009],[32.369254403000014,34.926337402000001],[32.369551618000003,34.926383634999979],[32.369644419999986,34.926379791999977],[32.369768616999977,34.926390528000013],[32.369852347000005,34.926428444999999],[32.369862409000007,34.926486162000003],[32.369964303000017,34.92649474000001],[32.370032123999977,34.926495692000003],[32.370121195000024,34.926522104000014],[32.370244906999972,34.926596269000015],[32.370489646999999,34.926637904000017],[32.370558339000013,34.926582035000024],[32.370765014000028,34.926795028000015],[32.370957056000009,34.926860895000004],[32.37113481099999,34.926964171999998],[32.371426756999995,34.927013256999999],[32.371630062999998,34.926979709000022],[32.371676529000013,34.926854526999989],[32.37178517000001,34.926839230999974],[32.372089076000009,34.927156522000018],[32.372276897000006,34.927317513999981],[32.372432570000001,34.927332734000004],[32.372551824000027,34.927303075999987],[32.372663913999986,34.927295005000019],[32.372799381999982,34.927204879999977],[32.373027593000018,34.927831043000026],[32.373225730000001,34.927737162000028],[32.373312779000003,34.927737842999989],[32.373545508000007,34.927801349999982],[32.373760692000019,34.927880954999978],[32.373902143999999,34.927990079999972],[32.373973413999977,34.928113021000001],[32.373990589000016,34.928179855999986],[32.373919152999974,34.928272934000006],[32.373897407000015,34.928419666000025],[32.373913098999992,34.928487707999977],[32.374100940000005,34.92878357799998],[32.374183492999975,34.92897332299998],[32.374223481999991,34.929095820999976],[32.374238418000004,34.929146904999982],[32.374340152000002,34.929494852000005],[32.374435952999988,34.929686346999972],[32.374559405000014,34.929849230000002],[32.374436247999995,34.929996538000012],[32.37440651899999,34.930062389],[32.374384342999974,34.930111513999975],[32.374377993999985,34.930156333000014],[32.374400703999981,34.930212595],[32.374481602000003,34.930285331999983],[32.374707704999992,34.93042329299999],[32.374755671000003,34.930482955000002],[32.374764906999985,34.930526293000014],[32.374787793999985,34.930830345999993],[32.374795321000022,34.930930349999983],[32.374463097999978,34.931719453000028],[32.37434427300002,34.93203225000002],[32.374250447000009,34.932039551000003],[32.374190337000016,34.932138912000028],[32.374014618999979,34.932176672000026],[32.374254834999988,34.932659451000006],[32.374269222000009,34.932690589000003],[32.374067792999995,34.932827977999978],[32.374113119000015,34.932875543000023],[32.374018598000021,34.933013308999989],[32.373973180999997,34.933079507999992],[32.373823426000001,34.933226852000018],[32.373543224000002,34.93348397699998],[32.373422532999996,34.93360689299999],[32.373358864000011,34.933671735000019],[32.373277412999983,34.933754685999986],[32.373201702000017,34.934215456999993],[32.37322281500002,34.934374803000026],[32.373332909999988,34.934488971999997],[32.373265144000015,34.93468472699999],[32.373320208999985,34.934883457000012],[32.373221414,34.935213869999984],[32.373000133000005,34.935367290999977],[32.373018093999974,34.935515818999988],[32.372814521000009,34.935553362000007],[32.372715305999975,34.93549053800001],[32.372375323000028,34.935709137000003],[32.372166928000013,34.935881540000025],[32.372214598000028,34.936010739999972],[32.372147326999993,34.936019659999999],[32.372122599000022,34.936032957000009],[32.372021593999989,34.93612660399998],[32.371967317999975,34.936145067999973],[32.371966149000002,34.936104594000028],[32.371933382000009,34.936104334999982],[32.371932238999989,34.936204153000006],[32.371917063000012,34.936241805999998],[32.371845559000008,34.936334332000001],[32.371802688999992,34.936358281000025],[32.371708974000001,34.936387231000026],[32.371677214999977,34.936438162000002],[32.371597286999986,34.936386672000026],[32.371475422999993,34.936332876999984],[32.371407154999986,34.936329436999983],[32.371350978999999,34.936298937999993],[32.371252461999973,34.936263263000001],[32.371135347000006,34.936206106999975],[32.371085044999973,34.936176626000019],[32.371031421999987,34.936128691000022],[32.370964078999975,34.936044771000013],[32.370888444000002,34.935964667000007],[32.37086898299998,34.935916027000019],[32.370851030999972,34.935838307999973],[32.370847196999989,34.935761673000002],[32.370836159000021,34.935697580999999],[32.370816337999997,34.935679972000003],[32.370820540000011,34.93562182300002],[32.370772170999999,34.935526412999991],[32.370711491999998,34.935374662000015],[32.370682145999979,34.935263882000015],[32.370642685999997,34.935213152000017],[32.370254074000002,34.934903695000003],[32.370029563000003,34.934764243000018],[32.369931125999983,34.934721780000018],[32.369794918000025,34.934686782000028],[32.369714176000002,34.934641544999977],[32.369679261999977,34.93460539199998],[32.369669846000022,34.934605316999978],[32.369644150999989,34.934586694000018],[32.369634909000013,34.934571107000011],[32.369598537000002,34.934559185000012],[32.369588295000028,34.934528074000013],[32.369563565000021,34.934527882999987],[32.369496035999987,34.934460444000024],[32.369464408999988,34.934445652000022],[32.369433829000002,34.934442508000018],[32.368986860999996,34.934292597000024],[32.36848489099998,34.934037558999989],[32.368433655999979,34.934011527999985],[32.368114602999981,34.933849420000001],[32.367961928999989,34.933915139000021],[32.367891083000018,34.933829249999974],[32.367616403999989,34.933445029999973],[32.367472734999978,34.933444882999993],[32.367374593000022,34.933274412000003],[32.367224123000028,34.932944496999994],[32.367157935000023,34.932862522999983],[32.367083546000003,34.932777574999989],[32.367025223999974,34.932728634],[32.367013057999998,34.932715975000008],[32.366964494000001,34.932685489999983],[32.366941090000012,34.932666761999997],[32.366908372000012,34.932650147999993],[32.36663519199999,34.932406521000019],[32.366510423000022,34.932295259],[32.366365438000003,34.932222694000018],[32.366335674000027,34.932187273000011],[32.366243162999979,34.932143067000027],[32.365948471000024,34.931970998999986],[32.365618546000007,34.931802285000003],[32.365591060999975,34.93178807999999],[32.365543644000013,34.931756658999973],[32.365476677000004,34.931661460999976],[32.365474639000013,34.931657734999987],[32.365471092999996,34.931649522999976],[32.365471076000006,34.931649493000009],[32.365469758000017,34.931647070999986],[32.365467697999975,34.931643285999996],[32.365401974000008,34.931559144000005],[32.365340806999995,34.931453944999987],[32.365324573000009,34.931314169000018],[32.365254651999976,34.931225068999993],[32.365235149,34.931200217000026],[32.365211063999993,34.931169523999984],[32.365186766000022,34.93115783899998],[32.365008612999986,34.931162169000004],[32.364935446999993,34.931147216999989],[32.364601806999985,34.931012353000028],[32.364504684999986,34.930956949999995],[32.364487505,34.930933822999975],[32.364481585000021,34.930910069999982],[32.364473357000008,34.930890099999999],[32.364468808000026,34.930864164000013],[32.364455759000009,34.930841155999985],[32.364441390000025,34.93082610099998],[32.364415588999975,34.930815386000006],[32.364331748999973,34.930817586999979],[32.364255479000008,34.930770995999978],[32.364092947000017,34.930637455999999],[32.363929325000015,34.930427221000002],[32.363899451000009,34.930388834999974],[32.363845309999988,34.930319268999995],[32.363772804000007,34.930249679999974],[32.363693522000005,34.930162806999988],[32.363589397999988,34.930110241000023],[32.363449892999995,34.930094764999978],[32.363428343999999,34.930169866000028],[32.36335088300001,34.930305297000018],[32.363311746000022,34.930327406000004],[32.363308059000019,34.930309766999983],[32.362690825000016,34.93006481499998],[32.362115088999985,34.929925818000015],[32.361653213000011,34.929900766000003],[32.361169808999989,34.929963153000017],[32.360841219999998,34.929965354999979],[32.360469147999993,34.930026426999973],[32.360016762999976,34.930139681000014],[32.359404476000009,34.930374767999979],[32.359058328000003,34.930475730000012],[32.358960605999982,34.93050423599999],[32.358789172000002,34.930533292000007],[32.358265691999975,34.930737199000021],[32.357948012999998,34.930746979999981],[32.357645296999976,34.930756272999986],[32.357400665,34.930795773999989],[32.357155302000024,34.930740265999987],[32.356556615999978,34.930670331999977],[32.356326911999986,34.93068655899998],[32.356038613999999,34.93071043499998],[32.355793011000003,34.930673560000002],[32.355343190999974,34.930688599000007],[32.354904768999972,34.930694426999992],[32.354188131000001,34.930507260000013],[32.353663956999981,34.930637964000027],[32.353406593999978,34.930405439000026],[32.35289493800002,34.930154565999999],[32.352905226000019,34.93000563999999],[32.352700524999989,34.929861984000013],[32.352073071000007,34.929598542000008],[32.351865705000023,34.929440907000014],[32.351685862000011,34.929346332000023],[32.351525007000021,34.929319442999997],[32.351395824000008,34.929256574000021],[32.351261534999992,34.929191218000028],[32.351038636999988,34.929082737999977],[32.35082731,34.929018187999986],[32.350599769999974,34.928892965999978],[32.350329781000028,34.928769745000011],[32.350238332000004,34.928680000999975],[32.349946165999995,34.928517627000019],[32.349636239000006,34.928400450000026],[32.349313830000028,34.928363503000014],[32.348900317000016,34.928416065000022],[32.348567315000025,34.92810622899998],[32.348413343999994,34.927962954999998],[32.348175360000027,34.927588603000004],[32.347676680999996,34.927181619999999],[32.347317556000007,34.926948262999986],[32.346417364999979,34.926792019000004],[32.345893002000025,34.926194118000012],[32.345380230999979,34.925805844000024],[32.345025127999975,34.925707536999994],[32.344984425999996,34.925567510000008],[32.344728982999982,34.925178996],[32.344098065000026,34.924973693000027],[32.343800500999976,34.925027156999988],[32.343405019999977,34.924993710000024],[32.343121943000028,34.925017035999986],[32.342641108999999,34.925027128000011],[32.342438458999993,34.924948667000024],[32.342231764000019,34.924737454000024],[32.341963442000008,34.924712006999982],[32.341594117999989,34.924620555999979],[32.34105406499998,34.924616200000003],[32.34075724600001,34.924609153999995],[32.340460061999977,34.924630030000003],[32.340306684999973,34.924592066000002],[32.339862013000015,34.92448202700001],[32.339691565999999,34.92459282599998],[32.339620787000001,34.924619330999974],[32.339475171999993,34.92461812900001],[32.339367369000001,34.92459790800001],[32.339073553999981,34.924417585000015],[32.33879817899998,34.924268340000026],[32.338480151999988,34.924149700999976],[32.337702827999976,34.923938325999984],[32.337585648000015,34.923918033999996],[32.337552850000009,34.923910033000027],[32.337530017999995,34.923855677999995],[32.337516338,34.923820754000019],[32.337319654999988,34.923768854000002],[32.337127393000003,34.923740211999984],[32.336754561000021,34.923489597000014],[32.336652024999978,34.923422995999999],[32.336475791999987,34.923232005999978],[32.336313522000012,34.923052746999986],[32.336201865000021,34.92296286200002],[32.336017728000002,34.922648016999972],[32.335833701000013,34.922325446999992],[32.335515489999977,34.922222268999974],[32.335437540999976,34.922063025999989],[32.335407440999973,34.922012191000022],[32.334712286000013,34.922714172999974],[32.333731923000016,34.923716888999991],[32.332989395000027,34.924459807000005],[32.332707331999984,34.924824716999979],[32.332621155000027,34.924936205999984],[32.332209221000028,34.925469123000028],[32.331990828000016,34.925737525999978],[32.331024911999975,34.926259389999984],[32.329412504000004,34.926186083000005],[32.328565454999989,34.926145675999976],[32.328047760999993,34.926120969999999],[32.326311169999997,34.926039308999975],[32.326246670999979,34.925964715000021],[32.326056402999995,34.925808285000016],[32.325995702,34.925757278999981],[32.325906260000011,34.925716143999978],[32.325661991000004,34.925629973000014],[32.32556433100001,34.925592138000013],[32.325433610999994,34.925584312000012],[32.325307291999991,34.925562420000006],[32.325371497999981,34.925311118000025],[32.32545915899999,34.92482708],[32.325465601000019,34.924631884999997],[32.325522556999999,34.92431928100001],[32.325565562000008,34.92414458899998],[32.325608697000007,34.923959787000001],[32.325696409999978,34.923469020000027],[32.325714651999988,34.923314313999981],[32.325774487999979,34.923099370999978],[32.325810294999997,34.922843811999996],[32.325871619999987,34.922507686000017],[32.325894284000015,34.92237766400001],[32.325915565000003,34.922255575999998],[32.325943963999975,34.921935987999973],[32.32597356399998,34.92151880199998],[32.326017588000013,34.92125996499999],[32.326036509999994,34.921048041000006],[32.326087599000005,34.920543496999983],[32.326099166000006,34.920264180000004],[32.326173025999992,34.91990457899999],[32.326217858999996,34.919578413000011],[32.326226441000017,34.919208181999977],[32.326241983999978,34.918938997999987],[32.326467938000008,34.918846615000007],[32.326792484000009,34.918714629000021],[32.326919868000004,34.918661827999983],[32.327136842000016,34.918636687999992],[32.327028085999984,34.918164484999977],[32.326988692999976,34.91807780900001],[32.326788455999974,34.918027515999995],[32.326655298999981,34.917964784999981],[32.326550468999983,34.917840685999977],[32.326434021000011,34.917700271000001],[32.326320849000012,34.917615004000027],[32.32623081700001,34.917568861000007],[32.326197157000024,34.917422648000013],[32.326147148000018,34.917324941000004],[32.326159200999996,34.917305569000007],[32.326218625000024,34.917276877000006],[32.326238943000021,34.917225164999991],[32.326228576000005,34.91710507099998],[32.32623440499998,34.916949455000008],[32.326255005000007,34.91687502100001],[32.326387497999974,34.916833230000009],[32.326265827999975,34.916832240000019],[32.32631528600001,34.916636708999988],[32.326323597999988,34.916359350999983],[32.326271604999988,34.916211404000023],[32.326271446000021,34.916210970000009],[32.32618727800002,34.916051814000014],[32.326187263999998,34.916051657000025],[32.32618835400001,34.915973201999975],[32.326188693000006,34.915971452000008],[32.326218970000014,34.915827890999992],[32.326205453,34.915803116000006],[32.326171718000012,34.915800076999972],[32.326121080000007,34.915799674000027],[32.326087538000024,34.915781326000001],[32.326037847999999,34.915703077999979],[32.325939932999972,34.915282466000008],[32.325886124000021,34.915124997000021],[32.325886120000007,34.91512495500001],[32.325900672999978,34.915037500999972],[32.325987478000002,34.914696230000004],[32.325993423999989,34.914619823999999],[32.325964081999985,34.914532029999975],[32.325893740000026,34.914431169000011],[32.325847977000024,34.914365626000006],[32.325756141999989,34.914284305000024],[32.325756096000021,34.914284273000021],[32.325570083000002,34.914187523999999],[32.325259915000004,34.914000889000022],[32.325210692999974,34.913882339999986],[32.325210675999983,34.913882316000013],[32.325046859999986,34.913750343000004],[32.325046831999998,34.913750316000005],[32.324955332999991,34.913639760000024],[32.324816439000017,34.913537197999972],[32.324556377000022,34.913407197000026],[32.324516357999983,34.913365137000028],[32.324514032000025,34.913349750000009],[32.324511690999998,34.913334530999975],[32.324569988000007,34.913236918999985],[32.324592654000014,34.91319894999998],[32.32459144500001,34.913158640999995],[32.324543150000011,34.913104018000013],[32.32454270400001,34.913103698999976],[32.324450984999999,34.913036970000007],[32.324436470000023,34.912994406999985],[32.32443635300001,34.912994063999975],[32.324436310999999,34.912993667000023],[32.324435574000006,34.912990073000003],[32.32443484700002,34.912986079000007],[32.324434192000012,34.912982047000014],[32.324433607999993,34.912978015000022],[32.324433141999975,34.912973984000018],[32.324432724000019,34.912969953000015],[32.324432424999998,34.912965903999975],[32.324432197000021,34.912961854000002],[32.324432064000007,34.912957785000003],[32.324431995999987,34.912953738999988],[32.324445518999994,34.912882180999986],[32.324445577000006,34.912881873999993],[32.324445797999999,34.912881474000017],[32.324472141000001,34.912833777000003],[32.324485101999983,34.912831095999991],[32.324511028000018,34.912825709000003],[32.324556325000003,34.912839317000021],[32.324568220999993,34.912842884999975],[32.324621334000028,34.912892643000021],[32.32469844100001,34.912964874000011],[32.324725543,34.912955346999979],[32.324727565999979,34.912952677000021],[32.324749612000005,34.912923590999981],[32.324799301999974,34.912792433999982],[32.324799351000024,34.912792339000021],[32.324799572000018,34.912792046999982],[32.324825965000002,34.912759573000017],[32.324875428999974,34.912715298000023],[32.324875614999996,34.912715132000017],[32.324875878,34.912714972000003],[32.324927049999985,34.912683952999998],[32.325008351999998,34.912653651000028],[32.325058406999972,34.912643849999995],[32.325058436000006,34.912643844999991],[32.325190701999986,34.912625336000019],[32.325462485000003,34.912587304999988],[32.325852429000008,34.912445859000002],[32.326011777000019,34.912412701999983],[32.32615202300002,34.912344583999982],[32.326252592999992,34.912295001000018],[32.326296760999981,34.912225665999983],[32.326317323000012,34.912186889999987],[32.326380271000005,34.912094468000021],[32.32639485499999,34.912010796000004],[32.326269901999979,34.911877419999996],[32.326267159999986,34.911874539999985],[32.326266035999993,34.911873121999975],[32.326173588000017,34.911760290000018],[32.326120906000028,34.911689942999999],[32.325947134999979,34.911511775999998],[32.32596064400002,34.911329793999982],[32.326083115000017,34.911396108000019],[32.326306923000004,34.911372340000014],[32.326593580999997,34.911355857999979],[32.326823703000002,34.911426925000001],[32.326832722000006,34.911393813000018],[32.326942727000016,34.911339000999988],[32.326993662999996,34.911290821000023],[32.327014351000003,34.911245955000027],[32.327224296999987,34.911198833000014],[32.327270952999982,34.911162462999982],[32.327470459999972,34.911094047999995],[32.327585386999999,34.911064058000022],[32.327639996000016,34.911005084999999],[32.327812160000008,34.910907082999984],[32.327930487000003,34.910830424999972],[32.328137189000017,34.910726473000011],[32.32832971900001,34.910645305999992],[32.328507770999977,34.910612377999996],[32.328705742000011,34.910592330999975],[32.328767132999985,34.910612758000013],[32.328827742999977,34.910615785000005],[32.328891211999974,34.910584906999986],[32.329064555000002,34.910428518000003],[32.329092381000009,34.910395478999988],[32.329221562999976,34.910347071999979],[32.329429794000021,34.910244410000018],[32.329567510000004,34.91017886100002],[32.329718857999978,34.910119881000014],[32.32982393399999,34.910097414000006],[32.329868981000004,34.910076146999984],[32.329921402000025,34.910040826999989],[32.329710238000018,34.909736403000011],[32.329633281999975,34.909633011999972],[32.329755846000012,34.909570846000008],[32.330252514999984,34.909320788999992],[32.330237355999998,34.909302842999978],[32.330855398999972,34.908965034000005],[32.331502641999975,34.908610461000023],[32.331696561000001,34.908503166000003],[32.331397289999984,34.90815887399998],[32.332592279999972,34.907112919999975],[32.332781250999972,34.906933139999978],[32.332956363999983,34.906767090000017],[32.332958039999994,34.90676774100001],[32.332990085999995,34.906797163000022],[32.332999185000006,34.906844003999993],[32.332812838999985,34.907675926000024],[32.332835380999995,34.907701023000016],[32.332869107000022,34.907738531000007],[32.333038961,34.907762814000023],[32.333437102999994,34.907617055000003],[32.333570534999978,34.907522770000014],[32.333655641000007,34.907462633000023],[32.33368262099998,34.907443568000019],[32.333684386000016,34.90743243899999],[32.333778427000027,34.907375867999974],[32.33401229499998,34.907263100000023],[32.334264116999975,34.907103941000003],[32.334264148999978,34.907103914999993],[32.334597578,34.906897758000014],[32.335389874999976,34.906407879000028],[32.335789367000018,34.906160867999972],[32.335948792000011,34.906062292000001],[32.336088714000027,34.905975775999991],[32.336312699000018,34.906057412999985],[32.336312712999984,34.906057381999972],[32.336404023,34.906092043000001],[32.336460795999983,34.906113592999986],[32.336493151000013,34.906116032],[32.336599229000001,34.906124069999976],[32.336599286000023,34.90612407399999],[32.336618326000007,34.906130465999979],[32.336624412999981,34.906132528000001],[32.336624443000005,34.906132538000008],[32.336749665000013,34.905775339999991],[32.33680039799998,34.905715930999975],[32.336891884000011,34.905639633000021],[32.336972274000004,34.905585117999976],[32.337239634000014,34.905453455999975],[32.337401076999981,34.905241268999987],[32.337426644999994,34.905235130999984],[32.337401005000004,34.905081709000001],[32.337308681000025,34.904995856000028],[32.337274332999982,34.904963914999996],[32.337195301999998,34.904813858000011],[32.337503798,34.904513649000023],[32.337645190999979,34.904291222999973],[32.337787333999984,34.904196894999984],[32.337827457000003,34.904166723000003],[32.337995374000002,34.904012792000003],[32.338003561999983,34.904005287000018],[32.338089314999991,34.903902034999987],[32.338275764000002,34.903677537000021],[32.338781605999998,34.903419428000007],[32.338926920999995,34.903388224000025],[32.339080579999973,34.903337647000001],[32.339181004000011,34.903288497000005],[32.33934310799998,34.903209161000007],[32.339579201999982,34.903120973999989],[32.339742727999976,34.903044594999983],[32.340065654,34.902894063000019],[32.340212346999976,34.902853557000014],[32.340498987999979,34.902766894000024],[32.340565078999987,34.902728169]]]},"properties":{"objectid":1235897,"site_id":555770459,"site_pid":"555770459","site_type":"PA","name_eng":"Faraggia - Falkonia-Koufwn-Avakas","name":"Faraggia - Falkonia-Koufwn-Avakas","desig":"Προστατευόμενα Τοπία","desig_eng":"Protected Landscape","desig_type":"National","iucn_cat":"V","int_crit":"Not Applicable","realm":"Terrestrial","rep_m_area":0,"gis_m_area":0.00067766000000000007,"rep_area":11.37663818,"gis_area":11.37663862,"no_take":"Not Applicable","no_tk_area":0,"status":"Designated","status_yr":1990,"gov_type":"Federal or national ministry or agency","verif":"State Verified","inlnd_wtrs":"Not Reported","own_type":"Not Reported","mang_auth":"Department of Town Planning and Housing","mang_plan":"Not Reported","cons_obj":"Not Applicable","supp_info":"Not Applicable","metadataid":2013,"prnt_iso3":"CYP","iso3":"CYP","govsubtype":"Not Applicable","ownsubtype":"Not Applicable","oecm_asmt":"Not Applicable","Shape__Area":0.0011221991356431839,"Shape__Length":0.24327857760155785}}]}