{
  "type": "FeatureCollection",
  "generator": "overpass-turbo",
  "copyright": "The data included in this document is from www.openstreetmap.org. The data is made available under ODbL.",
  "timestamp": "2026-09-02T21:13:35Z",
  "features": [
    {
      "type": "Feature",
      "properties": {
        "@id": "way/1265838808",
        "leisure": "park"
      },
      "geometry": {
        "type": "Polygon",
        "coordinates": [
          [
            [
              33.0170482,
              34.6918096
            ],
            [
              33.0167873,
              34.692149
            ],
            [
              33.0163889,
              34.6919419
            ],
            [
              33.0166498,
              34.6916025
            ],
            [
              33.0170482,
              34.6918096
            ]
          ]
        ]
      },
      "id": "way/1265838808"
    }
  ]
}