{
  "type": "FeatureCollection",
  "generator": "overpass-turbo",
  "copyright": "The data included in this document is from www.openstreetmap.org. The data is made available under ODbL.",
  "timestamp": "2026-09-02T21:07:31Z",
  "features": [
    {
      "type": "Feature",
      "properties": {
        "@id": "way/112318490",
        "bicycle": "no",
        "dog": "no",
        "inline_skates": "no",
        "landuse": "recreation_ground",
        "leisure": "park",
        "motor_vehicle": "no",
        "name": "Δημοτικός Κήπος Λεμεσού",
        "name:el": "Δημόσιος Κήπος",
        "name:en": "Limassol Municipal Garden",
        "name:ru": "Муниципальный парк Лимассола",
        "opening_hours": "Mar-Oct 07:00-20:30; Nov-Mar 07:00-19:30",
        "scooter": "no",
        "website": "https://www.limassolmunicipal.com.cy/",
        "wikidata": "Q130564504",
        "wikipedia": "en:Limassol Public Gardens"
      },
      "geometry": {
        "type": "Polygon",
        "coordinates": [
          [
            [
              33.0529195,
              34.6843107
            ],
            [
              33.0529224,
              34.6842754
            ],
            [
              33.0533436,
              34.6837046
            ],
            [
              33.0539525,
              34.6828267
            ],
            [
              33.0545404,
              34.6820846
            ],
            [
              33.0547231,
              34.6818409
            ],
            [
              33.0548934,
              34.6816019
            ],
            [
              33.0550005,
              34.6815732
            ],
            [
              33.0550972,
              34.6815779
            ],
            [
              33.0554269,
              34.6817873
            ],
            [
              33.0555533,
              34.6818676
            ],
            [
              33.0561497,
              34.6822463
            ],
            [
              33.0565936,
              34.6825283
            ],
            [
              33.0555137,
              34.6841116
            ],
            [
              33.0553783,
              34.6842918
            ],
            [
              33.0551355,
              34.6846316
            ],
            [
              33.0548316,
              34.6851484
            ],
            [
              33.0543464,
              34.6849001
            ],
            [
              33.0542711,
              34.6848671
            ],
            [
              33.054081,
              34.6847753
            ],
            [
              33.0539895,
              34.6847056
            ],
            [
              33.0539283,
              34.6846732
            ],
            [
              33.0534047,
              34.6844771
            ],
            [
              33.0530513,
              34.684365
            ],
            [
              33.0529195,
              34.6843107
            ]
          ]
        ]
      },
      "id": "way/112318490"
    }
  ]
}