{
  "type": "FeatureCollection",
  "generator": "overpass-turbo",
  "copyright": "The data included in this document is from www.openstreetmap.org. The data is made available under ODbL.",
  "timestamp": "2026-08-26T21:38:50Z",
  "features": [
    {
      "type": "Feature",
      "properties": {
        "@id": "relation/3048699",
        "boundary": "national_park",
        "leisure": "park",
        "name:en": "National Forest Park of the Pedagogical Institute",
        "type": "multipolygon"
      },
      "geometry": {
        "type": "Polygon",
        "coordinates": [
          [
            [
              33.37933,
              35.160524
            ],
            [
              33.3791417,
              35.1602318
            ],
            [
              33.379032,
              35.1600686
            ],
            [
              33.3790633,
              35.1599651
            ],
            [
              33.3789378,
              35.1597785
            ],
            [
              33.3787613,
              35.1596457
            ],
            [
              33.3786568,
              35.1595644
            ],
            [
              33.3785892,
              35.1595733
            ],
            [
              33.3785552,
              35.1596357
            ],
            [
              33.378507,
              35.1595232
            ],
            [
              33.3784125,
              35.1593982
            ],
            [
              33.3783192,
              35.1593293
            ],
            [
              33.3780145,
              35.159184
            ],
            [
              33.3778434,
              35.1590528
            ],
            [
              33.3776659,
              35.1591671
            ],
            [
              33.3773735,
              35.1593245
            ],
            [
              33.3771512,
              35.1591396
            ],
            [
              33.3770736,
              35.1591392
            ],
            [
              33.3770791,
              35.1590804
            ],
            [
              33.376788,
              35.1590231
            ],
            [
              33.3766016,
              35.1590178
            ],
            [
              33.3763608,
              35.1590094
            ],
            [
              33.3763524,
              35.1590576
            ],
            [
              33.3759711,
              35.1590286
            ],
            [
              33.3759226,
              35.1590039
            ],
            [
              33.3757796,
              35.1589734
            ],
            [
              33.3757542,
              35.1589589
            ],
            [
              33.3758677,
              35.1586328
            ],
            [
              33.375924,
              35.1584726
            ],
            [
              33.375945,
              35.1583543
            ],
            [
              33.375946,
              35.1583119
            ],
            [
              33.3759401,
              35.1582771
            ],
            [
              33.3768443,
              35.1581112
            ],
            [
              33.3770181,
              35.1580793
            ],
            [
              33.3767647,
              35.1572169
            ],
            [
              33.3767077,
              35.1570228
            ],
            [
              33.3762973,
              35.1570894
            ],
            [
              33.3756418,
              35.1572434
            ],
            [
              33.3753826,
              35.1564418
            ],
            [
              33.3753255,
              35.1562997
            ],
            [
              33.37526,
              35.1561265
            ],
            [
              33.3751817,
              35.1560489
            ],
            [
              33.3751103,
              35.1560096
            ],
            [
              33.3750049,
              35.1559429
            ],
            [
              33.3749718,
              35.1559074
            ],
            [
              33.3749349,
              35.1558644
            ],
            [
              33.3749258,
              35.1558255
            ],
            [
              33.3749371,
              35.1557899
            ],
            [
              33.375011,
              35.1557358
            ],
            [
              33.3750704,
              35.1556662
            ],
            [
              33.3751199,
              35.1555965
            ],
            [
              33.375162,
              35.1555246
            ],
            [
              33.3752304,
              35.1553746
            ],
            [
              33.3752622,
              35.1552712
            ],
            [
              33.3753004,
              35.1552243
            ],
            [
              33.3756709,
              35.1551136
            ],
            [
              33.3757038,
              35.1551503
            ],
            [
              33.3766604,
              35.1552734
            ],
            [
              33.376857,
              35.1553667
            ],
            [
              33.3781931,
              35.1554447
            ],
            [
              33.3791386,
              35.1555421
            ],
            [
              33.3802769,
              35.155639
            ],
            [
              33.3815628,
              35.1557541
            ],
            [
              33.3818885,
              35.1557993
            ],
            [
              33.3820173,
              35.1558129
            ],
            [
              33.3821729,
              35.1558244
            ],
            [
              33.3823096,
              35.1558332
            ],
            [
              33.3825334,
              35.1558807
            ],
            [
              33.382693,
              35.1559584
            ],
            [
              33.3828562,
              35.156104
            ],
            [
              33.3831591,
              35.1564241
            ],
            [
              33.3836184,
              35.1568981
            ],
            [
              33.383713,
              35.1569948
            ],
            [
              33.3838089,
              35.1570964
            ],
            [
              33.3839663,
              35.1572479
            ],
            [
              33.3839945,
              35.1573257
            ],
            [
              33.3845708,
              35.1573286
            ],
            [
              33.3845926,
              35.1574629
            ],
            [
              33.383774,
              35.1579084
            ],
            [
              33.3835186,
              35.1581024
            ],
            [
              33.3834955,
              35.1581463
            ],
            [
              33.3832139,
              35.1583735
            ],
            [
              33.3833174,
              35.1591582
            ],
            [
              33.38332,
              35.1592841
            ],
            [
              33.3833009,
              35.1593531
            ],
            [
              33.3833264,
              35.1594243
            ],
            [
              33.3833319,
              35.1595118
            ],
            [
              33.3833577,
              35.1595627
            ],
            [
              33.3834175,
              35.1596668
            ],
            [
              33.38346,
              35.1597822
            ],
            [
              33.3836351,
              35.1600342
            ],
            [
              33.3836698,
              35.1601018
            ],
            [
              33.383829,
              35.1600558
            ],
            [
              33.3839789,
              35.1601467
            ],
            [
              33.3844014,
              35.1600491
            ],
            [
              33.3844882,
              35.1601429
            ],
            [
              33.3846932,
              35.1604984
            ],
            [
              33.3850101,
              35.1609302
            ],
            [
              33.3857346,
              35.161858
            ],
            [
              33.384705,
              35.1628575
            ],
            [
              33.3841883,
              35.1634109
            ],
            [
              33.3837525,
              35.1638322
            ],
            [
              33.3836406,
              35.1639473
            ],
            [
              33.3834272,
              35.1641493
            ],
            [
              33.3830431,
              35.1645135
            ],
            [
              33.3828524,
              35.164171
            ],
            [
              33.3826698,
              35.1637928
            ],
            [
              33.3825507,
              35.1635715
            ],
            [
              33.3824188,
              35.1633187
            ],
            [
              33.3823597,
              35.1632974
            ],
            [
              33.3819394,
              35.1633132
            ],
            [
              33.3819461,
              35.1632444
            ],
            [
              33.3817494,
              35.1632251
            ],
            [
              33.3817456,
              35.1633465
            ],
            [
              33.3818078,
              35.1633555
            ],
            [
              33.38164,
              35.1639554
            ],
            [
              33.3813687,
              35.1638732
            ],
            [
              33.381112,
              35.1638012
            ],
            [
              33.3809762,
              35.1637536
            ],
            [
              33.381146,
              35.1630633
            ],
            [
              33.3804276,
              35.1628573
            ],
            [
              33.3798817,
              35.1626105
            ],
            [
              33.3798644,
              35.162572
            ],
            [
              33.379983,
              35.1623607
            ],
            [
              33.3795455,
              35.1620525
            ],
            [
              33.379737,
              35.1618168
            ],
            [
              33.3797853,
              35.1617666
            ],
            [
              33.3796512,
              35.1615122
            ],
            [
              33.3796382,
              35.1614973
            ],
            [
              33.379611,
              35.1614659
            ],
            [
              33.3795847,
              35.161328
            ],
            [
              33.3795603,
              35.1609751
            ],
            [
              33.3795117,
              35.1607403
            ],
            [
              33.37933,
              35.160524
            ]
          ],
          [
            [
              33.3803723,
              35.156007
            ],
            [
              33.3803673,
              35.1558985
            ],
            [
              33.3782634,
              35.1557024
            ],
            [
              33.3782598,
              35.1559183
            ],
            [
              33.3775011,
              35.1559169
            ],
            [
              33.3775417,
              35.1562255
            ],
            [
              33.3773273,
              35.1562375
            ],
            [
              33.3773799,
              35.1566464
            ],
            [
              33.3775921,
              35.1566552
            ],
            [
              33.3782477,
              35.1572876
            ],
            [
              33.3788288,
              35.157299
            ],
            [
              33.3788537,
              35.1571986
            ],
            [
              33.3793185,
              35.1571892
            ],
            [
              33.3795855,
              35.1573762
            ],
            [
              33.3796878,
              35.157365
            ],
            [
              33.3797124,
              35.1573612
            ],
            [
              33.3801965,
              35.1574325
            ],
            [
              33.3803923,
              35.1574329
            ],
            [
              33.3804035,
              35.1574452
            ],
            [
              33.3804931,
              35.1574872
            ],
            [
              33.3805027,
              35.1575179
            ],
            [
              33.3805033,
              35.1575198
            ],
            [
              33.3804275,
              35.1575463
            ],
            [
              33.380473,
              35.1575485
            ],
            [
              33.3804092,
              35.1575845
            ],
            [
              33.3802177,
              35.1576256
            ],
            [
              33.3802244,
              35.1578284
            ],
            [
              33.3802328,
              35.1583227
            ],
            [
              33.3818019,
              35.1583008
            ],
            [
              33.3817748,
              35.1575903
            ],
            [
              33.3817724,
              35.1575289
            ],
            [
              33.3817701,
              35.1574985
            ],
            [
              33.3817107,
              35.1566385
            ],
            [
              33.3817061,
              35.1562125
            ],
            [
              33.3816839,
              35.1560486
            ],
            [
              33.3808015,
              35.1560157
            ],
            [
              33.3803723,
              35.156007
            ]
          ],
          [
            [
              33.377869,
              35.1577281
            ],
            [
              33.3778591,
              35.1578175
            ],
            [
              33.3779307,
              35.1578599
            ],
            [
              33.37802,
              35.1579104
            ],
            [
              33.3781327,
              35.1579367
            ],
            [
              33.3782319,
              35.1579543
            ],
            [
              33.3783472,
              35.1579543
            ],
            [
              33.3784438,
              35.1578271
            ],
            [
              33.3783763,
              35.1577896
            ],
            [
              33.3782768,
              35.1577325
            ],
            [
              33.3781675,
              35.1576735
            ],
            [
              33.378062,
              35.1576293
            ],
            [
              33.3780083,
              35.157616
            ],
            [
              33.3779597,
              35.1576223
            ],
            [
              33.3779303,
              35.1576488
            ],
            [
              33.3778985,
              35.1576884
            ],
            [
              33.377869,
              35.1577281
            ]
          ],
          [
            [
              33.3787949,
              35.1593548
            ],
            [
              33.3787494,
              35.1593099
            ],
            [
              33.3789649,
              35.1592635
            ],
            [
              33.3790142,
              35.1591141
            ],
            [
              33.3790362,
              35.1590121
            ],
            [
              33.3791401,
              35.1588993
            ],
            [
              33.3791947,
              35.1588149
            ],
            [
              33.3791956,
              35.1587698
            ],
            [
              33.3789731,
              35.158557
            ],
            [
              33.3787203,
              35.1588286
            ],
            [
              33.3786232,
              35.1587885
            ],
            [
              33.3785349,
              35.1588804
            ],
            [
              33.3784599,
              35.1588439
            ],
            [
              33.3783891,
              35.1589263
            ],
            [
              33.3783045,
              35.1590402
            ],
            [
              33.3784387,
              35.1591299
            ],
            [
              33.3785433,
              35.1590343
            ],
            [
              33.3785728,
              35.1589417
            ],
            [
              33.3786656,
              35.1590322
            ],
            [
              33.3786462,
              35.1591967
            ],
            [
              33.3785436,
              35.1592395
            ],
            [
              33.3784111,
              35.159305
            ],
            [
              33.3785291,
              35.1594411
            ],
            [
              33.378572,
              35.15948
            ],
            [
              33.3786636,
              35.159429
            ],
            [
              33.3787949,
              35.1593548
            ]
          ]
        ]
      },
      "id": "relation/3048699"
    }
  ]
}
