{"type":"FeatureCollection","features":[{"type":"Feature","id":1125187,"geometry":{"type":"Polygon","coordinates":[[[32.303622933999975,34.972960838999995],[32.303511211999989,34.972393273000023],[32.303500885000005,34.972296841999992],[32.303620161000026,34.971073070999978],[32.30373425099998,34.970737510999982],[32.304012123999996,34.970155212000009],[32.304192635999982,34.96935897100002],[32.304192747000002,34.968738210000026],[32.304056011,34.968356582000013],[32.303647404999992,34.967880488999981],[32.303035196999986,34.967325270000003],[32.302032553000004,34.966615696000019],[32.301556496999979,34.966189962999977],[32.301314564999984,34.965804246999994],[32.301307456000018,34.965310593000027],[32.301322341999992,34.963204669999982],[32.301286634999997,34.961531567000009],[32.301157741999987,34.961157614000001],[32.301092906000008,34.96076149999999],[32.300384040999973,34.959251424000001],[32.300358903000017,34.958775504000016],[32.300254450000011,34.958146263999993],[32.300049005000005,34.957531382000013],[32.299638194000011,34.956019050999998],[32.299609471999986,34.955466225000009],[32.299497786000018,34.954960729999982],[32.299487082999974,34.954473370000017],[32.299505414999999,34.953222200000027],[32.299444246000007,34.952622120000001],[32.299433494000027,34.952335386000016],[32.299540348999983,34.951709010999991],[32.299764106999987,34.951052812],[32.30012098100002,34.950565251],[32.300342270999977,34.949686411000016],[32.300403689999996,34.94921936999998],[32.300465206000013,34.948305973000004],[32.300791294000021,34.947429746000012],[32.301076282999986,34.947030728000016],[32.301303533000009,34.946791324999992],[32.301819323000018,34.946353911000017],[32.302331433000006,34.946238698999991],[32.303712631999986,34.946200452000028],[32.30427156899998,34.946383792000006],[32.305349396999986,34.946392607999996],[32.306074323000018,34.945934509999972],[32.306182584999988,34.94547043],[32.305987972000025,34.944706442999973],[32.305722016999994,34.94436771300002],[32.305220845000008,34.943874005999987],[32.304964876999975,34.943483785000012],[32.304776324999978,34.942767278000019],[32.304798233999975,34.941198218000011],[32.305167055000027,34.939214833999984],[32.305493929000022,34.938023432000023],[32.305663448000018,34.937768498000025],[32.305923108999991,34.937517266999976],[32.306312584000011,34.937242400999992],[32.307299209999996,34.937246565999999],[32.308085290000008,34.937190476000012],[32.308846147999986,34.936983621000024],[32.309167075999994,34.936927484000023],[32.309844999999996,34.936744261999991],[32.310258558999976,34.936427423999987],[32.31089324200002,34.935818532999974],[32.311493637000012,34.93520597600002],[32.31182540399999,34.934771464999983],[32.312413961999994,34.933664920000012],[32.312898404000009,34.932506373000024],[32.31338198200001,34.931416099999979],[32.313436095999975,34.930957922000005],[32.313747343999978,34.930201986999975],[32.31387718000002,34.929610791000016],[32.314226976999976,34.928595358999985],[32.314486607999982,34.92767900299998],[32.314725991999978,34.926570120000008],[32.314939267,34.926069396999992],[32.315307158999985,34.924917605000019],[32.315507425000021,34.924059198000009],[32.31552164499999,34.922853658999998],[32.315496375000009,34.922484032],[32.315366461999986,34.921975370999974],[32.315389148000008,34.919430551000005],[32.315741074000016,34.918675269999994],[32.316145885000026,34.918158947999984],[32.316685985999982,34.917276703000027],[32.317047732999981,34.91612834],[32.317166061000023,34.915392726999983],[32.317387955000015,34.914891527000009],[32.317446573999973,34.914369726000018],[32.31779272,34.913911535000011],[32.318070596999974,34.913252805000013],[32.318150141999979,34.912799661999998],[32.318434817000025,34.912109649000001],[32.318431920000023,34.912023816999977],[32.326520689000006,34.912082731999988],[32.327475976000017,34.911872500000015],[32.327594730999976,34.912331768999991],[32.327363380999998,34.912518696000006],[32.327248231999988,34.912643940000009],[32.327139740999996,34.912892922000026],[32.326498915999991,34.913210499000002],[32.326233521999995,34.913262515999975],[32.326018576000024,34.913345076999974],[32.326192122999998,34.913470512999993],[32.326223758000026,34.913530372000025],[32.326528295000003,34.91369539599998],[32.326771161000011,34.913929853000013],[32.32699338499998,34.914249558999984],[32.327049991000024,34.914425849999986],[32.326970741000025,34.914931715000023],[32.327053669999998,34.915216097999973],[32.327352781000002,34.915748040999972],[32.327305557999978,34.915964122999981],[32.327410320000013,34.916242651999994],[32.327403569000012,34.916813970000021],[32.327316075999988,34.917078752000009],[32.327310656999998,34.917242472999988],[32.327376601000026,34.917338975000007],[32.327645771999983,34.917419176999999],[32.328016053999988,34.917476211999997],[32.328430638999976,34.917838597000014],[32.329099471999996,34.918823804999988],[32.327854949000027,34.919386212999996],[32.327387564999981,34.919487842000024],[32.327293469999972,34.919488838999996],[32.327291725999999,34.919780215000003],[32.327167200000019,34.920374190000018],[32.327138063000007,34.920837119999987],[32.327037910999991,34.921667012],[32.32697783499998,34.922425750999992],[32.326846418999992,34.92325735999998],[32.326512369,34.92474415800001],[32.326510854999981,34.925027734000025],[32.326445256,34.925445114000013],[32.326333197999986,34.925884042999996],[32.326145974999974,34.926277029000005],[32.326106630000027,34.926403800999992],[32.325790482000002,34.926758683000003],[32.325597107000021,34.926856014999998],[32.325364465000007,34.927184402000023],[32.325256156000023,34.927533918999984],[32.32517956800001,34.927756948000024],[32.324630549000005,34.927992444999973],[32.324108991999992,34.928335445000016],[32.323697220999975,34.928579551999974],[32.323432783999976,34.928611268999987],[32.32335565599999,34.928793804999998],[32.323244976000012,34.928879214999995],[32.323054617000025,34.929110003000005],[32.322866197999986,34.929217591999986],[32.32277105999998,34.929345882999996],[32.322471001999986,34.929698023000014],[32.322186878000025,34.929917687],[32.322140063999996,34.929921771000011],[32.322027606999995,34.930014153000002],[32.322039124000014,34.930231391999996],[32.321922335000011,34.930395388000022],[32.321838577999983,34.93059619600001],[32.321769033999999,34.930699491999974],[32.321319873999983,34.931111723000015],[32.321380942000019,34.931691930999989],[32.321124119999979,34.931964834999974],[32.321119414000009,34.932365937999975],[32.320651146999978,34.932711600000005],[32.320578548000015,34.933029933],[32.320689818999995,34.933339779999983],[32.320695722999972,34.933434009999985],[32.320503878000011,34.933959709000021],[32.320356747999995,34.934377476999998],[32.320119772999988,34.935003139999992],[32.320002870999986,34.935266050999985],[32.320095216000027,34.9355501],[32.320112116000018,34.936349047000022],[32.320066591999989,34.936650455999995],[32.319724929000017,34.937121289000004],[32.319423110999992,34.937292022999998],[32.319321942999977,34.937608226000009],[32.319223797999996,34.938268606000008],[32.318981528999984,34.938865711999995],[32.31843444499998,34.939474306000022],[32.318236642999977,34.939959411000018],[32.317963915999997,34.940424607000011],[32.317654673999982,34.940771783000002],[32.31724250000002,34.941084498999999],[32.31650050799999,34.941459157999986],[32.315938048000021,34.941480112000022],[32.315112989999989,34.942008820000012],[32.314773070000001,34.942471850999993],[32.314651167000022,34.942532014999983],[32.314651460999983,34.942574051999998],[32.315841638999984,34.942967113000009],[32.314782686000001,34.943983198000012],[32.314653699000019,34.944270157000005],[32.314297249999981,34.94446990199998],[32.314217586999973,34.945924116000015],[32.314007302999983,34.946534014999997],[32.313694874000021,34.947274586999981],[32.313504745999978,34.947613890000014],[32.313211867999996,34.948073009999973],[32.312666695000019,34.948689538999986],[32.312162171000011,34.949120476000019],[32.311625800999991,34.949440072000016],[32.311241058000007,34.949660807999976],[32.310544682999989,34.949856839000006],[32.309732046000022,34.950034194000011],[32.308917468000004,34.950086264999982],[32.308351416999983,34.950006506000022],[32.307607872000006,34.949773263999987],[32.307248515000026,34.949500480999973],[32.30685766900001,34.949622545000011],[32.306338470000014,34.950222927000027],[32.306000456999982,34.950278334000018],[32.305437644999984,34.950472015999992],[32.304858086000024,34.95036816999999],[32.304720793999991,34.950475736999977],[32.304210097999999,34.950568336999993],[32.303657518000023,34.950788879000015],[32.30318268000002,34.950749912999981],[32.303202021000004,34.950867370000026],[32.303130221000004,34.951043805999973],[32.303202670000019,34.951107614000023],[32.303420261999975,34.951459414999988],[32.303474896000012,34.95179807300002],[32.303589476000013,34.952052987999991],[32.303900564999992,34.952528234999988],[32.303659089999996,34.953081235000013],[32.303670176000026,34.953381080999975],[32.303547444999992,34.953828126000019],[32.303371405000007,34.954085154999973],[32.30320642800001,34.954277207000018],[32.303299106999987,34.954546999000002],[32.303277578000007,34.954753733000018],[32.303097899000022,34.955276599000001],[32.303095353000003,34.955446020000011],[32.302692351000019,34.956021115999988],[32.302641372999972,34.956154733999995],[32.302695303000007,34.956201430000021],[32.302758600000004,34.956198952000022],[32.302927103999991,34.956162264999989],[32.303302513000006,34.956966399999999],[32.303302443999996,34.957158834999973],[32.303248498000016,34.957329425000012],[32.303477876999978,34.957675344999984],[32.303489354000021,34.958273613000017],[32.303745278999997,34.958304354999996],[32.303950020999991,34.958430458999999],[32.304135013999996,34.958293165999976],[32.304075114,34.958066008000003],[32.304057098999976,34.957807881000008],[32.304068931000018,34.957569499999977],[32.304156243000023,34.957248554999978],[32.304393844999993,34.956870261000006],[32.304706058000022,34.956570650000003],[32.305063935000021,34.956358968000018],[32.305461392999973,34.956280334999974],[32.305726832000005,34.956275973000004],[32.306003486999998,34.956219658999999],[32.306517784999983,34.956227597000009],[32.306821308999986,34.956081820000009],[32.307236444000011,34.955977604999987],[32.307874989000027,34.955999279000025],[32.309193412000013,34.956389683999987],[32.310308823000014,34.956957932000023],[32.310458438000012,34.957093269999973],[32.310708915000021,34.957207602999972],[32.311555969999972,34.957895192000024],[32.312336626999979,34.958717110000009],[32.312782390999985,34.95948267],[32.312773078000021,34.959741983000015],[32.312807125999996,34.959849554000016],[32.313017123999998,34.960079719000021],[32.313308984999992,34.960576031000016],[32.313652672999979,34.96124550899998],[32.314195921000021,34.961761978000027],[32.314585281000006,34.962645591000012],[32.314759356000025,34.963476352999976],[32.314785190999999,34.964067377999982],[32.31453282199999,34.964540054999986],[32.314451506000012,34.964836601999991],[32.314306516999977,34.965135201999999],[32.313985758000001,34.965418652999972],[32.313818148999985,34.965631196999993],[32.313458980000007,34.965971695999997],[32.313442479000003,34.966427376000013],[32.313401035000027,34.966598319000013],[32.313249438000014,34.966906542999993],[32.313220071999979,34.967159174000017],[32.313080458000002,34.967482629000017],[32.312838584000019,34.967803999000012],[32.312527973999977,34.968064848999973],[32.312251344999993,34.968191048999984],[32.31216875299998,34.968404518999989],[32.312025396000024,34.968622863999997],[32.311847403999991,34.968870261999996],[32.311444759999972,34.969161722000024],[32.311205656000027,34.969284544999994],[32.310935003999987,34.969384691000016],[32.310810181000022,34.969545558999982],[32.31077374900002,34.969692098999985],[32.310677672999986,34.969941646999985],[32.310688285000026,34.970262837999996],[32.310538038000004,34.970615996999982],[32.31045612600002,34.971009659000003],[32.310471640999992,34.97137273300001],[32.310268367999981,34.972017261000019],[32.31013985300001,34.972248313000023],[32.310365633000004,34.972402283000008],[32.310566041000016,34.972597599999972],[32.310803614999998,34.972977919000016],[32.311265671000001,34.973108095999976],[32.311486381999998,34.973188454000024],[32.311658987999976,34.973217782999996],[32.311972611999977,34.973345895000023],[32.312319317999993,34.973630995999997],[32.312527769999974,34.973857224000028],[32.312677270999984,34.974080072999982],[32.312731851000024,34.974525415000016],[32.312743375000025,34.974692715999993],[32.312920313000006,34.974996959000009],[32.31298211699999,34.975198093000017],[32.312978884000017,34.975424750000002],[32.313087611000014,34.975655754999991],[32.313073443999997,34.976112594000028],[32.312960137999994,34.976330772999972],[32.312925946000007,34.976685068999984],[32.312868512000023,34.977388755999982],[32.312663321999992,34.977930625999988],[32.312768516000006,34.978036454000005],[32.312827814999991,34.978174665999973],[32.313315170999999,34.978660311999988],[32.313505593999992,34.978895083999987],[32.314113195000004,34.979365658999996],[32.314354192999986,34.979789571000026],[32.314504345999978,34.980388528999981],[32.314541196999983,34.981012206000003],[32.313523184000019,34.981045940000001],[32.305858466000018,34.980994936999991],[32.305837153000027,34.980972398000006],[32.306054226000015,34.980618189999973],[32.306263623000007,34.980046501999993],[32.306280586000014,34.97936070999998],[32.306310143000019,34.978969075000009],[32.306240706999972,34.978377019999982],[32.305767688000003,34.977585773999976],[32.305242962000023,34.976890433999984],[32.304762804999996,34.975680997999973],[32.304291524999996,34.974993998000002],[32.304092600999979,34.974281028999997],[32.303744418000008,34.973407198000018],[32.303622933999975,34.972960838999995]]]},"properties":{"objectid":1125187,"site_id":555599911,"site_pid":"555599911","site_type":"PA","name_eng":"Lara-Toxeftra Turtle Reserve","name":"Lara-Toxeftra Turtle Reserve","desig":"Specially Protected Areas of Mediterranean Importance (Barcelona Convention)","desig_eng":"Specially Protected Areas of Mediterranean Importance (Barcelona Convention)","desig_type":"Regional","iucn_cat":"Not Assigned","int_crit":"Not Applicable","realm":"Coastal","rep_m_area":0,"gis_m_area":5.4601786899999993,"rep_area":5.9500000000000002,"gis_area":6.7312087800000002,"no_take":"Not Reported","no_tk_area":0,"status":"Adopted","status_yr":2013,"gov_type":"Federal or national ministry or agency","verif":"State Verified","inlnd_wtrs":"Not Reported","own_type":"Not Reported","mang_auth":"Not Reported","mang_plan":"Not Reported","cons_obj":"Not Applicable","supp_info":"Not Applicable","metadataid":1675,"prnt_iso3":"CYP","iso3":"CYP","govsubtype":"Not Applicable","ownsubtype":"Not Applicable","oecm_asmt":"Not Applicable","Shape__Area":0.00066420441072206947,"Shape__Length":0.20558067203807537}}]}