{
  "type": "Feature",
  "properties": {},
  "geometry": {
    "type": "LineString",
    "coordinates": [
      [
        32.881130000000006,
        34.92047
      ],
      [
        32.880810000000004,
        34.92014
      ],
      [
        32.88073,
        34.920030000000004
      ],
      [
        32.88071,
        34.919830000000005
      ],
      [
        32.880630000000004,
        34.919650000000004
      ],
      [
        32.88074,
        34.91946
      ],
      [
        32.88069,
        34.91939
      ],
      [
        32.880570000000006,
        34.919340000000005
      ],
      [
        32.880500000000005,
        34.91922
      ],
      [
        32.88058,
        34.919090000000004
      ],
      [
        32.88049,
        34.91895
      ],
      [
        32.88038,
        34.918510000000005
      ],
      [
        32.880390000000006,
        34.91843
      ],
      [
        32.880480000000006,
        34.91834
      ],
      [
        32.88073,
        34.9183
      ],
      [
        32.88103,
        34.91812
      ],
      [
        32.881150000000005,
        34.91778
      ],
      [
        32.88134,
        34.917530000000006
      ],
      [
        32.8815,
        34.917370000000005
      ],
      [
        32.88159,
        34.91724
      ],
      [
        32.881820000000005,
        34.91718
      ],
      [
        32.882250000000006,
        34.917210000000004
      ],
      [
        32.882630000000006,
        34.91718
      ],
      [
        32.88286,
        34.91713
      ],
      [
        32.88297,
        34.91707
      ],
      [
        32.883100000000006,
        34.916920000000005
      ],
      [
        32.88342,
        34.91669
      ],
      [
        32.883610000000004,
        34.9163
      ],
      [
        32.883760000737794,
        34.915855000315844
      ],
      [
        32.88391,
        34.91541
      ],
      [
        32.88393,
        34.91526
      ],
      [
        32.884100000000004,
        34.91521
      ],
      [
        32.88431,
        34.91528
      ],
      [
        32.88458,
        34.915200000000006
      ],
      [
        32.88478,
        34.91523
      ],
      [
        32.884910000000005,
        34.915220000000005
      ],
      [
        32.885000000000005,
        34.915130000000005
      ],
      [
        32.885470000000005,
        34.9149
      ],
      [
        32.88584,
        34.914880000000004
      ],
      [
        32.885960000000004,
        34.914820000000006
      ],
      [
        32.88627,
        34.91476
      ],
      [
        32.88669,
        34.91458
      ],
      [
        32.8873,
        34.91427
      ],
      [
        32.88761,
        34.91423
      ],
      [
        32.887930000000004,
        34.91411
      ],
      [
        32.88834,
        34.914100000000005
      ],
      [
        32.888510000000004,
        34.91407
      ],
      [
        32.88864,
        34.91395
      ],
      [
        32.888980000000004,
        34.91391
      ],
      [
        32.889230000000005,
        34.91391
      ],
      [
        32.88951,
        34.91376
      ],
      [
        32.8898,
        34.91364
      ],
      [
        32.890010000000004,
        34.91369
      ],
      [
        32.890080000000005,
        34.91366
      ],
      [
        32.89029,
        34.913410000000006
      ],
      [
        32.89047,
        34.913340000000005
      ],
      [
        32.89058,
        34.91324
      ],
      [
        32.89061,
        34.91306
      ],
      [
        32.890710000000006,
        34.912960000000005
      ],
      [
        32.890980000000006,
        34.91279
      ],
      [
        32.891420000000004,
        34.91263
      ],
      [
        32.891580000000005,
        34.912530000000004
      ],
      [
        32.89173,
        34.91241
      ],
      [
        32.89188,
        34.912150000000004
      ],
      [
        32.89197,
        34.911880000000004
      ],
      [
        32.892210000000006,
        34.91172
      ],
      [
        32.89256,
        34.91156
      ],
      [
        32.89278,
        34.91132
      ],
      [
        32.893,
        34.91093
      ],
      [
        32.89318,
        34.910720000000005
      ],
      [
        32.893440000000005,
        34.910560000000004
      ],
      [
        32.89358,
        34.910450000000004
      ],
      [
        32.893800000000006,
        34.91035
      ],
      [
        32.89399,
        34.910320000000006
      ],
      [
        32.89415,
        34.910160000000005
      ],
      [
        32.89443,
        34.90997
      ],
      [
        32.89448,
        34.909800000000004
      ],
      [
        32.89446,
        34.9097
      ],
      [
        32.894560000000006,
        34.909380000000006
      ],
      [
        32.894560000000006,
        34.909150000000004
      ],
      [
        32.894490000000005,
        34.909000000000006
      ],
      [
        32.894510000000004,
        34.908950000000004
      ],
      [
        32.894580000000005,
        34.90894
      ],
      [
        32.894670000000005,
        34.90901
      ],
      [
        32.89475,
        34.90903
      ],
      [
        32.89493,
        34.90917
      ],
      [
        32.895050000000005,
        34.909380000000006
      ],
      [
        32.89513,
        34.90939
      ],
      [
        32.89524,
        34.90932
      ],
      [
        32.89547,
        34.90925
      ],
      [
        32.895720000000004,
        34.90925
      ],
      [
        32.895860000000006,
        34.90937
      ],
      [
        32.895990000000005,
        34.909380000000006
      ],
      [
        32.89613,
        34.90945
      ],
      [
        32.896240000000006,
        34.90961
      ],
      [
        32.896350000000005,
        34.909670000000006
      ],
      [
        32.89647,
        34.909650000000006
      ],
      [
        32.896570000000004,
        34.909490000000005
      ],
      [
        32.89669,
        34.90943
      ],
      [
        32.897420000000004,
        34.90943
      ],
      [
        32.89799,
        34.909400000000005
      ],
      [
        32.8984,
        34.909490000000005
      ],
      [
        32.89905,
        34.909470000000006
      ],
      [
        32.899190000000004,
        34.909510000000004
      ],
      [
        32.89947,
        34.9095
      ],
      [
        32.89985,
        34.909380000000006
      ],
      [
        32.90017,
        34.90925
      ],
      [
        32.90046,
        34.90919
      ],
      [
        32.900670000000005,
        34.90916
      ],
      [
        32.90108,
        34.90921
      ],
      [
        32.90117,
        34.90917
      ],
      [
        32.90119,
        34.9091
      ],
      [
        32.901180000000004,
        34.908970000000004
      ],
      [
        32.901210000000006,
        34.908770000000004
      ],
      [
        32.90128,
        34.90872
      ],
      [
        32.90158,
        34.9087
      ],
      [
        32.90202,
        34.90874
      ],
      [
        32.902280000000005,
        34.90863
      ],
      [
        32.90265,
        34.90858
      ],
      [
        32.902910000000006,
        34.908500000000004
      ],
      [
        32.90306,
        34.908480000000004
      ]
    ]
  }
}