{"type":"FeatureCollection","features":[{"type":"Feature","id":1022847,"geometry":{"type":"Polygon","coordinates":[[[33.948010265999983,34.980163511000001],[33.948200985000028,34.980642891999992],[33.948445321000008,34.980765663999989],[33.948820732000001,34.980887860999985],[33.948825613999986,34.981585058000007],[33.949145907999991,34.981846879999978],[33.950796645000025,34.982210796000004],[33.953101441000001,34.98235463200001],[33.953567948,34.982104493000008],[33.953865169999972,34.981762193999998],[33.953919746999986,34.981529534000003],[33.953636033000009,34.981143567999993],[33.953391510000017,34.980989797999996],[33.953053221999994,34.980836490999991],[33.953014284000005,34.979955470999982],[33.953163920999998,34.979935364000028],[33.953367754999988,34.979953776999992],[33.953487375999998,34.97997835000001],[33.953693536000003,34.980002513999978],[33.953826934999995,34.979999932999988],[33.953904303000002,34.980011224999998],[33.953976996999984,34.980024356999991],[33.954035934999979,34.980089975999988],[33.954080626000007,34.980118833000006],[33.954148712000006,34.980147507000027],[33.954183918000012,34.980160932999979],[33.954209686000013,34.980154960999982],[33.954373035000003,34.980086423999978],[33.954480644,34.980064572000003],[33.954550831999995,34.980064201000005],[33.954576577000012,34.980056334999972],[33.954663206000021,34.980063678000022],[33.954735921999998,34.980078791999972],[33.954874130999997,34.980093661000012],[33.954925620999973,34.980085684000016],[33.955019385000014,34.980108475999998],[33.955282405999981,34.98022143999998],[33.955334008000023,34.980230860999995],[33.955373888999986,34.980242266000005],[33.955477159999987,34.980282471999999],[33.955582645999982,34.980303278999997],[33.955676051000012,34.980271802000004],[33.955818933999979,34.98027689700001],[33.95590088900002,34.980286257999978],[33.956010869000011,34.980266280000023],[33.95615355000001,34.980253978000007],[33.956417933000012,34.98022755400001],[33.956476580000015,34.98024467099998],[33.956535385999985,34.980283153000016],[33.956610653999974,34.980331152000019],[33.956622690000017,34.980379557999981],[33.956629892000024,34.980408531000023],[33.956637343000011,34.980466620000016],[33.956635962000007,34.980596359000003],[33.956606508999982,34.980735966999987],[33.956600385000002,34.980861866999987],[33.956591485999979,34.980935500999976],[33.956566437999982,34.981026661999977],[33.95653138900002,34.98104235400001],[33.956487147000018,34.981075518000011],[33.956405415999996,34.981101044000013],[33.956265149999979,34.981134693999991],[33.956157673999996,34.981168084999979],[33.956008282000028,34.981232728999998],[33.955912459999979,34.981250612999986],[33.955807130999972,34.981251171999986],[33.95571808599999,34.981238080000026],[33.955638254000007,34.981217162000007],[33.955368408000027,34.981123545000003],[33.955209239999988,34.981124346999991],[33.955153057000018,34.981132812999988],[33.955035588999976,34.981169255999987],[33.954983367000011,34.981231061000017],[33.954958970000007,34.981284984000013],[33.955000676999987,34.981484702999978],[33.955004782999993,34.981628192000016],[33.954971082999975,34.981674525000017],[33.954860285999985,34.981787816000008],[33.954808123000021,34.981862422000006],[33.954814680000027,34.981913666000025],[33.954918919000022,34.982184743999994],[33.954928694999978,34.982256518999975],[33.95495758200002,34.982402428],[33.955036183000004,34.982558402999985],[33.955133008000018,34.982665553000004],[33.955260728999974,34.98276488800002],[33.955478688000028,34.98292535500002],[33.955593650000026,34.982968353999979],[33.955758559999992,34.983064959999979],[33.95586442299998,34.983141296999975],[33.956019616999981,34.983179020000023],[33.956103594000012,34.983222173000001],[33.95621625199999,34.983385632000022],[33.95641492499999,34.983441041999981],[33.956489686999987,34.98349968399998],[33.956514616999982,34.983514903000014],[33.956688923999991,34.983626850000007],[33.956813575000012,34.983733868999991],[33.956919916000004,34.983874298999979],[33.956970694999995,34.984045729000002],[33.956974715999991,34.984173892000001],[33.956962842999985,34.984248272000002],[33.956920491000005,34.984381760000019],[33.956910404999974,34.984423309000022],[33.956907832000013,34.98454386200001],[33.956899954999983,34.984620012999983],[33.956878182000025,34.984666612000012],[33.956858225000019,34.984721673000024],[33.956865221999976,34.984748393000018],[33.956887551000023,34.984780761000025],[33.956940628999973,34.984831278000001],[33.957019344000003,34.984911253999996],[33.957069209999986,34.984988570999974],[33.957107061999977,34.985050477000016],[33.957139911000013,34.985125045000018],[33.957150528999989,34.985175717000004],[33.957144083000003,34.985219491000009],[33.957123869999975,34.985244893000015],[33.957086758000003,34.985277549999978],[33.957031042999972,34.985318647999975],[33.956982004999986,34.985351309000009],[33.956912762999991,34.985402340000007],[33.956890859999987,34.985422165999978],[33.956869063999989,34.985458940000001],[33.956850912999982,34.985529491000023],[33.956854541999974,34.985561916999984],[33.956883909999988,34.985632275],[33.956882495999992,34.98566609300002],[33.95688260999998,34.985675918000027],[33.956893048999973,34.985711175999995],[33.956930710999984,34.985749011999985],[33.956958256000007,34.985802525999986],[33.956989570000019,34.985892610999997],[33.957026082000027,34.986002398999972],[33.957053782999992,34.986077006000016],[33.957135923999999,34.986148480999987],[33.957236603000013,34.986205833999975],[33.957354103,34.986249081999972],[33.957485111999972,34.986280953999994],[33.957660436000026,34.986332308999977],[33.957757617000027,34.986368504999973],[33.957836024000017,34.98640629099998],[33.957894080000017,34.986449736999987],[33.957945466000012,34.986510092999993],[33.957983451000018,34.986583267000015],[33.957994900000017,34.986643217999983],[33.957981084999972,34.986721398999975],[33.957818410000016,34.988260041999979],[33.957415131999994,34.989162487999977],[33.955357149000008,34.989174198000001],[33.953297007000003,34.988960781000003],[33.95068102099998,34.987962763999974],[33.949291544000005,34.986057731000017],[33.948581046000015,34.983361161000005],[33.948010265999983,34.980163511000001]]]},"properties":{"objectid":1022847,"site_id":344568,"site_pid":"344568","site_type":"PA","name_eng":"Makronisos","name":"Makronisos","desig":"Ακτές και Περιοχές Προστασίας της Φύσης","desig_eng":"Coasts and Areas for Nature Protection","desig_type":"National","iucn_cat":"IV","int_crit":"Not Applicable","realm":"Terrestrial","rep_m_area":0,"gis_m_area":0.0076319300000000003,"rep_area":0.57424171000000002,"gis_area":0.5742416600000001,"no_take":"Not Applicable","no_tk_area":0,"status":"Designated","status_yr":1990,"gov_type":"Federal or national ministry or agency","verif":"State Verified","inlnd_wtrs":"Not Reported","own_type":"Not Reported","mang_auth":"Department of Town Planning and Housing","mang_plan":"Not Reported","cons_obj":"Not Applicable","supp_info":"Not Applicable","metadataid":2013,"prnt_iso3":"CYP","iso3":"CYP","govsubtype":"Not Applicable","ownsubtype":"Not Applicable","oecm_asmt":"Not Applicable","Shape__Area":5.6690672666892999e-05,"Shape__Length":0.041067081351146686}}]}