{
  "type": "FeatureCollection",
  "generator": "overpass-turbo",
  "copyright": "The data included in this document is from www.openstreetmap.org. The data is made available under ODbL.",
  "timestamp": "2026-09-02T21:06:29Z",
  "features": [
    {
      "type": "Feature",
      "properties": {
        "@id": "way/7971016",
        "leisure": "park",
        "name": "Molos Lemesos",
        "opening_hours": "24/7",
        "wikidata": "Q124858645",
        "wikipedia": "en:Limassol Molos"
      },
      "geometry": {
        "type": "Polygon",
        "coordinates": [
          [
            [
              33.045397,
              34.6723481
            ],
            [
              33.0476632,
              34.6742531
            ],
            [
              33.0501414,
              34.6763872
            ],
            [
              33.0520103,
              34.6780247
            ],
            [
              33.0517875,
              34.6786739
            ],
            [
              33.0516984,
              34.6787521
            ],
            [
              33.051032,
              34.678168
            ],
            [
              33.0509066,
              34.6780491
            ],
            [
              33.0482655,
              34.6757511
            ],
            [
              33.0482337,
              34.6756912
            ],
            [
              33.0473996,
              34.6750102
            ],
            [
              33.0466686,
              34.6743735
            ],
            [
              33.0457748,
              34.6735951
            ],
            [
              33.045618,
              34.673393
            ],
            [
              33.0445565,
              34.672594
            ],
            [
              33.0443533,
              34.6724871
            ],
            [
              33.0442188,
              34.6724153
            ],
            [
              33.0447581,
              34.6718274
            ],
            [
              33.045397,
              34.6723481
            ]
          ]
        ]
      },
      "id": "way/7971016"
    }
  ]
}
