{
  "type": "FeatureCollection",
  "generator": "overpass-turbo",
  "copyright": "The data included in this document is from www.openstreetmap.org. The data is made available under ODbL.",
  "timestamp": "2026-09-02T21:09:34Z",
  "features": [
    {
      "type": "Feature",
      "properties": {
        "@id": "way/1535172423",
        "leisure": "park"
      },
      "geometry": {
        "type": "Polygon",
        "coordinates": [
          [
            [
              33.0422326,
              34.7094894
            ],
            [
              33.04223,
              34.7096005
            ],
            [
              33.0425762,
              34.7097818
            ],
            [
              33.042699,
              34.7097757
            ],
            [
              33.0427083,
              34.709496
            ],
            [
              33.0433934,
              34.7094985
            ],
            [
              33.0434964,
              34.70958
            ],
            [
              33.0433466,
              34.7102484
            ],
            [
              33.0433681,
              34.7106165
            ],
            [
              33.0428852,
              34.7105186
            ],
            [
              33.042865,
              34.7106606
            ],
            [
              33.0427754,
              34.7106745
            ],
            [
              33.0427738,
              34.710482
            ],
            [
              33.0424442,
              34.7104169
            ],
            [
              33.042402,
              34.710247
            ],
            [
              33.0420422,
              34.710264
            ],
            [
              33.0420224,
              34.7101466
            ],
            [
              33.0423637,
              34.71014
            ],
            [
              33.0423481,
              34.7097772
            ],
            [
              33.0421675,
              34.7097104
            ],
            [
              33.0419732,
              34.7097158
            ],
            [
              33.0419633,
              34.7095516
            ],
            [
              33.0420281,
              34.7094795
            ],
            [
              33.0422326,
              34.7094894
            ]
          ]
        ]
      },
      "id": "way/1535172423"
    }
  ]
}