{
  "type": "FeatureCollection",
  "generator": "overpass-turbo",
  "copyright": "The data included in this document is from www.openstreetmap.org. The data is made available under ODbL.",
  "timestamp": "2026-08-26T21:35:51Z",
  "features": [
    {
      "type": "Feature",
      "properties": {
        "@id": "relation/13075200",
        "boundary": "national_park",
        "leisure": "nature_reserve",
        "name:en": "Athalassas National Park",
        "type": "multipolygon"
      },
      "geometry": {
        "type": "Polygon",
        "coordinates": [
          [
            [
              33.410648,
              35.1389644
            ],
            [
              33.4077423,
              35.1383996
            ],
            [
              33.4063175,
              35.1383315
            ],
            [
              33.4060627,
              35.1388159
            ],
            [
              33.40496,
              35.1389147
            ],
            [
              33.4048742,
              35.1389251
            ],
            [
              33.4047925,
              35.138954
            ],
            [
              33.4046675,
              35.1390121
            ],
            [
              33.4042232,
              35.1390283
            ],
            [
              33.4038261,
              35.139656
            ],
            [
              33.4035509,
              35.1406295
            ],
            [
              33.4041626,
              35.1418858
            ],
            [
              33.404401,
              35.143215
            ],
            [
              33.4043602,
              35.1443316
            ],
            [
              33.4046401,
              35.1445426
            ],
            [
              33.4046277,
              35.1458074
            ],
            [
              33.4057279,
              35.1457908
            ],
            [
              33.4060888,
              35.1451655
            ],
            [
              33.4063523,
              35.144894
            ],
            [
              33.4063769,
              35.1448686
            ],
            [
              33.4064281,
              35.1449183
            ],
            [
              33.406719,
              35.1453984
            ],
            [
              33.4057633,
              35.1464134
            ],
            [
              33.4058039,
              35.1465453
            ],
            [
              33.4058611,
              35.1466415
            ],
            [
              33.4060281,
              35.1467647
            ],
            [
              33.4060545,
              35.1468611
            ],
            [
              33.4060962,
              35.1469177
            ],
            [
              33.4061791,
              35.1469309
            ],
            [
              33.4062361,
              35.146956
            ],
            [
              33.4063381,
              35.1469543
            ],
            [
              33.4064549,
              35.1469999
            ],
            [
              33.4065664,
              35.1470151
            ],
            [
              33.4066453,
              35.1470104
            ],
            [
              33.4067688,
              35.1470187
            ],
            [
              33.4068138,
              35.1470078
            ],
            [
              33.406867,
              35.1469948
            ],
            [
              33.4069814,
              35.1469541
            ],
            [
              33.4070897,
              35.1469454
            ],
            [
              33.4071294,
              35.1470015
            ],
            [
              33.4071218,
              35.1470304
            ],
            [
              33.4071563,
              35.1470804
            ],
            [
              33.4071726,
              35.1471304
            ],
            [
              33.4071832,
              35.1471952
            ],
            [
              33.4072301,
              35.1472668
            ],
            [
              33.407323,
              35.1474557
            ],
            [
              33.407372,
              35.1474759
            ],
            [
              33.4073641,
              35.1475503
            ],
            [
              33.4072873,
              35.1476102
            ],
            [
              33.4070256,
              35.1478144
            ],
            [
              33.4069181,
              35.147891
            ],
            [
              33.4066346,
              35.147923
            ],
            [
              33.4065175,
              35.1479125
            ],
            [
              33.4064636,
              35.1478909
            ],
            [
              33.4063441,
              35.1477704
            ],
            [
              33.4062104,
              35.1477127
            ],
            [
              33.4062715,
              35.1476788
            ],
            [
              33.4064161,
              35.147624
            ],
            [
              33.4064806,
              35.1476172
            ],
            [
              33.406557,
              35.1475517
            ],
            [
              33.4066943,
              35.1474411
            ],
            [
              33.4069254,
              35.147323
            ],
            [
              33.40713,
              35.1472151
            ],
            [
              33.4071165,
              35.1471666
            ],
            [
              33.4070058,
              35.1471657
            ],
            [
              33.4065178,
              35.1473902
            ],
            [
              33.4061143,
              35.1472797
            ],
            [
              33.4057478,
              35.147149
            ],
            [
              33.4056525,
              35.1470896
            ],
            [
              33.4051725,
              35.1466504
            ],
            [
              33.4051128,
              35.1465585
            ],
            [
              33.4050921,
              35.1464654
            ],
            [
              33.405044,
              35.1464379
            ],
            [
              33.4049909,
              35.1464837
            ],
            [
              33.4049218,
              35.1466257
            ],
            [
              33.4048698,
              35.1463551
            ],
            [
              33.4046055,
              35.1463281
            ],
            [
              33.4044962,
              35.1463046
            ],
            [
              33.4044102,
              35.1463021
            ],
            [
              33.4042674,
              35.146298
            ],
            [
              33.4042884,
              35.1466735
            ],
            [
              33.4043086,
              35.1468082
            ],
            [
              33.4043606,
              35.1471556
            ],
            [
              33.4044539,
              35.1475899
            ],
            [
              33.4028116,
              35.1476401
            ],
            [
              33.4026423,
              35.1472489
            ],
            [
              33.4019147,
              35.1471462
            ],
            [
              33.4017124,
              35.1467905
            ],
            [
              33.4017416,
              35.1463679
            ],
            [
              33.4020407,
              35.1462162
            ],
            [
              33.4031852,
              35.146241
            ],
            [
              33.404219,
              35.146141
            ],
            [
              33.4042607,
              35.146137
            ],
            [
              33.4042353,
              35.1455254
            ],
            [
              33.404145,
              35.145163
            ],
            [
              33.4037801,
              35.1450046
            ],
            [
              33.403425,
              35.1450082
            ],
            [
              33.4032452,
              35.144962
            ],
            [
              33.403009,
              35.1449603
            ],
            [
              33.4028696,
              35.1449671
            ],
            [
              33.4018754,
              35.1449705
            ],
            [
              33.4014903,
              35.1450782
            ],
            [
              33.4013121,
              35.1445373
            ],
            [
              33.400659,
              35.1445354
            ],
            [
              33.3998893,
              35.1445002
            ],
            [
              33.3991133,
              35.1444664
            ],
            [
              33.3991281,
              35.1444383
            ],
            [
              33.3993297,
              35.1442495
            ],
            [
              33.3993111,
              35.143984
            ],
            [
              33.3990205,
              35.1438015
            ],
            [
              33.3986752,
              35.1437942
            ],
            [
              33.3983865,
              35.1437637
            ],
            [
              33.3983456,
              35.1433183
            ],
            [
              33.3978225,
              35.14333
            ],
            [
              33.3976393,
              35.1433244
            ],
            [
              33.397054,
              35.1430626
            ],
            [
              33.3969981,
              35.1430097
            ],
            [
              33.3968106,
              35.1428916
            ],
            [
              33.3964073,
              35.1428919
            ],
            [
              33.3964059,
              35.1427977
            ],
            [
              33.3964026,
              35.1425663
            ],
            [
              33.3953183,
              35.1425982
            ],
            [
              33.39451,
              35.1427169
            ],
            [
              33.3933613,
              35.1423679
            ],
            [
              33.393266,
              35.1428613
            ],
            [
              33.3926611,
              35.1426486
            ],
            [
              33.3923643,
              35.142582
            ],
            [
              33.3923725,
              35.1425529
            ],
            [
              33.3922402,
              35.1425527
            ],
            [
              33.3920464,
              35.1425697
            ],
            [
              33.391135,
              35.1427831
            ],
            [
              33.3911718,
              35.1430482
            ],
            [
              33.3909042,
              35.1430818
            ],
            [
              33.3909,
              35.1431142
            ],
            [
              33.3907854,
              35.1431443
            ],
            [
              33.390634,
              35.141989
            ],
            [
              33.3889758,
              35.1416601
            ],
            [
              33.3880708,
              35.1416463
            ],
            [
              33.387033,
              35.14153
            ],
            [
              33.3855578,
              35.1413356
            ],
            [
              33.3854181,
              35.1413172
            ],
            [
              33.3851442,
              35.1413083
            ],
            [
              33.3838749,
              35.1412673
            ],
            [
              33.3838898,
              35.1414992
            ],
            [
              33.3839053,
              35.1415786
            ],
            [
              33.3839294,
              35.141984
            ],
            [
              33.3840552,
              35.1419739
            ],
            [
              33.3840856,
              35.1423611
            ],
            [
              33.3836252,
              35.1423553
            ],
            [
              33.3836308,
              35.1426748
            ],
            [
              33.3834669,
              35.1426651
            ],
            [
              33.3834584,
              35.1430832
            ],
            [
              33.382698,
              35.1431925
            ],
            [
              33.3826512,
              35.143051
            ],
            [
              33.381697,
              35.1430117
            ],
            [
              33.3812796,
              35.1429192
            ],
            [
              33.3813309,
              35.1426545
            ],
            [
              33.3828157,
              35.1427101
            ],
            [
              33.3828232,
              35.142509
            ],
            [
              33.3826822,
              35.1413837
            ],
            [
              33.3823626,
              35.1414236
            ],
            [
              33.3823126,
              35.1415599
            ],
            [
              33.3819014,
              35.1415449
            ],
            [
              33.3816876,
              35.1415142
            ],
            [
              33.3815625,
              35.1414894
            ],
            [
              33.3815552,
              35.1414236
            ],
            [
              33.3815339,
              35.1406856
            ],
            [
              33.3815181,
              35.1400814
            ],
            [
              33.3815037,
              35.1397555
            ],
            [
              33.3801103,
              35.1397852
            ],
            [
              33.3801263,
              35.1405398
            ],
            [
              33.3795664,
              35.1406516
            ],
            [
              33.3793266,
              35.1406534
            ],
            [
              33.3784444,
              35.1406085
            ],
            [
              33.3779575,
              35.1405844
            ],
            [
              33.3779001,
              35.1395971
            ],
            [
              33.3774159,
              35.1395172
            ],
            [
              33.3774579,
              35.1392983
            ],
            [
              33.3750468,
              35.1390214
            ],
            [
              33.3751257,
              35.1382595
            ],
            [
              33.3753151,
              35.1370686
            ],
            [
              33.3752929,
              35.136708
            ],
            [
              33.3748013,
              35.1354768
            ],
            [
              33.3747286,
              35.1351947
            ],
            [
              33.3746387,
              35.134677
            ],
            [
              33.374126,
              35.1326866
            ],
            [
              33.374142,
              35.1322458
            ],
            [
              33.3741933,
              35.1314924
            ],
            [
              33.3759431,
              35.13107
            ],
            [
              33.3774168,
              35.1307635
            ],
            [
              33.3772978,
              35.1305348
            ],
            [
              33.3786654,
              35.1304797
            ],
            [
              33.3787085,
              35.1303509
            ],
            [
              33.3792617,
              35.130206
            ],
            [
              33.3792342,
              35.1295139
            ],
            [
              33.3782434,
              35.1295431
            ],
            [
              33.3781192,
              35.130222
            ],
            [
              33.3774775,
              35.1302826
            ],
            [
              33.3774037,
              35.130311
            ],
            [
              33.3771854,
              35.1303275
            ],
            [
              33.3769741,
              35.1298609
            ],
            [
              33.3770128,
              35.129662
            ],
            [
              33.3776008,
              35.129492
            ],
            [
              33.3775618,
              35.1286538
            ],
            [
              33.3788708,
              35.1284073
            ],
            [
              33.3802373,
              35.128316
            ],
            [
              33.3801598,
              35.1268597
            ],
            [
              33.3800907,
              35.1254159
            ],
            [
              33.3799794,
              35.1243519
            ],
            [
              33.3803462,
              35.1239449
            ],
            [
              33.380782,
              35.123649
            ],
            [
              33.3814654,
              35.1231769
            ],
            [
              33.3818023,
              35.1229127
            ],
            [
              33.3816849,
              35.1228315
            ],
            [
              33.3815574,
              35.1227102
            ],
            [
              33.3814546,
              35.1225863
            ],
            [
              33.381299,
              35.122499
            ],
            [
              33.3813864,
              35.1223983
            ],
            [
              33.3817294,
              35.122223
            ],
            [
              33.3817045,
              35.1221839
            ],
            [
              33.3823824,
              35.1216324
            ],
            [
              33.3823421,
              35.1215751
            ],
            [
              33.3827484,
              35.1212265
            ],
            [
              33.3826052,
              35.1209961
            ],
            [
              33.3831174,
              35.1208578
            ],
            [
              33.3831459,
              35.1209705
            ],
            [
              33.3832247,
              35.121059
            ],
            [
              33.38349,
              35.1210282
            ],
            [
              33.3838565,
              35.1211868
            ],
            [
              33.3841017,
              35.1212857
            ],
            [
              33.384155,
              35.1214201
            ],
            [
              33.3843978,
              35.1214887
            ],
            [
              33.3847176,
              35.1214526
            ],
            [
              33.3851362,
              35.1219887
            ],
            [
              33.3841347,
              35.1227446
            ],
            [
              33.3838928,
              35.1229271
            ],
            [
              33.3841566,
              35.1240973
            ],
            [
              33.3847914,
              35.1240799
            ],
            [
              33.3847816,
              35.1239176
            ],
            [
              33.3845979,
              35.1239196
            ],
            [
              33.3843505,
              35.123771
            ],
            [
              33.3841614,
              35.1231015
            ],
            [
              33.3844282,
              35.1229087
            ],
            [
              33.3882449,
              35.1221476
            ],
            [
              33.3877278,
              35.1231243
            ],
            [
              33.3894989,
              35.1238943
            ],
            [
              33.3899581,
              35.1239621
            ],
            [
              33.3904173,
              35.1240415
            ],
            [
              33.3907092,
              35.1240709
            ],
            [
              33.3909588,
              35.1241641
            ],
            [
              33.39152,
              35.1242052
            ],
            [
              33.3916422,
              35.1241786
            ],
            [
              33.3920673,
              35.1238988
            ],
            [
              33.3922212,
              35.123808
            ],
            [
              33.3945208,
              35.1223574
            ],
            [
              33.3955222,
              35.121856
            ],
            [
              33.3960664,
              35.121641
            ],
            [
              33.3966293,
              35.1214062
            ],
            [
              33.3966059,
              35.1213612
            ],
            [
              33.3966534,
              35.1212486
            ],
            [
              33.3967557,
              35.1211225
            ],
            [
              33.3969411,
              35.1209719
            ],
            [
              33.3971682,
              35.1209013
            ],
            [
              33.3976871,
              35.1208528
            ],
            [
              33.3977653,
              35.1208396
            ],
            [
              33.3981937,
              35.1207901
            ],
            [
              33.3988018,
              35.120789
            ],
            [
              33.399205,
              35.1207553
            ],
            [
              33.3992643,
              35.1216038
            ],
            [
              33.399278,
              35.1221955
            ],
            [
              33.3992751,
              35.1227268
            ],
            [
              33.3992811,
              35.1227375
            ],
            [
              33.3992885,
              35.1229412
            ],
            [
              33.3993383,
              35.1231512
            ],
            [
              33.3993867,
              35.1233184
            ],
            [
              33.3994618,
              35.1235033
            ],
            [
              33.3996853,
              35.1238873
            ],
            [
              33.40105,
              35.124928
            ],
            [
              33.4041491,
              35.1246962
            ],
            [
              33.4046109,
              35.1247045
            ],
            [
              33.4049781,
              35.1246869
            ],
            [
              33.405402,
              35.124652
            ],
            [
              33.4054265,
              35.1246443
            ],
            [
              33.4056558,
              35.1246284
            ],
            [
              33.4064718,
              35.1246328
            ],
            [
              33.4066116,
              35.12464
            ],
            [
              33.4077033,
              35.1247588
            ],
            [
              33.4086759,
              35.1254775
            ],
            [
              33.4099309,
              35.1256782
            ],
            [
              33.4103339,
              35.1257663
            ],
            [
              33.4108758,
              35.1258672
            ],
            [
              33.4110327,
              35.1258816
            ],
            [
              33.4119538,
              35.1260444
            ],
            [
              33.4122441,
              35.1261132
            ],
            [
              33.4125298,
              35.1262089
            ],
            [
              33.4138907,
              35.1263838
            ],
            [
              33.416965,
              35.1257043
            ],
            [
              33.4175676,
              35.1265871
            ],
            [
              33.4182951,
              35.1258237
            ],
            [
              33.4183578,
              35.1259084
            ],
            [
              33.41863,
              35.1257422
            ],
            [
              33.4190877,
              35.1259078
            ],
            [
              33.4192532,
              35.1259229
            ],
            [
              33.4196818,
              35.1259864
            ],
            [
              33.4200536,
              35.1259348
            ],
            [
              33.4199765,
              35.1254931
            ],
            [
              33.4201973,
              35.1252423
            ],
            [
              33.4201885,
              35.1250615
            ],
            [
              33.4201377,
              35.1250795
            ],
            [
              33.4199951,
              35.1247806
            ],
            [
              33.4202528,
              35.1246143
            ],
            [
              33.4203378,
              35.1246804
            ],
            [
              33.4203517,
              35.1246913
            ],
            [
              33.4210307,
              35.1244247
            ],
            [
              33.421104,
              35.1247145
            ],
            [
              33.4214122,
              35.1249717
            ],
            [
              33.4223004,
              35.1253687
            ],
            [
              33.4223798,
              35.1252514
            ],
            [
              33.4231089,
              35.1253405
            ],
            [
              33.4236405,
              35.1239666
            ],
            [
              33.4244735,
              35.1243926
            ],
            [
              33.4243609,
              35.1247307
            ],
            [
              33.4241172,
              35.1246905
            ],
            [
              33.4239048,
              35.1251748
            ],
            [
              33.4237911,
              35.1262234
            ],
            [
              33.4236899,
              35.1262205
            ],
            [
              33.423643,
              35.1267347
            ],
            [
              33.4236624,
              35.1272575
            ],
            [
              33.4246819,
              35.1272089
            ],
            [
              33.4247097,
              35.1272076
            ],
            [
              33.4247229,
              35.127185
            ],
            [
              33.42497,
              35.1271601
            ],
            [
              33.4252203,
              35.1271038
            ],
            [
              33.4253551,
              35.126445
            ],
            [
              33.4255629,
              35.1264417
            ],
            [
              33.4257232,
              35.1260524
            ],
            [
              33.4258504,
              35.1255067
            ],
            [
              33.4262891,
              35.1254834
            ],
            [
              33.4267408,
              35.1260557
            ],
            [
              33.4270023,
              35.1265049
            ],
            [
              33.4272639,
              35.126801
            ],
            [
              33.4285544,
              35.1269474
            ],
            [
              33.4282517,
              35.1277996
            ],
            [
              33.4308028,
              35.1288602
            ],
            [
              33.4307423,
              35.128958
            ],
            [
              33.4306933,
              35.1291012
            ],
            [
              33.4305728,
              35.1296302
            ],
            [
              33.4305316,
              35.1298109
            ],
            [
              33.4305477,
              35.1303778
            ],
            [
              33.4306228,
              35.1306724
            ],
            [
              33.4305933,
              35.1308895
            ],
            [
              33.4306282,
              35.130895
            ],
            [
              33.4310872,
              35.1311527
            ],
            [
              33.4326134,
              35.1296148
            ],
            [
              33.4328528,
              35.1297451
            ],
            [
              33.4329436,
              35.1297886
            ],
            [
              33.4330656,
              35.1298852
            ],
            [
              33.4331522,
              35.129963
            ],
            [
              33.4332931,
              35.1301046
            ],
            [
              33.4305019,
              35.1334755
            ],
            [
              33.4304461,
              35.1335408
            ],
            [
              33.4303876,
              35.1336184
            ],
            [
              33.430329,
              35.1336764
            ],
            [
              33.4300332,
              35.1340225
            ],
            [
              33.4299408,
              35.1341501
            ],
            [
              33.4297035,
              35.1344409
            ],
            [
              33.4295377,
              35.1346706
            ],
            [
              33.4291438,
              35.1351424
            ],
            [
              33.4290897,
              35.1351984
            ],
            [
              33.4290433,
              35.135245
            ],
            [
              33.4289998,
              35.1353028
            ],
            [
              33.4289805,
              35.1352519
            ],
            [
              33.428868,
              35.1349031
            ],
            [
              33.4287821,
              35.1346522
            ],
            [
              33.4287275,
              35.134579
            ],
            [
              33.4286862,
              35.1344326
            ],
            [
              33.4284309,
              35.1344324
            ],
            [
              33.4283828,
              35.1344017
            ],
            [
              33.4283506,
              35.1342501
            ],
            [
              33.4279669,
              35.1334479
            ],
            [
              33.4278717,
              35.1333261
            ],
            [
              33.4277737,
              35.1330978
            ],
            [
              33.4275586,
              35.1331291
            ],
            [
              33.4274696,
              35.1330767
            ],
            [
              33.4273418,
              35.1331236
            ],
            [
              33.4272224,
              35.1331395
            ],
            [
              33.4271504,
              35.1332054
            ],
            [
              33.4270835,
              35.1332006
            ],
            [
              33.4270131,
              35.133173
            ],
            [
              33.426907,
              35.1331743
            ],
            [
              33.4267399,
              35.1331497
            ],
            [
              33.426552,
              35.1330936
            ],
            [
              33.4264565,
              35.1329974
            ],
            [
              33.426364,
              35.1329658
            ],
            [
              33.4262838,
              35.1329711
            ],
            [
              33.4262375,
              35.1329207
            ],
            [
              33.4260279,
              35.1329843
            ],
            [
              33.4258953,
              35.1329644
            ],
            [
              33.4257284,
              35.1330977
            ],
            [
              33.4254044,
              35.1331896
            ],
            [
              33.4251746,
              35.1325345
            ],
            [
              33.4249016,
              35.1323939
            ],
            [
              33.4248221,
              35.1323641
            ],
            [
              33.424769,
              35.1323198
            ],
            [
              33.424691,
              35.1322944
            ],
            [
              33.4246167,
              35.1323106
            ],
            [
              33.4244821,
              35.1323862
            ],
            [
              33.4243865,
              35.1325696
            ],
            [
              33.4242696,
              35.1326511
            ],
            [
              33.4241067,
              35.1326454
            ],
            [
              33.4239792,
              35.1324773
            ],
            [
              33.4239437,
              35.1323638
            ],
            [
              33.4240429,
              35.1321924
            ],
            [
              33.4242377,
              35.1320701
            ],
            [
              33.4242731,
              35.1320176
            ],
            [
              33.4242731,
              35.1319812
            ],
            [
              33.4243419,
              35.1319593
            ],
            [
              33.4243894,
              35.1318911
            ],
            [
              33.4244633,
              35.1318299
            ],
            [
              33.4244126,
              35.1316439
            ],
            [
              33.4242333,
              35.1316889
            ],
            [
              33.424073,
              35.1316689
            ],
            [
              33.4233275,
              35.1318895
            ],
            [
              33.4231362,
              35.1317014
            ],
            [
              33.4229769,
              35.1315794
            ],
            [
              33.4227891,
              35.13149
            ],
            [
              33.4226794,
              35.1313141
            ],
            [
              33.4225164,
              35.1312874
            ],
            [
              33.4224314,
              35.1311844
            ],
            [
              33.4220702,
              35.1311603
            ],
            [
              33.4217904,
              35.1311035
            ],
            [
              33.421716,
              35.1308479
            ],
            [
              33.4213618,
              35.1307249
            ],
            [
              33.4214963,
              35.1292447
            ],
            [
              33.4215032,
              35.1291723
            ],
            [
              33.4215312,
              35.1290912
            ],
            [
              33.4216965,
              35.1291052
            ],
            [
              33.4218039,
              35.1291267
            ],
            [
              33.4218683,
              35.129152
            ],
            [
              33.4219182,
              35.1291182
            ],
            [
              33.4222902,
              35.1293215
            ],
            [
              33.4225152,
              35.1288989
            ],
            [
              33.4222133,
              35.1287078
            ],
            [
              33.4220163,
              35.1287137
            ],
            [
              33.4217974,
              35.1287166
            ],
            [
              33.4217056,
              35.1286456
            ],
            [
              33.4214614,
              35.1286131
            ],
            [
              33.4214722,
              35.1287775
            ],
            [
              33.4203153,
              35.1287013
            ],
            [
              33.419567,
              35.1286358
            ],
            [
              33.4195365,
              35.1287772
            ],
            [
              33.4197235,
              35.1290021
            ],
            [
              33.4204517,
              35.1292548
            ],
            [
              33.4203886,
              35.1293721
            ],
            [
              33.4207159,
              35.1296299
            ],
            [
              33.4205729,
              35.1298789
            ],
            [
              33.4206624,
              35.1300236
            ],
            [
              33.4205862,
              35.1301103
            ],
            [
              33.4205472,
              35.1303763
            ],
            [
              33.4203908,
              35.1303469
            ],
            [
              33.4197702,
              35.1300399
            ],
            [
              33.4194978,
              35.1302819
            ],
            [
              33.4193791,
              35.1305207
            ],
            [
              33.419294,
              35.1305265
            ],
            [
              33.4192741,
              35.1305786
            ],
            [
              33.4191943,
              35.1305641
            ],
            [
              33.4191345,
              35.1305323
            ],
            [
              33.4190397,
              35.1305844
            ],
            [
              33.4190173,
              35.1305728
            ],
            [
              33.4189133,
              35.1305902
            ],
            [
              33.4188677,
              35.1303903
            ],
            [
              33.4186648,
              35.1304917
            ],
            [
              33.4182825,
              35.1307437
            ],
            [
              33.4181136,
              35.130512
            ],
            [
              33.4176764,
              35.1304887
            ],
            [
              33.417353,
              35.1304714
            ],
            [
              33.4175077,
              35.1300895
            ],
            [
              33.4174357,
              35.1299334
            ],
            [
              33.4172563,
              35.1299979
            ],
            [
              33.4171242,
              35.1299182
            ],
            [
              33.416744,
              35.1302269
            ],
            [
              33.4158007,
              35.1313495
            ],
            [
              33.4157033,
              35.1313954
            ],
            [
              33.4144212,
              35.1314823
            ],
            [
              33.413779,
              35.1316069
            ],
            [
              33.4137711,
              35.1318386
            ],
            [
              33.413287,
              35.1322171
            ],
            [
              33.4129102,
              35.1324961
            ],
            [
              33.412573,
              35.1328898
            ],
            [
              33.4123836,
              35.1329777
            ],
            [
              33.4116988,
              35.1335302
            ],
            [
              33.4115,
              35.1337158
            ],
            [
              33.4109951,
              35.1346829
            ],
            [
              33.4110137,
              35.1349775
            ],
            [
              33.4143618,
              35.1357359
            ],
            [
              33.41397,
              35.1365656
            ],
            [
              33.4144449,
              35.1367533
            ],
            [
              33.4142958,
              35.1370842
            ],
            [
              33.4145525,
              35.1371099
            ],
            [
              33.4144671,
              35.137505
            ],
            [
              33.4145872,
              35.1375533
            ],
            [
              33.4146584,
              35.1377992
            ],
            [
              33.4153039,
              35.1389463
            ],
            [
              33.410648,
              35.1389644
            ]
          ],
          [
            [
              33.4280205,
              35.1312783
            ],
            [
              33.4286649,
              35.1319505
            ],
            [
              33.4289732,
              35.1317443
            ],
            [
              33.4286836,
              35.1313623
            ],
            [
              33.4287957,
              35.1312859
            ],
            [
              33.4285342,
              35.1309957
            ],
            [
              33.4280205,
              35.1312783
            ]
          ],
          [
            [
              33.429244,
              35.1311561
            ],
            [
              33.429711,
              35.1308887
            ],
            [
              33.4291974,
              35.1302732
            ],
            [
              33.429244,
              35.1302394
            ],
            [
              33.4291133,
              35.1300485
            ],
            [
              33.4289638,
              35.1298346
            ],
            [
              33.4286836,
              35.129529
            ],
            [
              33.4284314,
              35.1297124
            ],
            [
              33.4280765,
              35.1300103
            ],
            [
              33.429244,
              35.1311561
            ]
          ]
        ]
      },
      "id": "relation/13075200"
    }
  ]
}
