{
  "type": "Feature",
  "properties": {},
  "geometry": {
    "type": "LineString",
    "coordinates": [
      [
        32.889120000000005,
        34.93614
      ],
      [
        32.889160000000004,
        34.93603
      ],
      [
        32.88936,
        34.935750000000006
      ],
      [
        32.8894,
        34.9356
      ],
      [
        32.889390000000006,
        34.935340000000004
      ],
      [
        32.88942,
        34.935210000000005
      ],
      [
        32.889410000000005,
        34.93504
      ],
      [
        32.88938,
        34.93488
      ],
      [
        32.88868,
        34.934610000000006
      ],
      [
        32.88842,
        34.934400000000004
      ],
      [
        32.88844,
        34.9343
      ],
      [
        32.88839,
        34.93415
      ],
      [
        32.888290000000005,
        34.93408
      ],
      [
        32.88816,
        34.93404
      ],
      [
        32.88788,
        34.93415
      ],
      [
        32.887800000000006,
        34.93423
      ],
      [
        32.88749,
        34.934630000000006
      ],
      [
        32.88711,
        34.93482
      ],
      [
        32.88694,
        34.934940000000005
      ],
      [
        32.88674,
        34.935190000000006
      ],
      [
        32.886700000000005,
        34.93545
      ],
      [
        32.885740000000006,
        34.93558
      ],
      [
        32.885740000000006,
        34.9358
      ],
      [
        32.88589,
        34.936020000000006
      ],
      [
        32.886120000000005,
        34.936170000000004
      ],
      [
        32.88631,
        34.936530000000005
      ],
      [
        32.88636,
        34.93695
      ],
      [
        32.88608,
        34.93712
      ],
      [
        32.885760000000005,
        34.93726
      ],
      [
        32.88559,
        34.93739
      ],
      [
        32.88589,
        34.93748
      ],
      [
        32.88619,
        34.937760000000004
      ],
      [
        32.886340000000004,
        34.938
      ],
      [
        32.88636,
        34.938480000000006
      ],
      [
        32.88608,
        34.93883
      ],
      [
        32.88559,
        34.938970000000005
      ],
      [
        32.88541,
        34.93925
      ],
      [
        32.88526,
        34.939620000000005
      ],
      [
        32.885220000000004,
        34.939730000000004
      ],
      [
        32.88496,
        34.94008
      ],
      [
        32.884750000000004,
        34.940450000000006
      ],
      [
        32.884750000000004,
        34.940780000000004
      ],
      [
        32.885180000000005,
        34.94122
      ],
      [
        32.88575,
        34.94156
      ],
      [
        32.8857,
        34.941680000000005
      ],
      [
        32.885130000000004,
        34.94176
      ],
      [
        32.884890000000006,
        34.941700000000004
      ],
      [
        32.88477,
        34.941860000000005
      ],
      [
        32.88445,
        34.9418
      ],
      [
        32.884150000000005,
        34.941860000000005
      ],
      [
        32.883990000000004,
        34.94211
      ],
      [
        32.88387,
        34.942060000000005
      ],
      [
        32.8838,
        34.94212
      ],
      [
        32.88378,
        34.94223
      ],
      [
        32.8838,
        34.942280000000004
      ],
      [
        32.88392,
        34.94227
      ],
      [
        32.884,
        34.94232
      ],
      [
        32.884080000000004,
        34.942420000000006
      ],
      [
        32.88411,
        34.94256
      ],
      [
        32.884130000000006,
        34.942800000000005
      ],
      [
        32.88418,
        34.94288
      ],
      [
        32.884370000000004,
        34.94301
      ],
      [
        32.88443,
        34.94315
      ],
      [
        32.88472,
        34.943220000000004
      ],
      [
        32.884930000000004,
        34.94323
      ],
      [
        32.885110000000005,
        34.94321
      ],
      [
        32.88534,
        34.943290000000005
      ],
      [
        32.8855,
        34.943250000000006
      ],
      [
        32.885670000000005,
        34.94333
      ],
      [
        32.885850000000005,
        34.9433
      ],
      [
        32.886,
        34.943310000000004
      ],
      [
        32.88649,
        34.94351
      ],
      [
        32.88669,
        34.943490000000004
      ],
      [
        32.886770000000006,
        34.94351
      ],
      [
        32.88675,
        34.9435
      ],
      [
        32.88682,
        34.94352
      ],
      [
        32.88696,
        34.94346
      ],
      [
        32.887150000000005,
        34.943450000000006
      ],
      [
        32.887350000000005,
        34.94351
      ],
      [
        32.887280000000004,
        34.943380000000005
      ],
      [
        32.887280000000004,
        34.9433
      ],
      [
        32.887440000000005,
        34.943290000000005
      ],
      [
        32.88747,
        34.94335
      ],
      [
        32.887570000000004,
        34.94328
      ],
      [
        32.887710000000006,
        34.94328
      ],
      [
        32.88779,
        34.94317
      ],
      [
        32.888040000000004,
        34.94308
      ],
      [
        32.88787,
        34.94286
      ],
      [
        32.88787,
        34.942260000000005
      ],
      [
        32.8879,
        34.942130000000006
      ],
      [
        32.8881,
        34.94202
      ],
      [
        32.888270000000006,
        34.94185
      ],
      [
        32.88839,
        34.941810000000004
      ],
      [
        32.888600000000004,
        34.941570000000006
      ],
      [
        32.888690000000004,
        34.94135
      ],
      [
        32.88872,
        34.940920000000006
      ],
      [
        32.88868,
        34.940810000000006
      ],
      [
        32.888850000000005,
        34.94057
      ],
      [
        32.88893,
        34.94037
      ],
      [
        32.88886,
        34.940090000000005
      ],
      [
        32.888850000000005,
        34.93988
      ],
      [
        32.888870000000004,
        34.939800000000005
      ],
      [
        32.888870000000004,
        34.93981
      ],
      [
        32.888920000000006,
        34.93966
      ],
      [
        32.88908,
        34.939370000000004
      ],
      [
        32.88949,
        34.93898
      ],
      [
        32.88965,
        34.93891
      ],
      [
        32.889720000000004,
        34.93889
      ],
      [
        32.890150000000006,
        34.9388
      ],
      [
        32.89025,
        34.93864
      ],
      [
        32.89003,
        34.93858
      ],
      [
        32.889900000000004,
        34.93844
      ],
      [
        32.889540000000004,
        34.938190000000006
      ],
      [
        32.889430000000004,
        34.93804
      ],
      [
        32.88951,
        34.93771
      ],
      [
        32.88967,
        34.93746
      ],
      [
        32.889810000000004,
        34.93728
      ],
      [
        32.88984,
        34.93677
      ],
      [
        32.889880000000005,
        34.93666
      ],
      [
        32.890060000000005,
        34.93661
      ],
      [
        32.89021,
        34.936600000000006
      ],
      [
        32.89038,
        34.9365
      ],
      [
        32.89027,
        34.936350000000004
      ],
      [
        32.89009,
        34.9362
      ],
      [
        32.889790000000005,
        34.936040000000006
      ],
      [
        32.88975,
        34.935930000000006
      ],
      [
        32.889480000000006,
        34.9361
      ]
    ]
  }
}