{"type":"FeatureCollection","features":[{"type":"Feature","id":1022837,"geometry":{"type":"Polygon","coordinates":[[[32.636575601999994,34.710290138000005],[32.639835442999981,34.710236435000013],[32.643266333999975,34.710254191999979],[32.647035587000005,34.710979414999997],[32.649436331000004,34.711132855000017],[32.653208529999972,34.711434325000027],[32.655774312999995,34.712576710999997],[32.657136537999975,34.714136439000015],[32.657468499000004,34.715832105000004],[32.657801414999994,34.717386673000021],[32.65951155800002,34.718242302000021],[32.661728073999996,34.720370924000008],[32.661719747000006,34.721641432000013],[32.661710574999972,34.72305303600001],[32.663241938999988,34.725037093000026],[32.66391627500002,34.726875687000017],[32.662873032999983,34.728987947000007],[32.660973715000011,34.730813635000004],[32.659933072000001,34.732502488000023],[32.660089911999989,34.734761960000014],[32.661444334999999,34.737592140999993],[32.662456496000004,34.740279444999999],[32.663130936000016,34.742117947999986],[32.663115339000001,34.744517766999991],[32.661726847000011,34.746910711999988],[32.660340908000023,34.748880080999982],[32.658786107000026,34.750425119999989],[32.657236818999991,34.751123199999995],[32.654830254999979,34.751675750999993],[32.653113951000023,34.751666996999973],[32.649859569,34.750662325999997],[32.647625549999987,34.751074401999972],[32.645904535,34.751771388999998],[32.643666691000021,34.752748047000011],[32.642293615000028,34.752740956000025],[32.640585858999998,34.751461618999997],[32.639736335999999,34.750186692999989],[32.637351803999991,34.747492151000017],[32.634971263000011,34.744232816000022],[32.631902539000009,34.741252293000002],[32.630195270000002,34.739972720000026],[32.629865665000011,34.737994705999995],[32.629709642000023,34.735735110000007],[32.629552638000007,34.733616789999985],[32.628367068999978,34.731351802000006],[32.625455036000005,34.730630624000014],[32.623058691999972,34.729770863999988],[32.619631950999974,34.729046691000008],[32.617410317999997,34.727764340000022],[32.616567373999999,34.725642221999976],[32.616923385999996,34.723808958000006],[32.618143323000027,34.721133338000016],[32.619374995999976,34.716763644000025],[32.620436504999986,34.712181347000012],[32.62250098200002,34.711345310000013],[32.626269192999985,34.712212361000013],[32.629033450000009,34.709403587999986],[32.631436982000025,34.709133822000013],[32.636575601999994,34.710290138000005]]]},"properties":{"objectid":1022837,"site_id":344557,"site_pid":"344557","site_type":"PA","name_eng":"Dasos Ranti","name":"Dasos Ranti","desig":"Ακτές και Περιοχές Προστασίας της Φύσης","desig_eng":"Coasts and Areas for Nature Protection","desig_type":"National","iucn_cat":"IV","int_crit":"Not Applicable","realm":"Terrestrial","rep_m_area":0,"gis_m_area":0,"rep_area":14.366516110000001,"gis_area":14.366515640000001,"no_take":"Not Applicable","no_tk_area":0,"status":"Designated","status_yr":1990,"gov_type":"Federal or national ministry or agency","verif":"State Verified","inlnd_wtrs":"Not Reported","own_type":"Not Reported","mang_auth":"Department of Town Planning and Housing","mang_plan":"Not Reported","cons_obj":"Not Applicable","supp_info":"Not Applicable","metadataid":2013,"prnt_iso3":"CYP","iso3":"CYP","govsubtype":"Not Applicable","ownsubtype":"Not Applicable","oecm_asmt":"Not Applicable","Shape__Area":0.001413975608457006,"Shape__Length":0.15358751657638325}}]}