{
  "type": "Feature",
  "properties": {},
  "geometry": {
    "type": "LineString",
    "coordinates": [
      [
        32.89222,
        34.940020000000004
      ],
      [
        32.89227,
        34.94028
      ],
      [
        32.89244,
        34.940560000000005
      ],
      [
        32.89257,
        34.94066
      ],
      [
        32.89264,
        34.940850000000005
      ],
      [
        32.892700000000005,
        34.94109
      ],
      [
        32.89298,
        34.941390000000006
      ],
      [
        32.893260000000005,
        34.94173
      ],
      [
        32.89336,
        34.94189
      ],
      [
        32.89379,
        34.942190000000004
      ],
      [
        32.89417,
        34.942280000000004
      ],
      [
        32.894670000000005,
        34.942820000000005
      ],
      [
        32.895250000000004,
        34.943360000000006
      ],
      [
        32.8958,
        34.94362
      ],
      [
        32.89604,
        34.943870000000004
      ],
      [
        32.89614,
        34.94404
      ],
      [
        32.89618,
        34.94415
      ],
      [
        32.896260000000005,
        34.94418
      ],
      [
        32.89725,
        34.94407
      ],
      [
        32.897330000000004,
        34.944030000000005
      ],
      [
        32.89739,
        34.94395
      ],
      [
        32.89743,
        34.94382
      ],
      [
        32.897360000000006,
        34.9437
      ],
      [
        32.897380000000005,
        34.94361
      ],
      [
        32.89752,
        34.94359
      ],
      [
        32.89763,
        34.94361
      ],
      [
        32.897740000000006,
        34.943720000000006
      ],
      [
        32.897870000000005,
        34.94377
      ],
      [
        32.898320000000005,
        34.94375
      ],
      [
        32.89842,
        34.94379
      ],
      [
        32.89848,
        34.94384
      ],
      [
        32.89855,
        34.94415
      ],
      [
        32.89856,
        34.94429
      ],
      [
        32.89867,
        34.94444
      ],
      [
        32.899280000000005,
        34.945040000000006
      ],
      [
        32.899480000000004,
        34.9455
      ],
      [
        32.899710000000006,
        34.9459
      ],
      [
        32.900270000000006,
        34.94635
      ],
      [
        32.90037,
        34.946490000000004
      ],
      [
        32.90044,
        34.94671
      ],
      [
        32.90032,
        34.94695
      ],
      [
        32.90034,
        34.947210000000005
      ],
      [
        32.90037,
        34.94726
      ],
      [
        32.90044,
        34.94727
      ],
      [
        32.90053,
        34.9472
      ],
      [
        32.90063,
        34.947160000000004
      ],
      [
        32.900690000000004,
        34.947160000000004
      ],
      [
        32.900740000000006,
        34.947230000000005
      ],
      [
        32.90077,
        34.94742
      ],
      [
        32.900850000000005,
        34.94774
      ],
      [
        32.90095,
        34.94789
      ],
      [
        32.90109,
        34.94818
      ],
      [
        32.901030000000006,
        34.948730000000005
      ],
      [
        32.900940000000006,
        34.949250000000006
      ],
      [
        32.901050000000005,
        34.94933
      ],
      [
        32.90129,
        34.94935
      ],
      [
        32.90151,
        34.94933
      ],
      [
        32.901900000000005,
        34.949070000000006
      ],
      [
        32.90213,
        34.94886
      ],
      [
        32.902530000000006,
        34.949070000000006
      ],
      [
        32.90261,
        34.94919
      ],
      [
        32.90288,
        34.94948
      ],
      [
        32.902930000000005,
        34.9495
      ],
      [
        32.903040000000004,
        34.94943
      ],
      [
        32.90312,
        34.94942
      ],
      [
        32.90321,
        34.94946
      ],
      [
        32.90326,
        34.94952
      ],
      [
        32.9033,
        34.94962
      ],
      [
        32.90321,
        34.949830000000006
      ],
      [
        32.903220000000005,
        34.94989
      ],
      [
        32.903270000000006,
        34.95
      ],
      [
        32.903470000000006,
        34.950230000000005
      ],
      [
        32.903470000000006,
        34.9504
      ],
      [
        32.90352,
        34.95064
      ],
      [
        32.90368,
        34.951150000000005
      ],
      [
        32.903710000000004,
        34.95138
      ],
      [
        32.903740000000006,
        34.95143
      ],
      [
        32.90399,
        34.95161
      ],
      [
        32.904140000000005,
        34.951660000000004
      ],
      [
        32.90429,
        34.95176
      ],
      [
        32.904430000000005,
        34.951910000000005
      ],
      [
        32.90455,
        34.95221
      ],
      [
        32.904700000000005,
        34.95239
      ],
      [
        32.904900000000005,
        34.95252
      ],
      [
        32.904970000000006,
        34.95261
      ],
      [
        32.90495,
        34.952760000000005
      ],
      [
        32.904810000000005,
        34.95284
      ],
      [
        32.9048,
        34.952870000000004
      ],
      [
        32.90485,
        34.95293
      ],
      [
        32.90513,
        34.953050000000005
      ],
      [
        32.905170000000005,
        34.95328
      ],
      [
        32.905300000000004,
        34.953520000000005
      ],
      [
        32.90525,
        34.953540000000004
      ],
      [
        32.905440000000006,
        34.95422
      ],
      [
        32.905530000000006,
        34.9543
      ],
      [
        32.905640000000005,
        34.95434
      ],
      [
        32.905590000000004,
        34.95472
      ],
      [
        32.90551,
        34.95494
      ],
      [
        32.905480000000004,
        34.9553
      ],
      [
        32.90551,
        34.955450000000006
      ],
      [
        32.905440000000006,
        34.95559
      ],
      [
        32.90477,
        34.95611
      ],
      [
        32.904720000000005,
        34.95622
      ],
      [
        32.904610000000005,
        34.95631
      ],
      [
        32.904520000000005,
        34.956320000000005
      ],
      [
        32.90442,
        34.95626
      ],
      [
        32.904320000000006,
        34.95628
      ],
      [
        32.903690000000005,
        34.956860000000006
      ],
      [
        32.90366,
        34.956990000000005
      ],
      [
        32.903580000000005,
        34.957060000000006
      ],
      [
        32.903330000000004,
        34.957190000000004
      ],
      [
        32.903180000000006,
        34.95722
      ],
      [
        32.90303,
        34.95729
      ],
      [
        32.90298,
        34.957480000000004
      ],
      [
        32.90289,
        34.957550000000005
      ],
      [
        32.90287,
        34.95765
      ],
      [
        32.90287,
        34.957980000000006
      ],
      [
        32.90267,
        34.95857
      ],
      [
        32.90267,
        34.95871
      ],
      [
        32.9027,
        34.958890000000004
      ],
      [
        32.90276,
        34.959030000000006
      ],
      [
        32.90254,
        34.95913
      ],
      [
        32.90245,
        34.959210000000006
      ],
      [
        32.9024,
        34.959320000000005
      ],
      [
        32.90225,
        34.959360000000004
      ],
      [
        32.902170000000005,
        34.959410000000005
      ],
      [
        32.902120000000004,
        34.959520000000005
      ],
      [
        32.902190000000004,
        34.95964
      ],
      [
        32.902170000000005,
        34.959770000000006
      ],
      [
        32.90209,
        34.959810000000004
      ],
      [
        32.902010000000004,
        34.9598
      ],
      [
        32.901970000000006,
        34.959880000000005
      ],
      [
        32.90184,
        34.959970000000006
      ],
      [
        32.901680000000006,
        34.96
      ],
      [
        32.901500000000006,
        34.96002
      ],
      [
        32.90135,
        34.960150000000006
      ],
      [
        32.901210000000006,
        34.960150000000006
      ],
      [
        32.9011,
        34.96009
      ],
      [
        32.90099,
        34.96013
      ],
      [
        32.901120000000006,
        34.96025
      ],
      [
        32.901070000000004,
        34.960420000000006
      ],
      [
        32.900940000000006,
        34.960710000000006
      ],
      [
        32.900890000000004,
        34.96094
      ],
      [
        32.90113,
        34.96108
      ],
      [
        32.90129,
        34.96128
      ],
      [
        32.901270000000004,
        34.961380000000005
      ],
      [
        32.901360000000004,
        34.96141
      ],
      [
        32.90131,
        34.96148
      ],
      [
        32.901360000000004,
        34.9615
      ],
      [
        32.90139,
        34.96155
      ],
      [
        32.90135,
        34.96164
      ],
      [
        32.90138,
        34.96175
      ],
      [
        32.901430000000005,
        34.961850000000005
      ],
      [
        32.90153,
        34.961940000000006
      ],
      [
        32.90164,
        34.961960000000005
      ],
      [
        32.901790000000005,
        34.9621
      ],
      [
        32.90186,
        34.96222
      ],
      [
        32.90189,
        34.96235
      ],
      [
        32.901700000000005,
        34.962520000000005
      ],
      [
        32.90147,
        34.96258
      ],
      [
        32.901320000000005,
        34.96266
      ],
      [
        32.901320000000005,
        34.96271
      ],
      [
        32.901120000000006,
        34.96291
      ],
      [
        32.90093,
        34.96305
      ],
      [
        32.90104,
        34.963100000000004
      ],
      [
        32.90115,
        34.96312
      ],
      [
        32.901630000000004,
        34.96312
      ],
      [
        32.90185,
        34.963210000000004
      ],
      [
        32.90191,
        34.96325
      ],
      [
        32.9018,
        34.963300000000004
      ],
      [
        32.90196,
        34.96338
      ],
      [
        32.90214,
        34.96358
      ],
      [
        32.902260000000005,
        34.96365
      ],
      [
        32.90245,
        34.96367
      ],
      [
        32.90252,
        34.96365
      ],
      [
        32.902620000000006,
        34.96358
      ],
      [
        32.90274,
        34.96343
      ],
      [
        32.90287,
        34.963350000000005
      ],
      [
        32.902910000000006,
        34.96351
      ],
      [
        32.90288,
        34.96383
      ],
      [
        32.90298,
        34.96388
      ],
      [
        32.90265,
        34.96408
      ],
      [
        32.902570000000004,
        34.96416
      ],
      [
        32.90227,
        34.96435
      ],
      [
        32.90209,
        34.96441
      ],
      [
        32.90194,
        34.964490000000005
      ],
      [
        32.901810000000005,
        34.964490000000005
      ],
      [
        32.901770000000006,
        34.964510000000004
      ],
      [
        32.901770000000006,
        34.964580000000005
      ],
      [
        32.901740000000004,
        34.96464
      ],
      [
        32.901680000000006,
        34.96468
      ],
      [
        32.901720000000005,
        34.964740000000006
      ],
      [
        32.90185,
        34.964780000000005
      ],
      [
        32.90187,
        34.964890000000004
      ],
      [
        32.90175,
        34.964960000000005
      ],
      [
        32.901740000000004,
        34.965
      ],
      [
        32.901630000000004,
        34.96502
      ],
      [
        32.90162,
        34.9651
      ],
      [
        32.90171,
        34.965120000000006
      ],
      [
        32.901720000000005,
        34.96522
      ],
      [
        32.90169,
        34.96529
      ],
      [
        32.901520000000005,
        34.96529
      ],
      [
        32.901430000000005,
        34.96533
      ],
      [
        32.901450000000004,
        34.96548
      ],
      [
        32.90137,
        34.96547
      ],
      [
        32.90135,
        34.965540000000004
      ],
      [
        32.901300000000006,
        34.96557
      ],
      [
        32.901210000000006,
        34.96558
      ],
      [
        32.901160000000004,
        34.965630000000004
      ],
      [
        32.90104,
        34.965680000000006
      ],
      [
        32.900800000000004,
        34.96585
      ],
      [
        32.90092,
        34.966010000000004
      ],
      [
        32.9009,
        34.96614
      ],
      [
        32.900960000000005,
        34.966100000000004
      ],
      [
        32.90102,
        34.966100000000004
      ],
      [
        32.90101,
        34.966330000000006
      ],
      [
        32.900960000000005,
        34.966440000000006
      ],
      [
        32.900830000000006,
        34.96652
      ],
      [
        32.90054,
        34.966530000000006
      ],
      [
        32.900490000000005,
        34.96665
      ],
      [
        32.90041,
        34.966710000000006
      ],
      [
        32.900200000000005,
        34.96676
      ],
      [
        32.899620000000006,
        34.96678
      ],
      [
        32.89951,
        34.966770000000004
      ],
      [
        32.899330000000006,
        34.966660000000005
      ],
      [
        32.899170000000005,
        34.966620000000006
      ],
      [
        32.89911,
        34.9667
      ],
      [
        32.89912,
        34.96674
      ],
      [
        32.89929,
        34.96692
      ],
      [
        32.89941,
        34.96703
      ],
      [
        32.89965,
        34.967180000000006
      ],
      [
        32.899710000000006,
        34.96726
      ],
      [
        32.89985,
        34.96734
      ],
      [
        32.899840000000005,
        34.96739
      ],
      [
        32.89969,
        34.96761
      ],
      [
        32.899550000000005,
        34.967690000000005
      ],
      [
        32.89938,
        34.96768
      ],
      [
        32.89912,
        34.967600000000004
      ],
      [
        32.89896,
        34.96777
      ],
      [
        32.89896,
        34.96782
      ],
      [
        32.89902,
        34.967940000000006
      ],
      [
        32.89909,
        34.96801
      ],
      [
        32.899150000000006,
        34.968140000000005
      ],
      [
        32.899190000000004,
        34.96831
      ],
      [
        32.899190000000004,
        34.96844
      ],
      [
        32.89934,
        34.968520000000005
      ],
      [
        32.899460000000005,
        34.96853
      ],
      [
        32.89965,
        34.96849
      ],
      [
        32.899860000000004,
        34.96828
      ],
      [
        32.90005,
        34.96831
      ],
      [
        32.900150000000004,
        34.96835
      ],
      [
        32.90021,
        34.968340000000005
      ],
      [
        32.90026,
        34.96831
      ],
      [
        32.90028,
        34.96826
      ],
      [
        32.90025,
        34.96817
      ],
      [
        32.900330000000004,
        34.968090000000004
      ],
      [
        32.900330000000004,
        34.968030000000006
      ],
      [
        32.90043,
        34.96797
      ],
      [
        32.90055,
        34.967850000000006
      ],
      [
        32.90061,
        34.967760000000006
      ],
      [
        32.90062,
        34.967710000000004
      ],
      [
        32.90066,
        34.967670000000005
      ],
      [
        32.90077,
        34.967650000000006
      ],
      [
        32.900890000000004,
        34.967690000000005
      ],
      [
        32.90101,
        34.9677
      ],
      [
        32.901180000000004,
        34.967650000000006
      ],
      [
        32.90131,
        34.967650000000006
      ],
      [
        32.901540000000004,
        34.967580000000005
      ],
      [
        32.90178,
        34.967600000000004
      ],
      [
        32.9018,
        34.96764
      ],
      [
        32.9018,
        34.96773
      ],
      [
        32.901770000000006,
        34.96786
      ],
      [
        32.901720000000005,
        34.967980000000004
      ],
      [
        32.901720000000005,
        34.968070000000004
      ],
      [
        32.90187,
        34.96829
      ],
      [
        32.901880000000006,
        34.96847
      ],
      [
        32.9018,
        34.96858
      ],
      [
        32.901790000000005,
        34.96862
      ],
      [
        32.90184,
        34.968700000000005
      ],
      [
        32.902120000000004,
        34.96884
      ],
      [
        32.90216,
        34.968880000000006
      ],
      [
        32.902170000000005,
        34.968970000000006
      ],
      [
        32.902280000000005,
        34.96907
      ],
      [
        32.9024,
        34.969080000000005
      ],
      [
        32.902550000000005,
        34.968990000000005
      ],
      [
        32.902680000000004,
        34.96898
      ],
      [
        32.9028,
        34.96894
      ],
      [
        32.90301,
        34.96904
      ],
      [
        32.903040000000004,
        34.969080000000005
      ],
      [
        32.90305,
        34.969210000000004
      ],
      [
        32.903150000000004,
        34.969370000000005
      ],
      [
        32.90312,
        34.96941
      ],
      [
        32.903040000000004,
        34.969460000000005
      ],
      [
        32.903040000000004,
        34.96951
      ],
      [
        32.90307,
        34.96954
      ],
      [
        32.90323,
        34.96958
      ],
      [
        32.903290000000005,
        34.969570000000004
      ],
      [
        32.90334,
        34.969550000000005
      ],
      [
        32.90353,
        34.9694
      ],
      [
        32.90359,
        34.96938
      ],
      [
        32.90363,
        34.96941
      ],
      [
        32.90375,
        34.96942
      ],
      [
        32.903780000000005,
        34.969460000000005
      ],
      [
        32.90388,
        34.969500000000004
      ],
      [
        32.90391,
        34.96954
      ],
      [
        32.90382,
        34.96978
      ],
      [
        32.903710000000004,
        34.969930000000005
      ],
      [
        32.90355,
        34.97025
      ],
      [
        32.903380000000006,
        34.970470000000006
      ],
      [
        32.903310000000005,
        34.970620000000004
      ],
      [
        32.9033,
        34.97075
      ],
      [
        32.903330000000004,
        34.97079
      ],
      [
        32.903560000000006,
        34.97092
      ],
      [
        32.90368,
        34.97102
      ],
      [
        32.90366,
        34.97106
      ],
      [
        32.90361,
        34.971070000000005
      ],
      [
        32.90344,
        34.97097
      ],
      [
        32.90314,
        34.97093
      ],
      [
        32.903040000000004,
        34.97083
      ],
      [
        32.903000000000006,
        34.970470000000006
      ],
      [
        32.9027,
        34.9705
      ],
      [
        32.902460000000005,
        34.97063
      ],
      [
        32.90232,
        34.970670000000005
      ],
      [
        32.90211,
        34.970600000000005
      ],
      [
        32.90193,
        34.97034
      ],
      [
        32.901740000000004,
        34.970310000000005
      ],
      [
        32.90158,
        34.970380000000006
      ],
      [
        32.901520000000005,
        34.97104
      ],
      [
        32.901650000000004,
        34.97135
      ],
      [
        32.9016,
        34.97151
      ],
      [
        32.90144,
        34.97162
      ],
      [
        32.901270000000004,
        34.97158
      ],
      [
        32.90082,
        34.97124
      ],
      [
        32.90039,
        34.971320000000006
      ],
      [
        32.90023,
        34.97155
      ],
      [
        32.900150000000004,
        34.971590000000006
      ],
      [
        32.90001,
        34.97158
      ],
      [
        32.89989,
        34.97146
      ],
      [
        32.899820000000005,
        34.971090000000004
      ],
      [
        32.89952,
        34.971090000000004
      ],
      [
        32.899280000000005,
        34.971180000000004
      ],
      [
        32.899170000000005,
        34.971340000000005
      ],
      [
        32.899300000000004,
        34.97167
      ],
      [
        32.899100000000004,
        34.97195
      ],
      [
        32.898830000000004,
        34.972120000000004
      ],
      [
        32.8986,
        34.972190000000005
      ],
      [
        32.8984,
        34.972120000000004
      ],
      [
        32.897960000000005,
        34.97184
      ],
      [
        32.89775,
        34.97191
      ],
      [
        32.897650000000006,
        34.97211
      ],
      [
        32.89753,
        34.97265
      ],
      [
        32.89735,
        34.97281
      ],
      [
        32.897090000000006,
        34.972950000000004
      ],
      [
        32.897000000000006,
        34.97312
      ],
      [
        32.896840000000005,
        34.97317
      ],
      [
        32.89645,
        34.97308
      ],
      [
        32.89616,
        34.972820000000006
      ],
      [
        32.895970000000005,
        34.97278
      ],
      [
        32.895230000000005,
        34.972950000000004
      ],
      [
        32.8951,
        34.97308
      ],
      [
        32.89502,
        34.97327
      ],
      [
        32.89491,
        34.973310000000005
      ],
      [
        32.89434,
        34.97314
      ],
      [
        32.8937,
        34.973400000000005
      ],
      [
        32.893710000000006,
        34.97327
      ],
      [
        32.89378,
        34.97299
      ],
      [
        32.893930000000005,
        34.97281
      ],
      [
        32.89396,
        34.97274
      ],
      [
        32.89397,
        34.97258
      ],
      [
        32.89392,
        34.972210000000004
      ],
      [
        32.893930000000005,
        34.972170000000006
      ],
      [
        32.89423,
        34.971830000000004
      ],
      [
        32.894270000000006,
        34.971590000000006
      ],
      [
        32.894450000000006,
        34.971320000000006
      ],
      [
        32.89446,
        34.971270000000004
      ],
      [
        32.894420000000004,
        34.971210000000006
      ],
      [
        32.89432,
        34.97119
      ],
      [
        32.89385,
        34.97129
      ],
      [
        32.89378,
        34.97129
      ],
      [
        32.89367,
        34.971250000000005
      ],
      [
        32.89354,
        34.97111
      ],
      [
        32.89336,
        34.97081
      ],
      [
        32.89336,
        34.970740000000006
      ],
      [
        32.89345,
        34.97061
      ],
      [
        32.89345,
        34.9703
      ],
      [
        32.893390000000004,
        34.970240000000004
      ],
      [
        32.892680000000006,
        34.96985
      ],
      [
        32.8926,
        34.96978
      ],
      [
        32.89258,
        34.969730000000006
      ],
      [
        32.89253,
        34.96905
      ],
      [
        32.89251,
        34.969
      ],
      [
        32.89247,
        34.968970000000006
      ],
      [
        32.892360000000004,
        34.96895
      ],
      [
        32.892300000000006,
        34.96898
      ],
      [
        32.891980000000004,
        34.96932
      ],
      [
        32.89193,
        34.969350000000006
      ],
      [
        32.891290000000005,
        34.969440000000006
      ],
      [
        32.89124,
        34.96947
      ],
      [
        32.891220000000004,
        34.96951
      ],
      [
        32.891200000000005,
        34.96976
      ],
      [
        32.89126,
        34.96985
      ],
      [
        32.89181,
        34.970110000000005
      ],
      [
        32.891850000000005,
        34.970150000000004
      ],
      [
        32.89193,
        34.970290000000006
      ],
      [
        32.89199,
        34.97055
      ],
      [
        32.89199,
        34.970620000000004
      ],
      [
        32.891940000000005,
        34.970740000000006
      ],
      [
        32.891850000000005,
        34.97082
      ],
      [
        32.891580000000005,
        34.9709
      ],
      [
        32.89124,
        34.971090000000004
      ],
      [
        32.89114,
        34.97131
      ],
      [
        32.89092,
        34.97148
      ],
      [
        32.89051500216963,
        34.97191500065204
      ],
      [
        32.89011,
        34.972350000000006
      ],
      [
        32.88983,
        34.97249
      ],
      [
        32.889570000000006,
        34.97272
      ],
      [
        32.88899,
        34.97301
      ],
      [
        32.888675001474084,
        34.97340500046314
      ],
      [
        32.888360000000006,
        34.973800000000004
      ],
      [
        32.88834,
        34.973890000000004
      ],
      [
        32.88848,
        34.97477
      ],
      [
        32.888470000000005,
        34.974810000000005
      ],
      [
        32.88842,
        34.974880000000006
      ],
      [
        32.8879,
        34.975190000000005
      ],
      [
        32.88787,
        34.97525
      ],
      [
        32.88787,
        34.97529
      ],
      [
        32.887890000000006,
        34.975350000000006
      ],
      [
        32.88803,
        34.9754
      ],
      [
        32.888090000000005,
        34.9754
      ],
      [
        32.88826,
        34.97531
      ],
      [
        32.88837,
        34.975300000000004
      ],
      [
        32.88859,
        34.975350000000006
      ],
      [
        32.88868,
        34.97542
      ],
      [
        32.8888,
        34.975750000000005
      ]
    ]
  }
}