{
  "type": "Feature",
  "properties": {},
  "geometry": {
    "type": "LineString",
    "coordinates": [
      [
        33.19776,
        34.920970000000004
      ],
      [
        33.1978,
        34.92096
      ],
      [
        33.19782,
        34.921
      ],
      [
        33.19785,
        34.921310000000005
      ],
      [
        33.19783,
        34.921400000000006
      ],
      [
        33.19787,
        34.921400000000006
      ],
      [
        33.19798,
        34.92132
      ],
      [
        33.19811,
        34.92118
      ],
      [
        33.1982,
        34.92096
      ],
      [
        33.19823500021363,
        34.92044500009341
      ],
      [
        33.19827,
        34.91993
      ],
      [
        33.198350000000005,
        34.919920000000005
      ],
      [
        33.19843,
        34.920080000000006
      ],
      [
        33.19859,
        34.920210000000004
      ],
      [
        33.198660000000004,
        34.9202
      ],
      [
        33.19868,
        34.919830000000005
      ],
      [
        33.19865,
        34.91973
      ],
      [
        33.198660000000004,
        34.91968
      ],
      [
        33.198800000000006,
        34.919610000000006
      ],
      [
        33.19892,
        34.91958
      ],
      [
        33.19903,
        34.91958
      ],
      [
        33.19943,
        34.91946
      ],
      [
        33.19966,
        34.919430000000006
      ],
      [
        33.19973,
        34.91937
      ],
      [
        33.19979,
        34.919270000000004
      ],
      [
        33.19979,
        34.91921
      ],
      [
        33.199630000000006,
        34.918850000000006
      ],
      [
        33.19952,
        34.91852
      ],
      [
        33.199560000000005,
        34.91841
      ],
      [
        33.19984,
        34.91816
      ],
      [
        33.20002,
        34.918060000000004
      ],
      [
        33.20002,
        34.91792
      ],
      [
        33.200140000000005,
        34.918040000000005
      ],
      [
        33.20019,
        34.918040000000005
      ],
      [
        33.20017,
        34.91796
      ],
      [
        33.2002,
        34.91789
      ],
      [
        33.20026,
        34.917880000000004
      ],
      [
        33.20033,
        34.9179
      ],
      [
        33.20044,
        34.91771
      ],
      [
        33.200590000000005,
        34.91758
      ],
      [
        33.20091,
        34.917390000000005
      ],
      [
        33.200990000000004,
        34.91727
      ],
      [
        33.20109,
        34.91718
      ],
      [
        33.2012,
        34.917010000000005
      ],
      [
        33.201240000000006,
        34.917
      ],
      [
        33.20136,
        34.91704
      ],
      [
        33.201640000000005,
        34.91707
      ],
      [
        33.201710000000006,
        34.91706
      ],
      [
        33.202090000000005,
        34.91684
      ],
      [
        33.2023,
        34.91678
      ],
      [
        33.202400000000004,
        34.916630000000005
      ],
      [
        33.20243,
        34.91653
      ],
      [
        33.20273,
        34.9164
      ],
      [
        33.20277,
        34.916320000000006
      ],
      [
        33.20313,
        34.91621
      ],
      [
        33.203300000000006,
        34.91611
      ],
      [
        33.203320000000005,
        34.916030000000006
      ],
      [
        33.20317,
        34.915560000000006
      ],
      [
        33.20306,
        34.91534
      ],
      [
        33.203,
        34.91492
      ],
      [
        33.202890000000004,
        34.91465
      ],
      [
        33.2029,
        34.91458
      ],
      [
        33.203,
        34.914390000000004
      ],
      [
        33.20308,
        34.91404
      ],
      [
        33.20311,
        34.914
      ],
      [
        33.20335,
        34.914030000000004
      ],
      [
        33.203500000000005,
        34.914030000000004
      ],
      [
        33.203880000000005,
        34.91411
      ],
      [
        33.20432,
        34.91413
      ],
      [
        33.204480000000004,
        34.91418
      ],
      [
        33.20485,
        34.91413
      ],
      [
        33.204930000000004,
        34.914060000000006
      ],
      [
        33.204980000000006,
        34.913920000000005
      ],
      [
        33.204980000000006,
        34.91378
      ],
      [
        33.20507,
        34.913500000000006
      ],
      [
        33.205200000000005,
        34.913230000000006
      ],
      [
        33.20524,
        34.91301
      ],
      [
        33.205450000000006,
        34.91273
      ],
      [
        33.2055,
        34.912530000000004
      ],
      [
        33.205690000000004,
        34.91246
      ],
      [
        33.20593,
        34.91245
      ],
      [
        33.206070000000004,
        34.9123
      ],
      [
        33.20613,
        34.91227
      ],
      [
        33.206250000000004,
        34.91232
      ],
      [
        33.20633,
        34.912420000000004
      ],
      [
        33.206480000000006,
        34.9125
      ],
      [
        33.206630000000004,
        34.91254
      ],
      [
        33.206970000000005,
        34.912510000000005
      ],
      [
        33.20731,
        34.912670000000006
      ],
      [
        33.20743,
        34.91279
      ],
      [
        33.207480000000004,
        34.912940000000006
      ],
      [
        33.20768,
        34.91324
      ],
      [
        33.207730000000005,
        34.91324
      ],
      [
        33.20803,
        34.91295
      ],
      [
        33.20815,
        34.91275
      ],
      [
        33.20825,
        34.91268
      ],
      [
        33.20895,
        34.91263
      ],
      [
        33.209120000000006,
        34.912530000000004
      ],
      [
        33.20926,
        34.912580000000005
      ],
      [
        33.209340000000005,
        34.912650000000006
      ],
      [
        33.20948,
        34.91266
      ],
      [
        33.209590000000006,
        34.912910000000004
      ],
      [
        33.209900000000005,
        34.913180000000004
      ],
      [
        33.2102,
        34.913340000000005
      ],
      [
        33.210749998889085,
        34.91353000129493
      ],
      [
        33.2113,
        34.913720000000005
      ],
      [
        33.21143,
        34.913610000000006
      ],
      [
        33.211670000000005,
        34.91358
      ],
      [
        33.211850000000005,
        34.913650000000004
      ],
      [
        33.212160000000004,
        34.913990000000005
      ],
      [
        33.212230000000005,
        34.91389
      ],
      [
        33.2122,
        34.91367
      ],
      [
        33.21229,
        34.913520000000005
      ],
      [
        33.21247,
        34.91342
      ],
      [
        33.21266,
        34.913360000000004
      ],
      [
        33.21255,
        34.91357
      ],
      [
        33.21256,
        34.913610000000006
      ],
      [
        33.212590000000006,
        34.913610000000006
      ],
      [
        33.212720000000004,
        34.913500000000006
      ],
      [
        33.21332,
        34.9138
      ],
      [
        33.213640000000005,
        34.914
      ],
      [
        33.21392,
        34.914100000000005
      ],
      [
        33.21403,
        34.91409
      ],
      [
        33.21414,
        34.91416
      ],
      [
        33.214310000000005,
        34.914390000000004
      ],
      [
        33.21457,
        34.91458
      ],
      [
        33.214650000000006,
        34.914730000000006
      ],
      [
        33.21464,
        34.914860000000004
      ],
      [
        33.215120000000006,
        34.915470000000006
      ],
      [
        33.215630000000004,
        34.91566
      ],
      [
        33.21595,
        34.915910000000004
      ],
      [
        33.21614,
        34.91602
      ],
      [
        33.21633,
        34.91619
      ],
      [
        33.21632,
        34.91617
      ],
      [
        33.216440000000006,
        34.916270000000004
      ],
      [
        33.21652,
        34.91642
      ],
      [
        33.21661,
        34.91651
      ],
      [
        33.21685,
        34.91664
      ],
      [
        33.21694,
        34.91675
      ],
      [
        33.217000000000006,
        34.91678
      ],
      [
        33.21699,
        34.91678
      ],
      [
        33.217040000000004,
        34.916810000000005
      ],
      [
        33.21726,
        34.916880000000006
      ],
      [
        33.217490000000005,
        34.91702
      ],
      [
        33.217870000000005,
        34.91742
      ],
      [
        33.21802,
        34.917480000000005
      ],
      [
        33.21828,
        34.91762
      ],
      [
        33.218520000000005,
        34.91778
      ],
      [
        33.218610000000005,
        34.917770000000004
      ],
      [
        33.218720000000005,
        34.9178
      ],
      [
        33.21878,
        34.917950000000005
      ],
      [
        33.21891,
        34.9181
      ],
      [
        33.219030000000004,
        34.9181
      ],
      [
        33.219280000000005,
        34.91818
      ],
      [
        33.21947,
        34.918380000000006
      ],
      [
        33.21969,
        34.918420000000005
      ],
      [
        33.22008,
        34.918730000000004
      ],
      [
        33.220090000000006,
        34.91884
      ],
      [
        33.22016,
        34.9189
      ],
      [
        33.22021,
        34.91917
      ],
      [
        33.22026,
        34.91922
      ],
      [
        33.220490000000005,
        34.919230000000006
      ],
      [
        33.22063,
        34.91926
      ],
      [
        33.22074,
        34.919250000000005
      ],
      [
        33.22082,
        34.919270000000004
      ],
      [
        33.221180000000004,
        34.91957
      ],
      [
        33.221740000000004,
        34.919740000000004
      ],
      [
        33.2218,
        34.91984
      ],
      [
        33.22168,
        34.92
      ],
      [
        33.22151,
        34.92016
      ],
      [
        33.22151,
        34.92027
      ],
      [
        33.22157,
        34.92045
      ],
      [
        33.22158,
        34.920640000000006
      ],
      [
        33.22177,
        34.921020000000006
      ],
      [
        33.22198,
        34.92118
      ],
      [
        33.22216,
        34.921220000000005
      ],
      [
        33.2222,
        34.921290000000006
      ],
      [
        33.222210000000004,
        34.92145
      ],
      [
        33.222170000000006,
        34.92156
      ],
      [
        33.22224,
        34.92168
      ],
      [
        33.222280000000005,
        34.921800000000005
      ],
      [
        33.22233,
        34.92186
      ],
      [
        33.222530000000006,
        34.92201
      ],
      [
        33.222660000000005,
        34.9223
      ],
      [
        33.223150000000004,
        34.922720000000005
      ],
      [
        33.223110000000005,
        34.92286
      ],
      [
        33.22314,
        34.92297
      ],
      [
        33.22312,
        34.92344
      ],
      [
        33.22319,
        34.923700000000004
      ],
      [
        33.2233,
        34.92389
      ],
      [
        33.223490000000005,
        34.92401
      ],
      [
        33.22361,
        34.924150000000004
      ],
      [
        33.22361,
        34.92423
      ],
      [
        33.223670000000006,
        34.92432
      ],
      [
        33.223670000000006,
        34.92443
      ],
      [
        33.22364,
        34.924530000000004
      ],
      [
        33.22364,
        34.924640000000004
      ],
      [
        33.2237,
        34.92484
      ],
      [
        33.22382,
        34.92537
      ],
      [
        33.22411,
        34.925630000000005
      ],
      [
        33.22417,
        34.92571
      ],
      [
        33.224250000000005,
        34.925740000000005
      ],
      [
        33.224630000000005,
        34.92598
      ],
      [
        33.22476,
        34.926120000000004
      ],
      [
        33.22477,
        34.92633
      ],
      [
        33.22482,
        34.926460000000006
      ],
      [
        33.225260000000006,
        34.926750000000006
      ],
      [
        33.22533,
        34.926970000000004
      ],
      [
        33.22534,
        34.927110000000006
      ],
      [
        33.22542,
        34.927240000000005
      ],
      [
        33.22558,
        34.92739
      ],
      [
        33.225860000000004,
        34.927510000000005
      ],
      [
        33.225970000000004,
        34.927530000000004
      ],
      [
        33.226060000000004,
        34.92752
      ],
      [
        33.22623,
        34.92745
      ],
      [
        33.226310000000005,
        34.927440000000004
      ],
      [
        33.22648,
        34.92759
      ],
      [
        33.226710000000004,
        34.92757
      ],
      [
        33.22697,
        34.927580000000006
      ],
      [
        33.22728,
        34.9275
      ],
      [
        33.2274,
        34.9275
      ],
      [
        33.22753,
        34.92745
      ],
      [
        33.22811,
        34.92779
      ],
      [
        33.22825,
        34.92793
      ],
      [
        33.22858,
        34.928200000000004
      ],
      [
        33.228730000000006,
        34.92828
      ],
      [
        33.228860000000005,
        34.928270000000005
      ],
      [
        33.22916,
        34.928140000000006
      ],
      [
        33.229330000000004,
        34.928180000000005
      ],
      [
        33.22943,
        34.928180000000005
      ],
      [
        33.229760000000006,
        34.92799
      ],
      [
        33.23002,
        34.927960000000006
      ],
      [
        33.23015,
        34.927980000000005
      ],
      [
        33.23026,
        34.92803
      ],
      [
        33.23044,
        34.928050000000006
      ],
      [
        33.23071,
        34.92803
      ],
      [
        33.230920000000005,
        34.928110000000004
      ],
      [
        33.231100000000005,
        34.92821
      ],
      [
        33.231300000000005,
        34.928610000000006
      ],
      [
        33.23163,
        34.92889
      ],
      [
        33.23176,
        34.92895
      ],
      [
        33.23232,
        34.92895
      ],
      [
        33.232530000000004,
        34.92916
      ],
      [
        33.23263,
        34.929370000000006
      ],
      [
        33.23312,
        34.930060000000005
      ],
      [
        33.23331,
        34.930220000000006
      ],
      [
        33.23393,
        34.930510000000005
      ],
      [
        33.23413,
        34.93057
      ],
      [
        33.23433,
        34.93059
      ],
      [
        33.23498,
        34.93041
      ],
      [
        33.23536,
        34.930580000000006
      ],
      [
        33.2355,
        34.93072
      ],
      [
        33.23561,
        34.930800000000005
      ],
      [
        33.23604,
        34.930980000000005
      ],
      [
        33.236540000000005,
        34.93126
      ],
      [
        33.236760000000004,
        34.9313
      ],
      [
        33.23693,
        34.931270000000005
      ],
      [
        33.237390000000005,
        34.93141
      ],
      [
        33.237550000000006,
        34.93157
      ],
      [
        33.23763,
        34.93177
      ],
      [
        33.23783,
        34.93204
      ],
      [
        33.23794,
        34.93209
      ],
      [
        33.238,
        34.932140000000004
      ],
      [
        33.23803,
        34.93226
      ],
      [
        33.23809,
        34.932320000000004
      ],
      [
        33.238200000000006,
        34.93235
      ],
      [
        33.23852,
        34.932590000000005
      ],
      [
        33.2387,
        34.93285
      ],
      [
        33.23893,
        34.93307
      ],
      [
        33.23908,
        34.93309
      ],
      [
        33.239270000000005,
        34.933020000000006
      ],
      [
        33.23941,
        34.93305
      ],
      [
        33.2395,
        34.93323
      ],
      [
        33.24022,
        34.933600000000006
      ],
      [
        33.24033,
        34.93361
      ],
      [
        33.240480000000005,
        34.93356
      ],
      [
        33.24076,
        34.933220000000006
      ],
      [
        33.24083,
        34.93319
      ],
      [
        33.24107,
        34.93323
      ],
      [
        33.24121,
        34.93321
      ],
      [
        33.24139,
        34.9331
      ],
      [
        33.241420000000005,
        34.933130000000006
      ],
      [
        33.24139,
        34.933260000000004
      ],
      [
        33.241420000000005,
        34.933440000000004
      ],
      [
        33.24139,
        34.93356
      ],
      [
        33.241490000000006,
        34.93376
      ],
      [
        33.24154,
        34.933800000000005
      ],
      [
        33.24159,
        34.93381
      ],
      [
        33.241710000000005,
        34.93368
      ],
      [
        33.24201,
        34.933550000000004
      ],
      [
        33.24235,
        34.93318
      ],
      [
        33.24259,
        34.933
      ],
      [
        33.2428,
        34.932930000000006
      ],
      [
        33.24293,
        34.93285
      ],
      [
        33.24317,
        34.93282
      ],
      [
        33.24325,
        34.932840000000006
      ],
      [
        33.243300000000005,
        34.932900000000004
      ],
      [
        33.24326,
        34.933240000000005
      ],
      [
        33.24336,
        34.9335
      ],
      [
        33.24349,
        34.93356
      ],
      [
        33.24356,
        34.933550000000004
      ],
      [
        33.24364,
        34.93336
      ],
      [
        33.243990000000004,
        34.93321
      ],
      [
        33.244080000000004,
        34.933130000000006
      ],
      [
        33.24419,
        34.933110000000006
      ],
      [
        33.24439,
        34.93316
      ],
      [
        33.245250000000006,
        34.93327
      ],
      [
        33.24553,
        34.93334
      ],
      [
        33.2456,
        34.933400000000006
      ],
      [
        33.2456,
        34.933490000000006
      ],
      [
        33.24579,
        34.933550000000004
      ],
      [
        33.24588,
        34.933620000000005
      ],
      [
        33.245990000000006,
        34.93377
      ],
      [
        33.245870000000004,
        34.9339
      ],
      [
        33.246030000000005,
        34.933870000000006
      ],
      [
        33.246190000000006,
        34.93379
      ],
      [
        33.24629,
        34.93363
      ],
      [
        33.24627,
        34.933510000000005
      ],
      [
        33.246100000000006,
        34.933350000000004
      ],
      [
        33.246390000000005,
        34.933220000000006
      ]
    ]
  }
}