{
  "type": "Feature",
  "properties": {},
  "geometry": {
    "type": "LineString",
    "coordinates": [
      [
        32.989540000000005,
        34.968920000000004
      ],
      [
        32.9894,
        34.969030000000004
      ],
      [
        32.98948,
        34.96913
      ],
      [
        32.98959,
        34.969150000000006
      ],
      [
        32.98962,
        34.96936
      ],
      [
        32.98944,
        34.969300000000004
      ],
      [
        32.98941,
        34.969460000000005
      ],
      [
        32.989470000000004,
        34.96978
      ],
      [
        32.98957,
        34.96994
      ],
      [
        32.98957,
        34.9701
      ],
      [
        32.989540000000005,
        34.97026
      ],
      [
        32.98949,
        34.970380000000006
      ],
      [
        32.98939,
        34.97034
      ],
      [
        32.98937,
        34.970470000000006
      ],
      [
        32.98913,
        34.970710000000004
      ],
      [
        32.989090000000004,
        34.97088
      ],
      [
        32.98901,
        34.970980000000004
      ],
      [
        32.989050000000006,
        34.971120000000006
      ],
      [
        32.988890000000005,
        34.97129
      ],
      [
        32.988780000000006,
        34.971320000000006
      ],
      [
        32.98866,
        34.97162
      ],
      [
        32.988730000000004,
        34.97169
      ],
      [
        32.98868,
        34.9718
      ],
      [
        32.98861,
        34.971900000000005
      ],
      [
        32.988490000000006,
        34.971970000000006
      ],
      [
        32.98839,
        34.972060000000006
      ],
      [
        32.988400000000006,
        34.97218
      ],
      [
        32.98846,
        34.972280000000005
      ],
      [
        32.98839,
        34.9724
      ],
      [
        32.98848,
        34.972460000000005
      ],
      [
        32.98847,
        34.97252
      ],
      [
        32.9885,
        34.972640000000006
      ],
      [
        32.98819,
        34.972660000000005
      ],
      [
        32.988020000000006,
        34.97274
      ],
      [
        32.98796,
        34.97269
      ],
      [
        32.98791,
        34.97272
      ],
      [
        32.987770000000005,
        34.97274
      ],
      [
        32.98762,
        34.972680000000004
      ],
      [
        32.987500000000004,
        34.972660000000005
      ],
      [
        32.9874,
        34.97267
      ],
      [
        32.98711,
        34.972640000000006
      ],
      [
        32.98682,
        34.97278
      ],
      [
        32.98675,
        34.97289
      ],
      [
        32.98662,
        34.972950000000004
      ],
      [
        32.986470000000004,
        34.97294
      ],
      [
        32.98632,
        34.972970000000004
      ],
      [
        32.98622,
        34.9731
      ],
      [
        32.985980000000005,
        34.9733
      ],
      [
        32.98603,
        34.973150000000004
      ],
      [
        32.98595,
        34.973130000000005
      ],
      [
        32.98585,
        34.97317
      ],
      [
        32.98577,
        34.97332
      ],
      [
        32.98566,
        34.973380000000006
      ],
      [
        32.98547,
        34.97336
      ],
      [
        32.98527,
        34.973400000000005
      ],
      [
        32.985150000000004,
        34.97345
      ],
      [
        32.98527,
        34.973330000000004
      ],
      [
        32.98543,
        34.97323
      ],
      [
        32.98545,
        34.973130000000005
      ],
      [
        32.98536,
        34.973180000000006
      ],
      [
        32.98527,
        34.97314
      ],
      [
        32.98516,
        34.973150000000004
      ],
      [
        32.985,
        34.97323
      ],
      [
        32.984860000000005,
        34.97325
      ],
      [
        32.9846,
        34.973380000000006
      ],
      [
        32.98447,
        34.973380000000006
      ],
      [
        32.98424,
        34.97348
      ],
      [
        32.98424,
        34.97343
      ],
      [
        32.98436,
        34.97337
      ],
      [
        32.984260000000006,
        34.97336
      ],
      [
        32.984,
        34.973470000000006
      ],
      [
        32.983920000000005,
        34.97354
      ],
      [
        32.98366,
        34.97359
      ],
      [
        32.98346,
        34.973670000000006
      ],
      [
        32.98341,
        34.973710000000004
      ],
      [
        32.983270000000005,
        34.97374
      ],
      [
        32.983160000000005,
        34.97379
      ],
      [
        32.983070000000005,
        34.97386
      ],
      [
        32.98297,
        34.973980000000005
      ],
      [
        32.98283,
        34.974070000000005
      ],
      [
        32.98274,
        34.974160000000005
      ],
      [
        32.98246,
        34.97419
      ],
      [
        32.982200000000006,
        34.97429
      ],
      [
        32.98208,
        34.97446
      ],
      [
        32.982060000000004,
        34.97455
      ],
      [
        32.98187,
        34.974650000000004
      ],
      [
        32.98183,
        34.974700000000006
      ],
      [
        32.98176,
        34.974720000000005
      ],
      [
        32.98163,
        34.97469
      ],
      [
        32.98156,
        34.97469
      ],
      [
        32.98147,
        34.974740000000004
      ],
      [
        32.981480000000005,
        34.97467
      ],
      [
        32.98153,
        34.97462
      ],
      [
        32.98162,
        34.974610000000006
      ],
      [
        32.98167,
        34.974560000000004
      ],
      [
        32.981700000000004,
        34.97451
      ],
      [
        32.981680000000004,
        34.97444
      ],
      [
        32.981950000000005,
        34.97399
      ],
      [
        32.981880000000004,
        34.973890000000004
      ],
      [
        32.981750000000005,
        34.97388
      ],
      [
        32.98153,
        34.97397
      ],
      [
        32.981370000000005,
        34.973980000000005
      ],
      [
        32.98105,
        34.974120000000006
      ],
      [
        32.98042,
        34.974160000000005
      ],
      [
        32.980270000000004,
        34.97421
      ],
      [
        32.9802,
        34.97417
      ],
      [
        32.980050000000006,
        34.9742
      ],
      [
        32.97993,
        34.97417
      ],
      [
        32.97959,
        34.974270000000004
      ],
      [
        32.97943,
        34.97426
      ],
      [
        32.97894,
        34.97437
      ],
      [
        32.9787,
        34.97435
      ],
      [
        32.978120000000004,
        34.97435
      ],
      [
        32.977940000000004,
        34.9744
      ],
      [
        32.977740000000004,
        34.974520000000005
      ],
      [
        32.97762,
        34.97449
      ],
      [
        32.97749,
        34.974540000000005
      ],
      [
        32.97739,
        34.974610000000006
      ],
      [
        32.97737,
        34.97473
      ],
      [
        32.97728,
        34.974740000000004
      ],
      [
        32.977160000000005,
        34.97471
      ],
      [
        32.9771,
        34.97468
      ],
      [
        32.97703,
        34.97469
      ],
      [
        32.976960000000005,
        34.97478
      ],
      [
        32.976760000000006,
        34.97491
      ],
      [
        32.97674,
        34.974990000000005
      ],
      [
        32.97677,
        34.975030000000004
      ],
      [
        32.977140000000006,
        34.97532
      ],
      [
        32.97721,
        34.9754
      ],
      [
        32.97724,
        34.97547
      ],
      [
        32.977230000000006,
        34.975590000000004
      ],
      [
        32.977140000000006,
        34.97576
      ],
      [
        32.97715,
        34.97585
      ],
      [
        32.97721,
        34.97594
      ],
      [
        32.97728,
        34.976000000000006
      ],
      [
        32.977340000000005,
        34.976130000000005
      ],
      [
        32.977340000000005,
        34.97639
      ],
      [
        32.977430000000005,
        34.976470000000006
      ],
      [
        32.97744,
        34.97659
      ],
      [
        32.97742,
        34.976710000000004
      ],
      [
        32.97735,
        34.976850000000006
      ],
      [
        32.977340000000005,
        34.97697
      ],
      [
        32.977360000000004,
        34.97708
      ],
      [
        32.977430000000005,
        34.97719
      ],
      [
        32.97742,
        34.97749
      ],
      [
        32.97735,
        34.977590000000006
      ],
      [
        32.9772,
        34.977740000000004
      ],
      [
        32.97717,
        34.97782
      ],
      [
        32.977160000000005,
        34.977940000000004
      ],
      [
        32.97724,
        34.97814
      ],
      [
        32.97721,
        34.978530000000006
      ],
      [
        32.9772,
        34.978590000000004
      ],
      [
        32.97713,
        34.97872
      ],
      [
        32.97688,
        34.97894
      ],
      [
        32.97684,
        34.979020000000006
      ],
      [
        32.97684,
        34.97918
      ],
      [
        32.976710000000004,
        34.9795
      ],
      [
        32.976690000000005,
        34.9797
      ],
      [
        32.976620000000004,
        34.97979
      ],
      [
        32.97632,
        34.979960000000005
      ],
      [
        32.97616,
        34.980090000000004
      ],
      [
        32.9761,
        34.98017
      ],
      [
        32.9761,
        34.98026
      ],
      [
        32.97617,
        34.980340000000005
      ],
      [
        32.97639,
        34.98044
      ],
      [
        32.976440000000004,
        34.98048
      ],
      [
        32.97646,
        34.98055
      ],
      [
        32.976420000000005,
        34.98066
      ]
    ]
  }
}