{
  "type": "FeatureCollection",
  "generator": "overpass-turbo",
  "copyright": "The data included in this document is from www.openstreetmap.org. The data is made available under ODbL.",
  "timestamp": "2026-08-25T23:23:29Z",
  "features": [
    {
      "type": "Feature",
      "properties": {
        "@id": "relation/15104333",
        "leisure": "nature_reserve",
        "name:en": "Saint Nikandros National Forest Park",
        "operator": "Department of Forest",
        "type": "multipolygon"
      },
      "geometry": {
        "type": "Polygon",
        "coordinates": [
          [
            [
              33.9649668,
              34.9893729
            ],
            [
              33.9653204,
              34.9908295
            ],
            [
              33.9655119,
              34.9915589
            ],
            [
              33.9664989,
              34.9916144
            ],
            [
              33.9663307,
              34.9919883
            ],
            [
              33.9656186,
              34.991876
            ],
            [
              33.9641238,
              34.9921598
            ],
            [
              33.9638985,
              34.9918431
            ],
            [
              33.9635166,
              34.9919189
            ],
            [
              33.9633726,
              34.991646
            ],
            [
              33.9631898,
              34.9912631
            ],
            [
              33.9629451,
              34.9910656
            ],
            [
              33.9627182,
              34.9909595
            ],
            [
              33.9624701,
              34.9910097
            ],
            [
              33.9623628,
              34.9910624
            ],
            [
              33.9624079,
              34.9912137
            ],
            [
              33.9624396,
              34.9912936
            ],
            [
              33.9608397,
              34.9904552
            ],
            [
              33.9607783,
              34.9905898
            ],
            [
              33.9617076,
              34.9917796
            ],
            [
              33.9612197,
              34.9919761
            ],
            [
              33.9605918,
              34.9915698
            ],
            [
              33.9602712,
              34.9915756
            ],
            [
              33.9599389,
              34.9917165
            ],
            [
              33.9598144,
              34.9919427
            ],
            [
              33.959626,
              34.9920118
            ],
            [
              33.9591515,
              34.991912
            ],
            [
              33.9584668,
              34.9917876
            ],
            [
              33.9585145,
              34.991713
            ],
            [
              33.9588564,
              34.9917784
            ],
            [
              33.9592487,
              34.9918393
            ],
            [
              33.959414,
              34.991868
            ],
            [
              33.9596753,
              34.9918332
            ],
            [
              33.9597149,
              34.9915581
            ],
            [
              33.9597535,
              34.9912728
            ],
            [
              33.9598766,
              34.9908432
            ],
            [
              33.9598518,
              34.9907664
            ],
            [
              33.9594035,
              34.989379
            ],
            [
              33.9590159,
              34.9889854
            ],
            [
              33.9592656,
              34.9889683
            ],
            [
              33.9594297,
              34.9889947
            ],
            [
              33.9593071,
              34.9888143
            ],
            [
              33.9592642,
              34.9887741
            ],
            [
              33.9592287,
              34.9887208
            ],
            [
              33.9589706,
              34.9882336
            ],
            [
              33.9588952,
              34.9880998
            ],
            [
              33.9589056,
              34.988055
            ],
            [
              33.9589293,
              34.9880195
            ],
            [
              33.9589537,
              34.9879981
            ],
            [
              33.95902,
              34.9879593
            ],
            [
              33.95893,
              34.9877557
            ],
            [
              33.9586914,
              34.9877828
            ],
            [
              33.958737,
              34.9875784
            ],
            [
              33.9587448,
              34.9874868
            ],
            [
              33.9587468,
              34.9873481
            ],
            [
              33.9587604,
              34.9871528
            ],
            [
              33.9590234,
              34.9872069
            ],
            [
              33.9592493,
              34.9872225
            ],
            [
              33.9594572,
              34.9872155
            ],
            [
              33.9595611,
              34.9871933
            ],
            [
              33.9596304,
              34.9871891
            ],
            [
              33.9598388,
              34.9872104
            ],
            [
              33.9599429,
              34.9872067
            ],
            [
              33.9599883,
              34.987161
            ],
            [
              33.9600801,
              34.9870672
            ],
            [
              33.9601184,
              34.9870609
            ],
            [
              33.9601399,
              34.9870333
            ],
            [
              33.9601763,
              34.9870185
            ],
            [
              33.9602191,
              34.9870162
            ],
            [
              33.9602433,
              34.9869984
            ],
            [
              33.9602683,
              34.9869739
            ],
            [
              33.9602674,
              34.9869436
            ],
            [
              33.9602618,
              34.9868879
            ],
            [
              33.9602516,
              34.9868554
            ],
            [
              33.9602767,
              34.986822
            ],
            [
              33.9603136,
              34.986774
            ],
            [
              33.960333,
              34.9867277
            ],
            [
              33.9603407,
              34.9866864
            ],
            [
              33.9604136,
              34.9866465
            ],
            [
              33.9604099,
              34.9866355
            ],
            [
              33.9604513,
              34.9866051
            ],
            [
              33.9604928,
              34.9865714
            ],
            [
              33.9605106,
              34.9865194
            ],
            [
              33.9605512,
              34.9864649
            ],
            [
              33.9605872,
              34.9864471
            ],
            [
              33.9606082,
              34.9864421
            ],
            [
              33.9606191,
              34.9864639
            ],
            [
              33.9606354,
              34.986461
            ],
            [
              33.9606434,
              34.9864466
            ],
            [
              33.9606473,
              34.9863983
            ],
            [
              33.9606339,
              34.9863486
            ],
            [
              33.960631,
              34.9863034
            ],
            [
              33.9606653,
              34.9862665
            ],
            [
              33.9607049,
              34.9862205
            ],
            [
              33.9607299,
              34.986153
            ],
            [
              33.9608101,
              34.9860489
            ],
            [
              33.9608286,
              34.9859772
            ],
            [
              33.9608164,
              34.9858969
            ],
            [
              33.9608622,
              34.9858511
            ],
            [
              33.9609095,
              34.9857678
            ],
            [
              33.9609986,
              34.9856757
            ],
            [
              33.9610634,
              34.9856554
            ],
            [
              33.9610824,
              34.9856294
            ],
            [
              33.9611757,
              34.9855604
            ],
            [
              33.9613618,
              34.9855148
            ],
            [
              33.9615934,
              34.9855014
            ],
            [
              33.9616454,
              34.9854353
            ],
            [
              33.9618857,
              34.9853832
            ],
            [
              33.9621357,
              34.9853712
            ],
            [
              33.9621656,
              34.9853515
            ],
            [
              33.9621757,
              34.9852999
            ],
            [
              33.962238,
              34.985288
            ],
            [
              33.9622631,
              34.9852421
            ],
            [
              33.9623005,
              34.9852292
            ],
            [
              33.9624049,
              34.9852471
            ],
            [
              33.9624605,
              34.9852359
            ],
            [
              33.9625437,
              34.985241
            ],
            [
              33.9625854,
              34.9852289
            ],
            [
              33.9627102,
              34.9852531
            ],
            [
              33.9627733,
              34.9852899
            ],
            [
              33.9628355,
              34.9852723
            ],
            [
              33.9628982,
              34.9852807
            ],
            [
              33.9629225,
              34.9853057
            ],
            [
              33.9629333,
              34.9853398
            ],
            [
              33.9631566,
              34.9854285
            ],
            [
              33.9632331,
              34.9854725
            ],
            [
              33.9632685,
              34.9855138
            ],
            [
              33.9634185,
              34.9855418
            ],
            [
              33.9634897,
              34.9855927
            ],
            [
              33.9636392,
              34.9856707
            ],
            [
              33.9637228,
              34.985691
            ],
            [
              33.9638059,
              34.9856943
            ],
            [
              33.9638484,
              34.9857764
            ],
            [
              33.9639048,
              34.9858412
            ],
            [
              33.9639128,
              34.9859026
            ],
            [
              33.9639335,
              34.9859293
            ],
            [
              33.9639738,
              34.9859474
            ],
            [
              33.9640727,
              34.9859631
            ],
            [
              33.9640987,
              34.9859809
            ],
            [
              33.9641123,
              34.9860266
            ],
            [
              33.9641108,
              34.9860953
            ],
            [
              33.964197,
              34.9864259
            ],
            [
              33.9642277,
              34.9864829
            ],
            [
              33.9643294,
              34.9865608
            ],
            [
              33.9643811,
              34.9866534
            ],
            [
              33.9645184,
              34.9868713
            ],
            [
              33.9645335,
              34.9869737
            ],
            [
              33.9646338,
              34.9870687
            ],
            [
              33.9647381,
              34.9884182
            ],
            [
              33.9648067,
              34.9886918
            ],
            [
              33.9649668,
              34.9893729
            ]
          ]
        ]
      },
      "id": "relation/15104333"
    }
  ]
}
