{
  "type": "Feature",
  "properties": {},
  "geometry": {
    "type": "LineString",
    "coordinates": [
      [
        32.93461,
        34.92759
      ],
      [
        32.93397,
        34.927870000000006
      ],
      [
        32.93392,
        34.927960000000006
      ],
      [
        32.93428,
        34.92815
      ],
      [
        32.93432,
        34.9288
      ],
      [
        32.93451,
        34.929
      ],
      [
        32.934400000000004,
        34.929050000000004
      ],
      [
        32.934380000000004,
        34.92936
      ],
      [
        32.93433,
        34.92945
      ],
      [
        32.93415,
        34.92956
      ],
      [
        32.93374,
        34.92967
      ],
      [
        32.933420000000005,
        34.929860000000005
      ],
      [
        32.932900000000004,
        34.92987
      ],
      [
        32.932860000000005,
        34.929860000000005
      ],
      [
        32.93291,
        34.92981
      ],
      [
        32.93272,
        34.92985
      ],
      [
        32.93262,
        34.92978
      ],
      [
        32.932140000000004,
        34.929880000000004
      ],
      [
        32.931740000000005,
        34.92991
      ],
      [
        32.9316,
        34.93003
      ],
      [
        32.93135,
        34.93012
      ],
      [
        32.93112,
        34.93025
      ],
      [
        32.930910000000004,
        34.93029
      ],
      [
        32.93072,
        34.930460000000004
      ],
      [
        32.93077,
        34.93054
      ],
      [
        32.93084,
        34.93056
      ],
      [
        32.930710000000005,
        34.93065
      ],
      [
        32.930550000000004,
        34.93066
      ],
      [
        32.93043,
        34.93061
      ],
      [
        32.930350000000004,
        34.930690000000006
      ],
      [
        32.93023,
        34.93076
      ],
      [
        32.92994,
        34.93079
      ],
      [
        32.929610000000004,
        34.930620000000005
      ],
      [
        32.929660000000005,
        34.93032
      ],
      [
        32.929770000000005,
        34.93021
      ],
      [
        32.929550000000006,
        34.93032
      ],
      [
        32.92947,
        34.930580000000006
      ],
      [
        32.92906,
        34.930730000000004
      ],
      [
        32.92823,
        34.93034
      ],
      [
        32.92806,
        34.93037
      ],
      [
        32.92797,
        34.930510000000005
      ],
      [
        32.92776,
        34.930150000000005
      ],
      [
        32.927550000000004,
        34.930400000000006
      ],
      [
        32.92752,
        34.93041
      ],
      [
        32.927350000000004,
        34.930220000000006
      ],
      [
        32.92725,
        34.93032
      ],
      [
        32.92689,
        34.9305
      ],
      [
        32.92673,
        34.93063
      ],
      [
        32.92667,
        34.930550000000004
      ],
      [
        32.92673,
        34.9305
      ],
      [
        32.926660000000005,
        34.93045
      ],
      [
        32.926680000000005,
        34.93041
      ],
      [
        32.9266,
        34.93038
      ],
      [
        32.926640000000006,
        34.930330000000005
      ],
      [
        32.92658,
        34.930310000000006
      ],
      [
        32.926210000000005,
        34.93009
      ],
      [
        32.92584,
        34.930040000000005
      ],
      [
        32.925650000000005,
        34.93009
      ],
      [
        32.92533,
        34.93007
      ],
      [
        32.92506,
        34.92991
      ],
      [
        32.92479,
        34.930020000000006
      ],
      [
        32.92483,
        34.929880000000004
      ],
      [
        32.924980000000005,
        34.92976
      ],
      [
        32.9249,
        34.92971
      ],
      [
        32.924620000000004,
        34.92991
      ]
    ]
  }
}