{
  "type": "Feature",
  "properties": {},
  "geometry": {
    "type": "LineString",
    "coordinates": [
      [
        32.99909,
        34.95136
      ],
      [
        32.999190000000006,
        34.951280000000004
      ],
      [
        32.999230000000004,
        34.95127
      ],
      [
        32.9992,
        34.95152
      ],
      [
        32.999280000000006,
        34.95183
      ],
      [
        32.99947,
        34.952130000000004
      ],
      [
        32.99955,
        34.95179
      ],
      [
        32.99971,
        34.95208
      ],
      [
        32.99971,
        34.952360000000006
      ],
      [
        32.99969,
        34.9525
      ],
      [
        32.9996,
        34.9527
      ],
      [
        32.999610000000004,
        34.95281
      ],
      [
        32.99991,
        34.95297
      ],
      [
        33.00016,
        34.953070000000004
      ],
      [
        33.00032,
        34.95318
      ],
      [
        33.000530000000005,
        34.95327
      ],
      [
        33.000600000000006,
        34.95335
      ],
      [
        33.00061,
        34.953410000000005
      ],
      [
        33.00047,
        34.953700000000005
      ],
      [
        33.000370000000004,
        34.95384
      ],
      [
        33.000280000000004,
        34.95403
      ],
      [
        33.0001,
        34.95412
      ],
      [
        33.00003,
        34.95431
      ],
      [
        32.99985,
        34.95465
      ],
      [
        32.99964,
        34.95467
      ],
      [
        32.999430000000004,
        34.954660000000004
      ],
      [
        32.999280000000006,
        34.9547
      ],
      [
        32.99918,
        34.95476
      ],
      [
        32.99871,
        34.95488
      ],
      [
        32.998650000000005,
        34.954910000000005
      ],
      [
        32.9985,
        34.95519
      ],
      [
        32.998490000000004,
        34.955270000000006
      ],
      [
        32.998340000000006,
        34.9555
      ],
      [
        32.997980000000005,
        34.95581
      ],
      [
        32.99792,
        34.955890000000004
      ],
      [
        32.99792,
        34.955960000000005
      ],
      [
        32.99804,
        34.95611
      ],
      [
        32.998340000000006,
        34.95622
      ],
      [
        32.99866,
        34.956480000000006
      ],
      [
        32.99873,
        34.956480000000006
      ],
      [
        32.99888,
        34.956630000000004
      ],
      [
        32.99904,
        34.957060000000006
      ],
      [
        32.999050000000004,
        34.95714
      ],
      [
        32.99895,
        34.95725
      ],
      [
        32.9988,
        34.95734
      ],
      [
        32.998470000000005,
        34.95754
      ],
      [
        32.99844,
        34.957640000000005
      ],
      [
        32.998780000000004,
        34.95754
      ],
      [
        32.998630000000006,
        34.957710000000006
      ],
      [
        32.998760000000004,
        34.95772
      ],
      [
        32.99844,
        34.95796
      ],
      [
        32.998360000000005,
        34.95806
      ],
      [
        32.9985,
        34.958180000000006
      ],
      [
        32.998380000000004,
        34.95824
      ],
      [
        32.998380000000004,
        34.958330000000004
      ],
      [
        32.99812,
        34.95839
      ],
      [
        32.99799,
        34.95834
      ],
      [
        32.997890000000005,
        34.958360000000006
      ],
      [
        32.99777,
        34.95846
      ],
      [
        32.99776,
        34.95852
      ],
      [
        32.99767,
        34.958560000000006
      ],
      [
        32.99766,
        34.958600000000004
      ],
      [
        32.99759,
        34.958600000000004
      ],
      [
        32.997600000000006,
        34.95864
      ],
      [
        32.99756,
        34.95866
      ],
      [
        32.9975,
        34.95866
      ],
      [
        32.99738,
        34.958780000000004
      ],
      [
        32.99725,
        34.95886
      ],
      [
        32.997150000000005,
        34.95882
      ],
      [
        32.99671,
        34.95897
      ],
      [
        32.99662,
        34.958980000000004
      ],
      [
        32.99651,
        34.95902
      ],
      [
        32.9964,
        34.959050000000005
      ],
      [
        32.99636,
        34.958980000000004
      ],
      [
        32.99608,
        34.95895
      ],
      [
        32.99624,
        34.95891
      ],
      [
        32.99625,
        34.95888
      ],
      [
        32.995940000000004,
        34.958800000000004
      ],
      [
        32.995760000000004,
        34.95871
      ],
      [
        32.9953,
        34.95835
      ],
      [
        32.99532,
        34.958310000000004
      ],
      [
        32.99539,
        34.958290000000005
      ],
      [
        32.995560000000005,
        34.95837
      ],
      [
        32.995430000000006,
        34.95821
      ],
      [
        32.995380000000004,
        34.9581
      ],
      [
        32.99553,
        34.95808
      ],
      [
        32.995450000000005,
        34.95799
      ],
      [
        32.99548,
        34.95797
      ],
      [
        32.9956,
        34.958020000000005
      ],
      [
        32.99561,
        34.95799
      ],
      [
        32.99557,
        34.95792
      ],
      [
        32.995520000000006,
        34.957860000000004
      ],
      [
        32.99546,
        34.957820000000005
      ],
      [
        32.995560000000005,
        34.957800000000006
      ],
      [
        32.99551,
        34.95776
      ],
      [
        32.995380000000004,
        34.957730000000005
      ],
      [
        32.995160000000006,
        34.95765
      ],
      [
        32.99506,
        34.95754
      ],
      [
        32.99494,
        34.9575
      ],
      [
        32.99434,
        34.95743
      ],
      [
        32.994240000000005,
        34.957390000000004
      ],
      [
        32.99428,
        34.95736
      ],
      [
        32.99443,
        34.95734
      ],
      [
        32.99461,
        34.95736
      ],
      [
        32.99452,
        34.95731
      ],
      [
        32.99445,
        34.957190000000004
      ],
      [
        32.99463,
        34.95727
      ],
      [
        32.9945,
        34.957100000000004
      ],
      [
        32.99463,
        34.95712
      ],
      [
        32.99454,
        34.95702
      ],
      [
        32.99465,
        34.956700000000005
      ],
      [
        32.994730000000004,
        34.95658
      ],
      [
        32.994820000000004,
        34.956500000000005
      ],
      [
        32.994780000000006,
        34.956630000000004
      ],
      [
        32.99485,
        34.95656
      ],
      [
        32.9949,
        34.95662
      ],
      [
        32.9949,
        34.9566
      ],
      [
        32.99492,
        34.956540000000004
      ],
      [
        32.995050000000006,
        34.956480000000006
      ],
      [
        32.995070000000005,
        34.956520000000005
      ],
      [
        32.99513,
        34.95647
      ],
      [
        32.99522,
        34.956230000000005
      ],
      [
        32.99522,
        34.95613
      ],
      [
        32.995250000000006,
        34.95611
      ],
      [
        32.99528,
        34.95606
      ],
      [
        32.995380000000004,
        34.955960000000005
      ],
      [
        32.99561,
        34.955850000000005
      ],
      [
        32.99571,
        34.955740000000006
      ],
      [
        32.9958,
        34.955600000000004
      ],
      [
        32.995870000000004,
        34.95539
      ],
      [
        32.99598,
        34.9553
      ],
      [
        32.99627,
        34.95516
      ],
      [
        32.99692,
        34.954910000000005
      ],
      [
        32.9972,
        34.95494
      ],
      [
        32.99745,
        34.954910000000005
      ],
      [
        32.997530000000005,
        34.954840000000004
      ],
      [
        32.99759,
        34.95458
      ],
      [
        32.99772,
        34.954460000000005
      ],
      [
        32.99819,
        34.95425
      ],
      [
        32.99852,
        34.95414
      ],
      [
        32.998830000000005,
        34.954080000000005
      ],
      [
        32.999390000000005,
        34.95405
      ],
      [
        32.999500000000005,
        34.953970000000005
      ],
      [
        32.99955,
        34.95391
      ],
      [
        32.999520000000004,
        34.9538
      ],
      [
        32.999280000000006,
        34.95346
      ],
      [
        32.999120000000005,
        34.95338
      ],
      [
        32.99882,
        34.95329
      ],
      [
        32.998780000000004,
        34.953230000000005
      ],
      [
        32.998780000000004,
        34.95306
      ],
      [
        32.99884,
        34.95286
      ],
      [
        32.99895,
        34.952670000000005
      ],
      [
        32.99918,
        34.952400000000004
      ],
      [
        32.999230000000004,
        34.95226
      ],
      [
        32.999190000000006,
        34.952130000000004
      ],
      [
        32.99909,
        34.95136
      ]
    ]
  }
}