{
  "type": "Feature",
  "properties": {},
  "geometry": {
    "type": "LineString",
    "coordinates": [
      [
        33.036390000000004,
        35.009350000000005
      ],
      [
        33.03632,
        35.009280000000004
      ],
      [
        33.036260000000006,
        35.00925
      ],
      [
        33.03615,
        35.009280000000004
      ],
      [
        33.03604,
        35.00938
      ],
      [
        33.035810000000005,
        35.00948
      ],
      [
        33.03577,
        35.009510000000006
      ],
      [
        33.035830000000004,
        35.00956
      ],
      [
        33.036170000000006,
        35.009570000000004
      ],
      [
        33.03591,
        35.00974
      ],
      [
        33.03623,
        35.00977
      ],
      [
        33.03604,
        35.009930000000004
      ],
      [
        33.03591,
        35.010130000000004
      ],
      [
        33.035740000000004,
        35.0103
      ],
      [
        33.03508,
        35.01052
      ],
      [
        33.03483,
        35.010690000000004
      ],
      [
        33.03443,
        35.01073
      ],
      [
        33.03403,
        35.010780000000004
      ],
      [
        33.03354,
        35.010760000000005
      ],
      [
        33.033350000000006,
        35.01068
      ],
      [
        33.03316,
        35.010720000000006
      ],
      [
        33.03305,
        35.010650000000005
      ],
      [
        33.03298,
        35.010650000000005
      ],
      [
        33.03287,
        35.01059
      ],
      [
        33.033010000000004,
        35.010600000000004
      ],
      [
        33.033030000000004,
        35.01057
      ],
      [
        33.03294,
        35.01053
      ],
      [
        33.03302,
        35.010510000000004
      ],
      [
        33.033030000000004,
        35.01046
      ],
      [
        33.032970000000006,
        35.010470000000005
      ],
      [
        33.03289,
        35.01043
      ],
      [
        33.03278,
        35.010310000000004
      ],
      [
        33.03294,
        35.01039
      ],
      [
        33.033,
        35.01039
      ],
      [
        33.033010000000004,
        35.01035
      ],
      [
        33.03324,
        35.01034
      ],
      [
        33.033350000000006,
        35.010200000000005
      ],
      [
        33.03351,
        35.010110000000005
      ],
      [
        33.03356,
        35.010070000000006
      ],
      [
        33.033950000000004,
        35.009910000000005
      ],
      [
        33.034040000000005,
        35.00983
      ],
      [
        33.03417,
        35.009660000000004
      ],
      [
        33.03445,
        35.00943
      ],
      [
        33.034470000000006,
        35.009350000000005
      ],
      [
        33.03452,
        35.00927
      ],
      [
        33.034620000000004,
        35.0092
      ],
      [
        33.03473,
        35.009150000000005
      ],
      [
        33.03488,
        35.009100000000004
      ],
      [
        33.035160000000005,
        35.009060000000005
      ],
      [
        33.035250000000005,
        35.009
      ],
      [
        33.03539,
        35.0088
      ],
      [
        33.0354,
        35.008680000000005
      ],
      [
        33.03538,
        35.00858
      ],
      [
        33.0352,
        35.008280000000006
      ],
      [
        33.035090000000004,
        35.00818
      ],
      [
        33.03491,
        35.008210000000005
      ],
      [
        33.034400000000005,
        35.008100000000006
      ],
      [
        33.03423,
        35.00799
      ],
      [
        33.034110000000005,
        35.00789
      ],
      [
        33.033970000000004,
        35.007720000000006
      ],
      [
        33.03398,
        35.007690000000004
      ],
      [
        33.03403,
        35.00768
      ],
      [
        33.03417,
        35.007780000000004
      ],
      [
        33.03432,
        35.007830000000006
      ],
      [
        33.034470000000006,
        35.007850000000005
      ],
      [
        33.03472,
        35.007850000000005
      ],
      [
        33.034850000000006,
        35.007830000000006
      ],
      [
        33.03501,
        35.00777
      ],
      [
        33.035320000000006,
        35.0077
      ],
      [
        33.035450000000004,
        35.0077
      ],
      [
        33.03573,
        35.007830000000006
      ],
      [
        33.03587,
        35.007940000000005
      ],
      [
        33.035900000000005,
        35.008010000000006
      ],
      [
        33.035970000000006,
        35.00804
      ],
      [
        33.03604,
        35.00804
      ],
      [
        33.036120000000004,
        35.00793
      ],
      [
        33.036170000000006,
        35.00775
      ],
      [
        33.03624,
        35.00762
      ],
      [
        33.03625,
        35.00744
      ],
      [
        33.036300000000004,
        35.007200000000005
      ],
      [
        33.0367,
        35.00668
      ],
      [
        33.03667,
        35.00652
      ],
      [
        33.036680000000004,
        35.00649
      ],
      [
        33.03676,
        35.00645
      ],
      [
        33.036840000000005,
        35.006440000000005
      ],
      [
        33.03694,
        35.00638
      ],
      [
        33.037020000000005,
        35.006220000000006
      ],
      [
        33.037110000000006,
        35.00598
      ],
      [
        33.03705,
        35.005880000000005
      ],
      [
        33.037150000000004,
        35.005810000000004
      ],
      [
        33.03719,
        35.00573
      ],
      [
        33.03716,
        35.005610000000004
      ],
      [
        33.03703,
        35.005520000000004
      ],
      [
        33.03698,
        35.005410000000005
      ],
      [
        33.037000000000006,
        35.005340000000004
      ],
      [
        33.037040000000005,
        35.00533
      ],
      [
        33.037200000000006,
        35.00538
      ],
      [
        33.037330000000004,
        35.005210000000005
      ],
      [
        33.03721,
        35.00489
      ],
      [
        33.03709,
        35.00448
      ],
      [
        33.03683,
        35.00424
      ],
      [
        33.03678,
        35.00408
      ],
      [
        33.036820000000006,
        35.0039
      ],
      [
        33.036950000000004,
        35.00372
      ],
      [
        33.0371,
        35.00366
      ],
      [
        33.03716,
        35.00361
      ],
      [
        33.03726,
        35.00354
      ],
      [
        33.037780000000005,
        35.003330000000005
      ],
      [
        33.03822,
        35.003040000000006
      ],
      [
        33.03839,
        35.002840000000006
      ],
      [
        33.038520000000005,
        35.00255
      ],
      [
        33.03873,
        35.00244
      ],
      [
        33.038970000000006,
        35.00251
      ],
      [
        33.03895,
        35.00264
      ],
      [
        33.03875,
        35.002950000000006
      ],
      [
        33.038740000000004,
        35.003240000000005
      ],
      [
        33.038470000000004,
        35.003710000000005
      ],
      [
        33.03833,
        35.00377
      ],
      [
        33.038140000000006,
        35.003780000000006
      ],
      [
        33.038030000000006,
        35.003820000000005
      ],
      [
        33.03797,
        35.0039
      ],
      [
        33.037960000000005,
        35.00397
      ],
      [
        33.03799,
        35.004270000000005
      ],
      [
        33.03802,
        35.004340000000006
      ],
      [
        33.03813,
        35.004380000000005
      ],
      [
        33.0383,
        35.004400000000004
      ],
      [
        33.038630000000005,
        35.004360000000005
      ],
      [
        33.03869,
        35.00441
      ],
      [
        33.03875,
        35.004720000000006
      ],
      [
        33.03875,
        35.00489
      ],
      [
        33.03877,
        35.004940000000005
      ],
      [
        33.03882,
        35.005
      ],
      [
        33.038630000000005,
        35.005570000000006
      ],
      [
        33.03857,
        35.006040000000006
      ],
      [
        33.03858,
        35.0061
      ],
      [
        33.03871,
        35.006310000000006
      ],
      [
        33.038700000000006,
        35.0063
      ],
      [
        33.03858,
        35.0061
      ],
      [
        33.03857,
        35.006040000000006
      ],
      [
        33.038630000000005,
        35.005570000000006
      ],
      [
        33.03882,
        35.005
      ],
      [
        33.03886,
        35.00506
      ],
      [
        33.03866,
        35.00574
      ],
      [
        33.03864,
        35.00591
      ],
      [
        33.03868,
        35.006080000000004
      ],
      [
        33.038970000000006,
        35.006690000000006
      ],
      [
        33.038970000000006,
        35.006890000000006
      ],
      [
        33.03889,
        35.00706
      ],
      [
        33.03869,
        35.007180000000005
      ],
      [
        33.038340000000005,
        35.007290000000005
      ],
      [
        33.03819,
        35.00743
      ],
      [
        33.038140000000006,
        35.00761
      ],
      [
        33.038160000000005,
        35.008210000000005
      ],
      [
        33.038230000000006,
        35.008500000000005
      ],
      [
        33.038360000000004,
        35.008770000000005
      ],
      [
        33.03866,
        35.00916
      ],
      [
        33.03869,
        35.00936
      ],
      [
        33.0381,
        35.008680000000005
      ],
      [
        33.03734500255527,
        35.008960002348275
      ],
      [
        33.036590000000004,
        35.009240000000005
      ],
      [
        33.036390000000004,
        35.009350000000005
      ]
    ]
  }
}