{
  "type": "Feature",
  "properties": {},
  "geometry": {
    "type": "LineString",
    "coordinates": [
      [
        32.8721,
        34.933060000000005
      ],
      [
        32.87211,
        34.932700000000004
      ],
      [
        32.87217500039415,
        34.932180000160315
      ],
      [
        32.872240000000005,
        34.93166
      ],
      [
        32.872620000000005,
        34.931160000000006
      ],
      [
        32.87275,
        34.930890000000005
      ],
      [
        32.872780000000006,
        34.93075
      ],
      [
        32.87276,
        34.93065
      ],
      [
        32.87279,
        34.93056
      ],
      [
        32.87274,
        34.93047
      ],
      [
        32.87257,
        34.93028
      ],
      [
        32.87247,
        34.93023
      ],
      [
        32.87207,
        34.93018
      ],
      [
        32.87203,
        34.93009
      ],
      [
        32.872130000000006,
        34.929550000000006
      ],
      [
        32.87178,
        34.92893
      ],
      [
        32.871700000000004,
        34.928740000000005
      ],
      [
        32.87176,
        34.92826
      ],
      [
        32.871480000000005,
        34.927890000000005
      ],
      [
        32.87131,
        34.927760000000006
      ],
      [
        32.871320000000004,
        34.92777
      ],
      [
        32.87106,
        34.92756
      ],
      [
        32.87098,
        34.927530000000004
      ],
      [
        32.870920000000005,
        34.927530000000004
      ],
      [
        32.87086,
        34.92756
      ],
      [
        32.8708,
        34.92763
      ],
      [
        32.87071,
        34.927760000000006
      ],
      [
        32.87061,
        34.92828
      ],
      [
        32.870360000000005,
        34.92853
      ],
      [
        32.87031,
        34.928560000000004
      ],
      [
        32.870270000000005,
        34.928540000000005
      ],
      [
        32.87024,
        34.928430000000006
      ],
      [
        32.86999,
        34.9281
      ],
      [
        32.86985,
        34.927980000000005
      ],
      [
        32.86976,
        34.92779
      ],
      [
        32.869730000000004,
        34.927640000000004
      ],
      [
        32.86966,
        34.927550000000004
      ],
      [
        32.86938,
        34.92741
      ],
      [
        32.86896,
        34.92727
      ],
      [
        32.86869,
        34.9273
      ],
      [
        32.868500000000004,
        34.927240000000005
      ],
      [
        32.86806,
        34.92701
      ],
      [
        32.86735,
        34.92682
      ],
      [
        32.86719,
        34.92672
      ],
      [
        32.866960000000006,
        34.92667
      ],
      [
        32.86693,
        34.92665
      ],
      [
        32.866870000000006,
        34.92653
      ],
      [
        32.86636,
        34.926320000000004
      ],
      [
        32.86605,
        34.92609
      ],
      [
        32.86574,
        34.92596
      ],
      [
        32.865370000000006,
        34.92586
      ],
      [
        32.86488,
        34.92588
      ],
      [
        32.864810000000006,
        34.926
      ],
      [
        32.86437,
        34.9262
      ],
      [
        32.86424,
        34.92636
      ],
      [
        32.86403,
        34.926500000000004
      ],
      [
        32.86395,
        34.9266
      ],
      [
        32.863960000000006,
        34.9266
      ],
      [
        32.86381,
        34.92683
      ],
      [
        32.863690000000005,
        34.92707
      ],
      [
        32.86368,
        34.927310000000006
      ],
      [
        32.86374,
        34.927420000000005
      ],
      [
        32.86424999799631,
        34.92773000101883
      ],
      [
        32.864760000000004,
        34.92804
      ],
      [
        32.865230000000004,
        34.928520000000006
      ],
      [
        32.86547,
        34.92888
      ],
      [
        32.86545,
        34.92893
      ],
      [
        32.86535,
        34.928940000000004
      ],
      [
        32.86516,
        34.92889
      ],
      [
        32.86432,
        34.928850000000004
      ],
      [
        32.86328,
        34.92857
      ],
      [
        32.862730000000006,
        34.928450000000005
      ],
      [
        32.86252,
        34.92844
      ],
      [
        32.862370000000006,
        34.928450000000005
      ],
      [
        32.862140000000004,
        34.928520000000006
      ],
      [
        32.861990000000006,
        34.9286
      ],
      [
        32.86182,
        34.92873
      ],
      [
        32.86162,
        34.92895
      ],
      [
        32.8615,
        34.92904
      ],
      [
        32.861270000000005,
        34.929100000000005
      ],
      [
        32.86103,
        34.92926
      ],
      [
        32.860870000000006,
        34.9294
      ],
      [
        32.860510000000005,
        34.929520000000004
      ],
      [
        32.86037,
        34.92962
      ],
      [
        32.860060000000004,
        34.929790000000004
      ],
      [
        32.859970000000004,
        34.9299
      ],
      [
        32.85998,
        34.930040000000005
      ],
      [
        32.860510000000005,
        34.9305
      ],
      [
        32.8609,
        34.93075
      ],
      [
        32.86135,
        34.93088
      ],
      [
        32.861700000000006,
        34.9309
      ],
      [
        32.86189,
        34.930930000000004
      ],
      [
        32.862100000000005,
        34.93108
      ],
      [
        32.86234,
        34.93119
      ],
      [
        32.86262,
        34.93123
      ],
      [
        32.862790000000004,
        34.931360000000005
      ],
      [
        32.86285,
        34.93144
      ],
      [
        32.86285,
        34.9315
      ],
      [
        32.862590000000004,
        34.93171
      ],
      [
        32.862390000000005,
        34.93191
      ],
      [
        32.862280000000005,
        34.93197
      ],
      [
        32.86226,
        34.93173
      ],
      [
        32.862210000000005,
        34.93169
      ],
      [
        32.861740000000005,
        34.93155
      ],
      [
        32.86101,
        34.93157
      ],
      [
        32.86005,
        34.9317
      ],
      [
        32.85987,
        34.93175
      ],
      [
        32.859640000000006,
        34.93189
      ],
      [
        32.85949,
        34.93188
      ],
      [
        32.85898,
        34.93144
      ],
      [
        32.858850000000004,
        34.931400000000004
      ],
      [
        32.85884,
        34.931400000000004
      ],
      [
        32.85871,
        34.931360000000005
      ],
      [
        32.858630000000005,
        34.93137
      ],
      [
        32.8584,
        34.931520000000006
      ],
      [
        32.858270000000005,
        34.93155
      ],
      [
        32.85808,
        34.931560000000005
      ],
      [
        32.85788,
        34.9315
      ],
      [
        32.85705,
        34.93135
      ],
      [
        32.85694,
        34.931360000000005
      ],
      [
        32.85674,
        34.93142
      ],
      [
        32.856210000000004,
        34.931400000000004
      ],
      [
        32.85539,
        34.93146
      ],
      [
        32.855230000000006,
        34.93159
      ],
      [
        32.85519,
        34.93169
      ],
      [
        32.855180000000004,
        34.93177
      ],
      [
        32.85524,
        34.93189
      ],
      [
        32.85539,
        34.932
      ],
      [
        32.855650000000004,
        34.93226
      ],
      [
        32.85568,
        34.93236
      ],
      [
        32.85568,
        34.932480000000005
      ],
      [
        32.85595999850022,
        34.932930000379386
      ],
      [
        32.85624,
        34.93338
      ],
      [
        32.85627,
        34.933530000000005
      ],
      [
        32.85643,
        34.9337
      ],
      [
        32.85671,
        34.93385
      ],
      [
        32.856840000000005,
        34.933890000000005
      ],
      [
        32.85699,
        34.934000000000005
      ],
      [
        32.85708,
        34.93413
      ],
      [
        32.85708,
        34.93432
      ],
      [
        32.857,
        34.93451
      ],
      [
        32.857020000000006,
        34.93479
      ],
      [
        32.85709,
        34.935120000000005
      ],
      [
        32.85701,
        34.935520000000004
      ],
      [
        32.857020000000006,
        34.93571
      ],
      [
        32.857130000000005,
        34.935930000000006
      ],
      [
        32.857400000000005,
        34.93607
      ],
      [
        32.85743,
        34.936130000000006
      ],
      [
        32.857400000000005,
        34.936170000000004
      ],
      [
        32.857150000000004,
        34.93612
      ],
      [
        32.856790000000004,
        34.93614
      ],
      [
        32.856640000000006,
        34.936080000000004
      ],
      [
        32.85642,
        34.93611
      ],
      [
        32.856300000000005,
        34.936080000000004
      ],
      [
        32.85624,
        34.93603
      ],
      [
        32.856170000000006,
        34.936060000000005
      ],
      [
        32.85613,
        34.93614
      ],
      [
        32.856210000000004,
        34.93643
      ],
      [
        32.856170000000006,
        34.936510000000006
      ],
      [
        32.85606,
        34.936580000000006
      ],
      [
        32.85598,
        34.93659
      ],
      [
        32.85578,
        34.936780000000006
      ],
      [
        32.855560000000004,
        34.93688
      ],
      [
        32.855410000000006,
        34.93699
      ],
      [
        32.85488,
        34.936890000000005
      ],
      [
        32.85443,
        34.936980000000005
      ],
      [
        32.85428,
        34.9371
      ],
      [
        32.85396,
        34.93723
      ],
      [
        32.8539,
        34.937340000000006
      ],
      [
        32.853950000000005,
        34.93753
      ],
      [
        32.854110000000006,
        34.9377
      ],
      [
        32.854260000000004,
        34.937830000000005
      ],
      [
        32.854290000000006,
        34.938100000000006
      ],
      [
        32.854510000000005,
        34.93842
      ],
      [
        32.85454,
        34.93856
      ],
      [
        32.8547,
        34.938840000000006
      ],
      [
        32.85517,
        34.93909
      ],
      [
        32.85537,
        34.93916
      ],
      [
        32.85575,
        34.939400000000006
      ],
      [
        32.85596,
        34.93947
      ],
      [
        32.85609,
        34.939690000000006
      ],
      [
        32.85636,
        34.939820000000005
      ],
      [
        32.85653,
        34.93985
      ],
      [
        32.85665,
        34.939910000000005
      ],
      [
        32.85689,
        34.9399
      ],
      [
        32.857260000000004,
        34.940160000000006
      ],
      [
        32.85738,
        34.94017
      ],
      [
        32.857710000000004,
        34.940310000000004
      ],
      [
        32.85833,
        34.94044
      ],
      [
        32.85859,
        34.94042
      ],
      [
        32.858830000000005,
        34.94053
      ],
      [
        32.85918,
        34.940540000000006
      ],
      [
        32.85942,
        34.940630000000006
      ],
      [
        32.859410000000004,
        34.940630000000006
      ],
      [
        32.859700000000004,
        34.94075
      ],
      [
        32.86014,
        34.940810000000006
      ],
      [
        32.86043,
        34.94099
      ],
      [
        32.86103,
        34.94099
      ],
      [
        32.861670000000004,
        34.94073
      ],
      [
        32.861810000000006,
        34.94073
      ],
      [
        32.861940000000004,
        34.9408
      ],
      [
        32.86215,
        34.94073
      ],
      [
        32.862210000000005,
        34.940650000000005
      ],
      [
        32.86227,
        34.94062
      ],
      [
        32.862410000000004,
        34.94061
      ],
      [
        32.862500000000004,
        34.94064
      ],
      [
        32.86258,
        34.9406
      ],
      [
        32.862640000000006,
        34.94053
      ],
      [
        32.862840000000006,
        34.940450000000006
      ],
      [
        32.86352,
        34.94024
      ],
      [
        32.86406,
        34.93999
      ],
      [
        32.86424,
        34.93986
      ],
      [
        32.86455,
        34.939530000000005
      ],
      [
        32.86469,
        34.939310000000006
      ],
      [
        32.864830000000005,
        34.939310000000006
      ],
      [
        32.865030000000004,
        34.93921
      ],
      [
        32.86544,
        34.939080000000004
      ],
      [
        32.865520000000004,
        34.939080000000004
      ],
      [
        32.86544,
        34.939080000000004
      ],
      [
        32.86496,
        34.939240000000005
      ],
      [
        32.86544,
        34.939080000000004
      ],
      [
        32.86572,
        34.939130000000006
      ],
      [
        32.86581,
        34.93921
      ],
      [
        32.86587,
        34.93929
      ],
      [
        32.86591,
        34.939510000000006
      ],
      [
        32.865930000000006,
        34.93954
      ],
      [
        32.86619,
        34.9397
      ],
      [
        32.86625,
        34.939690000000006
      ],
      [
        32.86628,
        34.939640000000004
      ],
      [
        32.86628,
        34.939600000000006
      ],
      [
        32.866350000000004,
        34.93958
      ],
      [
        32.86645,
        34.93945
      ],
      [
        32.866710000000005,
        34.93934
      ],
      [
        32.86667,
        34.939280000000004
      ],
      [
        32.86666,
        34.939240000000005
      ],
      [
        32.86672,
        34.93903
      ],
      [
        32.86685,
        34.938900000000004
      ],
      [
        32.866890000000005,
        34.93882
      ],
      [
        32.866890000000005,
        34.93869
      ],
      [
        32.867000000000004,
        34.93863
      ],
      [
        32.866980000000005,
        34.938500000000005
      ],
      [
        32.86699,
        34.938410000000005
      ],
      [
        32.86708,
        34.93815
      ],
      [
        32.86715,
        34.93806
      ],
      [
        32.867660002084875,
        34.93775500095301
      ],
      [
        32.86817,
        34.937450000000005
      ],
      [
        32.86851,
        34.9373
      ],
      [
        32.86883,
        34.9371
      ],
      [
        32.86916,
        34.936980000000005
      ],
      [
        32.86941,
        34.93683
      ],
      [
        32.86976,
        34.936600000000006
      ],
      [
        32.8699,
        34.93648
      ],
      [
        32.87006,
        34.936260000000004
      ],
      [
        32.870090000000005,
        34.936130000000006
      ],
      [
        32.87019,
        34.93594
      ],
      [
        32.87022,
        34.935810000000004
      ],
      [
        32.87014,
        34.93556
      ],
      [
        32.8701,
        34.93531
      ],
      [
        32.870000000000005,
        34.93516
      ],
      [
        32.86997,
        34.935030000000005
      ],
      [
        32.870000000000005,
        34.934830000000005
      ],
      [
        32.870250000000006,
        34.93459
      ],
      [
        32.87031,
        34.93442
      ],
      [
        32.8705,
        34.934140000000006
      ],
      [
        32.870650000000005,
        34.93381
      ],
      [
        32.870720000000006,
        34.93345
      ],
      [
        32.87071,
        34.93314
      ],
      [
        32.87073,
        34.933060000000005
      ],
      [
        32.87086,
        34.932990000000004
      ],
      [
        32.87095,
        34.93267
      ],
      [
        32.871010000000005,
        34.932660000000006
      ],
      [
        32.87106,
        34.93269
      ],
      [
        32.87118,
        34.93298
      ],
      [
        32.871340000000004,
        34.93314
      ],
      [
        32.87147,
        34.933220000000006
      ],
      [
        32.871570000000006,
        34.93332
      ],
      [
        32.87165,
        34.933330000000005
      ],
      [
        32.87178,
        34.93328
      ],
      [
        32.87201,
        34.933260000000004
      ],
      [
        32.8721,
        34.93321
      ]
    ]
  }
}