{
  "type": "FeatureCollection",
  "generator": "overpass-turbo",
  "copyright": "The data included in this document is from www.openstreetmap.org. The data is made available under ODbL.",
  "timestamp": "2026-08-26T21:25:30Z",
  "features": [
    {
      "type": "Feature",
      "properties": {
        "@id": "relation/14999127",
        "boundary": "protected_area",
        "leisure": "nature_reserve",
        "name:en": "Rizoelias National Forest Park",
        "operator": "Department of Forests",
        "type": "multipolygon",
        "wikidata": "Q128414526"
      },
      "geometry": {
        "type": "Polygon",
        "coordinates": [
          [
            [
              33.5713741,
              34.9472946
            ],
            [
              33.5714904,
              34.9474772
            ],
            [
              33.5713935,
              34.9474947
            ],
            [
              33.5713513,
              34.9474881
            ],
            [
              33.5710791,
              34.9472105
            ],
            [
              33.5709419,
              34.9470895
            ],
            [
              33.5708235,
              34.9469772
            ],
            [
              33.5704411,
              34.9466011
            ],
            [
              33.5702681,
              34.9466975
            ],
            [
              33.5698688,
              34.9466984
            ],
            [
              33.5698206,
              34.9466933
            ],
            [
              33.5697417,
              34.9466744
            ],
            [
              33.5696555,
              34.9466383
            ],
            [
              33.5694001,
              34.946412
            ],
            [
              33.5692118,
              34.9462565
            ],
            [
              33.5691096,
              34.9461489
            ],
            [
              33.568777,
              34.9459989
            ],
            [
              33.568687,
              34.9458971
            ],
            [
              33.5682994,
              34.9457993
            ],
            [
              33.5683628,
              34.9453762
            ],
            [
              33.5684801,
              34.9453701
            ],
            [
              33.5685389,
              34.9450269
            ],
            [
              33.568596,
              34.9449312
            ],
            [
              33.5690604,
              34.9447779
            ],
            [
              33.5692493,
              34.9447317
            ],
            [
              33.5691824,
              34.9444784
            ],
            [
              33.5694872,
              34.9441607
            ],
            [
              33.5695175,
              34.9439801
            ],
            [
              33.5693728,
              34.9437031
            ],
            [
              33.569256,
              34.9437117
            ],
            [
              33.5691226,
              34.9437711
            ],
            [
              33.5690636,
              34.943922
            ],
            [
              33.5691089,
              34.9440161
            ],
            [
              33.5690426,
              34.9443213
            ],
            [
              33.5688439,
              34.9443477
            ],
            [
              33.5686102,
              34.9443322
            ],
            [
              33.5681696,
              34.9444472
            ],
            [
              33.5680942,
              34.944344
            ],
            [
              33.5680146,
              34.944175
            ],
            [
              33.5677843,
              34.9436068
            ],
            [
              33.5676461,
              34.9430481
            ],
            [
              33.5676733,
              34.9430405
            ],
            [
              33.5676723,
              34.943027
            ],
            [
              33.5677192,
              34.9430487
            ],
            [
              33.5679174,
              34.9429912
            ],
            [
              33.5678461,
              34.9421913
            ],
            [
              33.5677259,
              34.941704
            ],
            [
              33.567992,
              34.941631
            ],
            [
              33.5680014,
              34.9415694
            ],
            [
              33.5679543,
              34.9414307
            ],
            [
              33.5676334,
              34.9414238
            ],
            [
              33.5675102,
              34.9410661
            ],
            [
              33.5681963,
              34.9407282
            ],
            [
              33.5688501,
              34.9404128
            ],
            [
              33.5690576,
              34.9405708
            ],
            [
              33.5692368,
              34.9404271
            ],
            [
              33.5692639,
              34.9403954
            ],
            [
              33.5695509,
              34.9400599
            ],
            [
              33.569613,
              34.9399798
            ],
            [
              33.569889,
              34.939762
            ],
            [
              33.5700171,
              34.9396938
            ],
            [
              33.5704788,
              34.9396854
            ],
            [
              33.5706783,
              34.9396051
            ],
            [
              33.570667,
              34.939507
            ],
            [
              33.5709298,
              34.9395282
            ],
            [
              33.5710745,
              34.9395129
            ],
            [
              33.5711889,
              34.9391511
            ],
            [
              33.5712596,
              34.9389416
            ],
            [
              33.5713538,
              34.9387633
            ],
            [
              33.5711223,
              34.9385435
            ],
            [
              33.5710358,
              34.938438
            ],
            [
              33.5709383,
              34.9383085
            ],
            [
              33.5709406,
              34.9381137
            ],
            [
              33.5710348,
              34.9378277
            ],
            [
              33.5710319,
              34.93775
            ],
            [
              33.5711359,
              34.9375899
            ],
            [
              33.5712069,
              34.9374192
            ],
            [
              33.5711555,
              34.9374103
            ],
            [
              33.5712514,
              34.9370736
            ],
            [
              33.5714016,
              34.9369858
            ],
            [
              33.5714541,
              34.9367684
            ],
            [
              33.5717931,
              34.9361627
            ],
            [
              33.5718004,
              34.936128
            ],
            [
              33.5717948,
              34.9360406
            ],
            [
              33.5717648,
              34.9358882
            ],
            [
              33.5718103,
              34.9357659
            ],
            [
              33.5716644,
              34.9353905
            ],
            [
              33.5716791,
              34.9353207
            ],
            [
              33.5717975,
              34.9349964
            ],
            [
              33.5718604,
              34.934905
            ],
            [
              33.5719104,
              34.9347651
            ],
            [
              33.5719664,
              34.9347384
            ],
            [
              33.5721108,
              34.9346803
            ],
            [
              33.5729524,
              34.9342347
            ],
            [
              33.5731466,
              34.9339974
            ],
            [
              33.5731953,
              34.9339703
            ],
            [
              33.5732268,
              34.9340116
            ],
            [
              33.573371,
              34.9339492
            ],
            [
              33.5734412,
              34.9339723
            ],
            [
              33.5742334,
              34.9349739
            ],
            [
              33.5743522,
              34.935101
            ],
            [
              33.5744624,
              34.935242
            ],
            [
              33.5740256,
              34.9354554
            ],
            [
              33.5741169,
              34.9356845
            ],
            [
              33.5742304,
              34.9356329
            ],
            [
              33.5742522,
              34.935574
            ],
            [
              33.5746113,
              34.9354449
            ],
            [
              33.5746713,
              34.9354931
            ],
            [
              33.5745012,
              34.9355358
            ],
            [
              33.5744931,
              34.9355848
            ],
            [
              33.5744598,
              34.9357849
            ],
            [
              33.5743979,
              34.9359087
            ],
            [
              33.5745522,
              34.9360156
            ],
            [
              33.5746952,
              34.9359724
            ],
            [
              33.5747741,
              34.9360981
            ],
            [
              33.5750579,
              34.9360357
            ],
            [
              33.5751917,
              34.9360465
            ],
            [
              33.5753127,
              34.9360563
            ],
            [
              33.5754868,
              34.9360635
            ],
            [
              33.5755199,
              34.9360936
            ],
            [
              33.5757889,
              34.9364179
            ],
            [
              33.5763179,
              34.9370655
            ],
            [
              33.5760549,
              34.9373012
            ],
            [
              33.5762319,
              34.9375563
            ],
            [
              33.5765112,
              34.9379699
            ],
            [
              33.5767954,
              34.9383907
            ],
            [
              33.5782463,
              34.9387615
            ],
            [
              33.5786681,
              34.939358
            ],
            [
              33.5784078,
              34.9394955
            ],
            [
              33.5783415,
              34.9396831
            ],
            [
              33.5783825,
              34.9397853
            ],
            [
              33.578257,
              34.9399043
            ],
            [
              33.5782309,
              34.9399355
            ],
            [
              33.5779928,
              34.9401004
            ],
            [
              33.5777222,
              34.9402222
            ],
            [
              33.5773558,
              34.9403894
            ],
            [
              33.5770807,
              34.9405196
            ],
            [
              33.5770486,
              34.9405378
            ],
            [
              33.5765993,
              34.9406695
            ],
            [
              33.5766183,
              34.9409257
            ],
            [
              33.5766252,
              34.9409696
            ],
            [
              33.5764549,
              34.9409437
            ],
            [
              33.5761555,
              34.940488
            ],
            [
              33.5758452,
              34.9405953
            ],
            [
              33.5757919,
              34.9406188
            ],
            [
              33.5761507,
              34.9409967
            ],
            [
              33.5757674,
              34.9411349
            ],
            [
              33.5755484,
              34.941175
            ],
            [
              33.5749009,
              34.9414498
            ],
            [
              33.5747379,
              34.9416146
            ],
            [
              33.5748608,
              34.9417079
            ],
            [
              33.5745955,
              34.9418412
            ],
            [
              33.5740058,
              34.9420742
            ],
            [
              33.5741527,
              34.9422253
            ],
            [
              33.5750042,
              34.9418132
            ],
            [
              33.5751182,
              34.941584
            ],
            [
              33.5756499,
              34.9413455
            ],
            [
              33.5755677,
              34.9412002
            ],
            [
              33.5757845,
              34.9411559
            ],
            [
              33.5761985,
              34.9410097
            ],
            [
              33.5762733,
              34.9409908
            ],
            [
              33.57638,
              34.9409775
            ],
            [
              33.5764777,
              34.9409792
            ],
            [
              33.576614,
              34.9409958
            ],
            [
              33.576561,
              34.9411118
            ],
            [
              33.5766456,
              34.9413145
            ],
            [
              33.5768289,
              34.941848
            ],
            [
              33.576922,
              34.9418679
            ],
            [
              33.5769834,
              34.9422628
            ],
            [
              33.5767436,
              34.9427364
            ],
            [
              33.576533,
              34.9431712
            ],
            [
              33.5767266,
              34.9432287
            ],
            [
              33.5770783,
              34.9424849
            ],
            [
              33.5772806,
              34.9421818
            ],
            [
              33.5772181,
              34.9417673
            ],
            [
              33.5771416,
              34.9416207
            ],
            [
              33.5770928,
              34.9416306
            ],
            [
              33.5771309,
              34.9414641
            ],
            [
              33.5772232,
              34.9412096
            ],
            [
              33.577282,
              34.9411384
            ],
            [
              33.5773908,
              34.941056
            ],
            [
              33.5778739,
              34.9408643
            ],
            [
              33.5783026,
              34.9406886
            ],
            [
              33.5786613,
              34.9406851
            ],
            [
              33.5787556,
              34.9406932
            ],
            [
              33.5786451,
              34.9407535
            ],
            [
              33.5784878,
              34.9408488
            ],
            [
              33.5783791,
              34.9409226
            ],
            [
              33.5782223,
              34.9410367
            ],
            [
              33.5781044,
              34.941132
            ],
            [
              33.5779956,
              34.9412288
            ],
            [
              33.5778988,
              34.9413225
            ],
            [
              33.577786,
              34.9414419
            ],
            [
              33.5775842,
              34.9416871
            ],
            [
              33.5775059,
              34.9417973
            ],
            [
              33.5774449,
              34.9418921
            ],
            [
              33.5774136,
              34.9419525
            ],
            [
              33.5772631,
              34.9422904
            ],
            [
              33.5771899,
              34.9424762
            ],
            [
              33.577143,
              34.9426342
            ],
            [
              33.5770987,
              34.9428096
            ],
            [
              33.5770846,
              34.9428909
            ],
            [
              33.5770831,
              34.9429697
            ],
            [
              33.5771238,
              34.943252
            ],
            [
              33.577237,
              34.9439544
            ],
            [
              33.5772516,
              34.9441289
            ],
            [
              33.5773008,
              34.9443482
            ],
            [
              33.5773766,
              34.9446499
            ],
            [
              33.5776268,
              34.9445421
            ],
            [
              33.5777843,
              34.9444957
            ],
            [
              33.57807,
              34.9444179
            ],
            [
              33.5783398,
              34.9443556
            ],
            [
              33.5785401,
              34.9443199
            ],
            [
              33.5787715,
              34.9443211
            ],
            [
              33.5788002,
              34.9443285
            ],
            [
              33.5788361,
              34.9443279
            ],
            [
              33.5789448,
              34.9443071
            ],
            [
              33.5790688,
              34.9442977
            ],
            [
              33.579292,
              34.9442522
            ],
            [
              33.5795737,
              34.9442235
            ],
            [
              33.5797275,
              34.9442202
            ],
            [
              33.5798318,
              34.9442243
            ],
            [
              33.579915,
              34.9442464
            ],
            [
              33.5799391,
              34.9442617
            ],
            [
              33.5799581,
              34.9442832
            ],
            [
              33.5799686,
              34.9443084
            ],
            [
              33.5799697,
              34.944335
            ],
            [
              33.5799682,
              34.9443427
            ],
            [
              33.5799482,
              34.9443675
            ],
            [
              33.5797687,
              34.944556
            ],
            [
              33.5791009,
              34.9451048
            ],
            [
              33.5790759,
              34.9451314
            ],
            [
              33.5781518,
              34.9455089
            ],
            [
              33.5779168,
              34.9456221
            ],
            [
              33.5777615,
              34.9456025
            ],
            [
              33.5769712,
              34.9453165
            ],
            [
              33.5767305,
              34.9452171
            ],
            [
              33.5767757,
              34.9455258
            ],
            [
              33.5769279,
              34.9464349
            ],
            [
              33.5769213,
              34.946458
            ],
            [
              33.5769023,
              34.9464951
            ],
            [
              33.5768802,
              34.9465153
            ],
            [
              33.5767179,
              34.9466014
            ],
            [
              33.5766068,
              34.9466543
            ],
            [
              33.5763063,
              34.9467588
            ],
            [
              33.575718,
              34.9468524
            ],
            [
              33.575001,
              34.947002
            ],
            [
              33.5746369,
              34.9470674
            ],
            [
              33.5742744,
              34.9470748
            ],
            [
              33.5740012,
              34.94711
            ],
            [
              33.5739343,
              34.947114
            ],
            [
              33.5738008,
              34.9471609
            ],
            [
              33.5736612,
              34.9469742
            ],
            [
              33.5733241,
              34.9471267
            ],
            [
              33.5729804,
              34.9471473
            ],
            [
              33.5729727,
              34.9472412
            ],
            [
              33.5727947,
              34.9473032
            ],
            [
              33.5725393,
              34.9471211
            ],
            [
              33.5723862,
              34.9471354
            ],
            [
              33.5723502,
              34.947278
            ],
            [
              33.5718241,
              34.9472734
            ],
            [
              33.5714999,
              34.9471874
            ],
            [
              33.5713741,
              34.9472946
            ]
          ],
          [
            [
              33.5704716,
              34.9415836
            ],
            [
              33.5700864,
              34.9420611
            ],
            [
              33.5699928,
              34.9423784
            ],
            [
              33.5700822,
              34.942445
            ],
            [
              33.5705609,
              34.9420461
            ],
            [
              33.5705901,
              34.9420103
            ],
            [
              33.5705919,
              34.9419862
            ],
            [
              33.5706558,
              34.9419106
            ],
            [
              33.5707236,
              34.9418999
            ],
            [
              33.5707078,
              34.9415062
            ],
            [
              33.5704716,
              34.9415836
            ]
          ],
          [
            [
              33.5699276,
              34.9431753
            ],
            [
              33.5698145,
              34.9433434
            ],
            [
              33.5699998,
              34.9434588
            ],
            [
              33.5702205,
              34.9435476
            ],
            [
              33.5702757,
              34.9434496
            ],
            [
              33.5702847,
              34.9433017
            ],
            [
              33.5702908,
              34.9430573
            ],
            [
              33.5699276,
              34.9431753
            ]
          ],
          [
            [
              33.5753396,
              34.9436838
            ],
            [
              33.5754845,
              34.9440822
            ],
            [
              33.5761212,
              34.9439391
            ],
            [
              33.5762007,
              34.9437893
            ],
            [
              33.5762819,
              34.9436474
            ],
            [
              33.5753396,
              34.9436838
            ]
          ]
        ]
      },
      "id": "relation/14999127"
    }
  ]
}
