{"type":"FeatureCollection","features":[{"type":"Feature","id":1022853,"geometry":{"type":"MultiPolygon","coordinates":[[[[32.371082308999974,34.962286260999974],[32.371191565999993,34.962171968999996],[32.371185885999978,34.962123436000013],[32.372690525999985,34.961875357999986],[32.372842210999977,34.961988835],[32.373560103999978,34.961664736999978],[32.373805310000023,34.961737674999995],[32.374053742000001,34.961790162999989],[32.374191369000016,34.961685932000023],[32.374474465999981,34.961669449999988],[32.374739158000011,34.961650347999978],[32.374951410999984,34.961566966000021],[32.37506360499998,34.961529046999999],[32.375169442000015,34.961519404000001],[32.375362682000002,34.961453773000017],[32.375245889999974,34.961276469999973],[32.375138369000013,34.961091549999992],[32.375394792000009,34.960923918999981],[32.375596764000022,34.960945422000009],[32.375839564999978,34.960918451999987],[32.375973210999973,34.96092175299998],[32.376256177000016,34.960946196999998],[32.376343467000027,34.960928793999983],[32.376564584999983,34.960878720999972],[32.376717484999972,34.96082054499999],[32.376810114000023,34.960920912000006],[32.376918343,34.961000893999994],[32.377111517000003,34.960955725000019],[32.377286063999975,34.960913075000008],[32.377548230999992,34.960809478999977],[32.37766683000001,34.960748421000005],[32.377854276999983,34.96062406599998],[32.37796301100002,34.960637425000016],[32.377952850999975,34.960750786999995],[32.377957727000023,34.960942121000016],[32.377972256000021,34.961075354000002],[32.378089627999998,34.961188648000018],[32.378185878000011,34.96120455800002],[32.378372405999983,34.961225978000016],[32.378461529999981,34.961372394000023],[32.378571924000028,34.961572653000019],[32.378596059000017,34.961677807000001],[32.378579847000026,34.961767337000026],[32.378597215000013,34.961931327000002],[32.378549549000013,34.962071905000016],[32.378501636999999,34.962233038000022],[32.378504236000026,34.962307339000006],[32.378546841999992,34.962430437000023],[32.378645210999991,34.962584564999986],[32.378740504000007,34.962715686000024],[32.378894961000015,34.962870099999975],[32.378930678000017,34.963080252999987],[32.378888625999991,34.963302810000016],[32.378800167999998,34.963486724999996],[32.378655310999989,34.963711369999999],[32.378527658999985,34.963738845000023],[32.378439302999993,34.963897245999988],[32.378513854999994,34.963928280000005],[32.378635003999989,34.963936653000019],[32.378780484000004,34.964024397000003],[32.378845391000027,34.964088738999976],[32.378907265999999,34.964148017000014],[32.378974620000008,34.964271241999995],[32.378840412999978,34.964329426999996],[32.378718605000017,34.964408230000004],[32.378510296000002,34.964399501000003],[32.378289284999994,34.964398370000026],[32.377974612000003,34.964468431],[32.37776902600001,34.964505784999972],[32.377560678000009,34.964502191999998],[32.377411522999978,34.964470684999981],[32.377302610000015,34.964480404000028],[32.377096635999976,34.964568961999987],[32.377299588000028,34.964879865],[32.376628953000022,34.965521661000025],[32.37627192399998,34.965435352999975],[32.376186851999989,34.965588539999999],[32.376005362000001,34.965723380999975],[32.375855810000019,34.965755879000028],[32.375742918000014,34.965873131000023],[32.375599615999988,34.965903136999998],[32.375550239000006,34.965851584999996],[32.375366219999989,34.965914739000027],[32.375222853000025,34.965965208999989],[32.374966316999974,34.966145641000026],[32.374843375000012,34.966337128000021],[32.374752195999974,34.966485143999989],[32.374542184000006,34.966676092],[32.374324489000003,34.966677585000014],[32.374063128999978,34.96668390100001],[32.374084267000001,34.966778762999979],[32.373990678999974,34.966803884000001],[32.373887548000027,34.966872501000012],[32.373608838999985,34.96711691500002],[32.37351264900002,34.967080538000005],[32.373435068999981,34.967067336000014],[32.373316472999988,34.96710260499998],[32.373182257999986,34.967160782999997],[32.372917866000023,34.967161943000008],[32.372690482999985,34.967201789000001],[32.372472266999978,34.967259533000004],[32.372211472000004,34.967191650000018],[32.372056138999994,34.967152441999986],[32.371832568000002,34.967130730000008],[32.371701976999987,34.967104451000012],[32.371509705999983,34.967029259000014],[32.37138269899998,34.966959453000015],[32.371327500999996,34.966854136999984],[32.371014086999992,34.966757760999997],[32.370590704999984,34.966796589000012],[32.36995413599999,34.967062128000009],[32.369409910000002,34.967028561999996],[32.36928022699999,34.966907531999993],[32.369068642000002,34.966901294000024],[32.368951638999988,34.966752199999974],[32.368856138000012,34.966626209000026],[32.368776524999987,34.966454231],[32.368721559999983,34.96633106500002],[32.368631977999996,34.966246033999994],[32.368432653000013,34.966278353999996],[32.368371228000001,34.966173004999973],[32.368172101000027,34.966179631999978],[32.368107251000026,34.966120423999996],[32.367815029999974,34.966252601999997],[32.367703744999972,34.966206043999989],[32.367592921999972,34.966170217000013],[32.367457340999977,34.966064840000001],[32.367312249999998,34.965974741000025],[32.367179437999994,34.965920498000003],[32.367130350000025,34.965843700999983],[32.36704841300002,34.965634024999986],[32.366961995999986,34.965572269000006],[32.367033729000013,34.965511428000013],[32.367236471000012,34.965351649000013],[32.367336426999998,34.965250114000014],[32.367340129000013,34.965191442999981],[32.367325740000013,34.965030621999972],[32.367344758999991,34.964977078999993],[32.367419945999984,34.964877940000008],[32.367472974999998,34.964829712999972],[32.367609024999979,34.964873876000013],[32.367619445000003,34.964728419999972],[32.367750392000005,34.964637234999998],[32.367894122999985,34.964492563000022],[32.368041258999995,34.96430445499999],[32.368178816000011,34.964151997999977],[32.368473403999985,34.964145867000013],[32.368687221000016,34.964154641999983],[32.368734282999981,34.964083483000024],[32.368750626999997,34.963966186999983],[32.368751370999973,34.963869185000021],[32.368789208999999,34.963787701000001],[32.368858268999986,34.963663015000009],[32.368917736000014,34.963599494999983],[32.369035659000019,34.963592534999975],[32.369153885000003,34.963534368000012],[32.369309789999988,34.96341527200002],[32.369418977999999,34.963334158999999],[32.369361563999973,34.963129750999997],[32.369405991999997,34.962989611000012],[32.369516372000021,34.962752806000026],[32.369954667999991,34.962591719999978],[32.370725633000006,34.962309926999978],[32.371004504999974,34.962326698000027],[32.371082308999974,34.962286260999974]]],[[[32.377929182000003,34.956006628000011],[32.377985887000023,34.955888726000012],[32.377903334999985,34.955733957999996],[32.377963419000025,34.955694866999977],[32.37803999800002,34.95560005599998],[32.37812084799998,34.955465779000008],[32.378232454999988,34.955456523000009],[32.378328464999981,34.955407789999981],[32.378464473000008,34.955372334000003],[32.37862001100001,34.955369795000024],[32.378839233000008,34.955377496999972],[32.378949050000017,34.955413759999999],[32.37897067199998,34.955420903000004],[32.379014385999994,34.955444476000025],[32.379105681999988,34.955493806999982],[32.379368264999982,34.955583951999984],[32.379435914999988,34.955607196000017],[32.379493771999989,34.955623720000006],[32.379833971999972,34.955720841000016],[32.380319276000023,34.955894071999978],[32.380713035999975,34.956027165000023],[32.380812579000008,34.956060759000025],[32.380887512000015,34.956088549000015],[32.381226239,34.956213966999997],[32.381364957000017,34.956274536000024],[32.38140105399998,34.956290406999983],[32.381679841999983,34.956364040999972],[32.381896145999974,34.956243613000026],[32.381984749000026,34.956122624999978],[32.382200598999987,34.956074408999996],[32.38222306900002,34.956076777000021],[32.382595138999989,34.956115812000007],[32.382733757999972,34.95623804600001],[32.383205538000027,34.956095925],[32.383553241000016,34.956012312999974],[32.383600399999978,34.956094683999993],[32.383627347000015,34.956222840000009],[32.383554516999993,34.956360408000023],[32.383497451999972,34.956527626000025],[32.383436297000003,34.95669806799998],[32.383339657000022,34.956819107000001],[32.383259254999984,34.956894248000026],[32.383216382000001,34.956782329000021],[32.383172925999986,34.956736128999978],[32.38301782000002,34.956656545999977],[32.382914242000027,34.95664285700002],[32.382726707000018,34.956648485000017],[32.382530830999997,34.956706630999975],[32.382155481999973,34.956767109999987],[32.381860082000003,34.956788597000013],[32.381652456999973,34.956823601999986],[32.381309101999989,34.956880994000016],[32.381197444000009,34.956860772000027],[32.380263644000024,34.957453648000012],[32.379814808999981,34.957737056999974],[32.378708098999994,34.957974368000009],[32.378569218999985,34.957875209000008],[32.378399129999991,34.957687086000021],[32.378217699000004,34.957410374999995],[32.378131569000004,34.957203027999981],[32.378049422999993,34.956982540000013],[32.377971910999975,34.956686615000024],[32.377890426000022,34.956390670000019],[32.377855822000015,34.956213158000025],[32.377864430999978,34.956137651999995],[32.377929182000003,34.956006628000011]]],[[[32.397519180000018,34.972532681000018],[32.39743028700002,34.972693977000006],[32.397410805999982,34.972788453000021],[32.397420489000012,34.972884786000009],[32.397490821000019,34.972988362000024],[32.397594422999987,34.973100667999972],[32.397635337999986,34.973224743999992],[32.397606827999994,34.973405182000022],[32.397590444000002,34.973644191000005],[32.397612923999986,34.973719942999992],[32.397688344000017,34.973832108000011],[32.397697638000011,34.973845948000019],[32.397729448000007,34.974066263999987],[32.39759951100001,34.974120703999972],[32.397314626000025,34.974215576000006],[32.397130326000024,34.974280023000006],[32.39685953899999,34.974423195999975],[32.396646125000018,34.974490924999998],[32.396361603999992,34.97453594000001],[32.396041136999997,34.974063107999996],[32.395852273999992,34.973912150999979],[32.395636275000015,34.973753846000022],[32.395513954000023,34.973669212999994],[32.395367871000019,34.973597353999992],[32.395272716000022,34.973368517999972],[32.395203171999981,34.973219506000021],[32.395164717,34.973105179000015],[32.395123706999982,34.972982183999989],[32.395066579999991,34.972925823000026],[32.394972901000017,34.972865043000013],[32.394933912999988,34.972811025999988],[32.394887485000027,34.972724606999975],[32.394757121999987,34.972652825000011],[32.394626764000009,34.972568151000019],[32.394499063000012,34.972502873999986],[32.394470485999989,34.972470455000007],[32.394473471000026,34.97242088500002],[32.394523451999987,34.97238020399999],[32.394597200000021,34.972313767000003],[32.394608591999997,34.972201852000012],[32.394599260000007,34.97203375700002],[32.394566719000011,34.971852565000006],[32.394496584000024,34.971759625999994],[32.394384775999981,34.971670716000006],[32.394406619999984,34.971550197999989],[32.394214470000009,34.971331607000025],[32.39406300600001,34.971292084000027],[32.394029423000006,34.971240168000008],[32.393817694999996,34.971202507999976],[32.393808329000024,34.971051633000002],[32.393673174000014,34.970919512000023],[32.393509800000004,34.970731264999984],[32.393376588000024,34.970678941000017],[32.393057812999984,34.970593323000003],[32.392877482000017,34.970622262999996],[32.392754427,34.970625794999989],[32.392669300000023,34.970569564000016],[32.392600295000022,34.970385123000028],[32.392577744999983,34.970368511999993],[32.39249954600001,34.970425999999975],[32.392446947999986,34.970405090999975],[32.392301970000005,34.970307089000016],[32.392228636000027,34.970354324000027],[32.392104816000028,34.97046125899999],[32.392056973000024,34.970469313000024],[32.391979142000025,34.970464775999972],[32.39187345800002,34.970489038999972],[32.391752949000022,34.970478069000023],[32.391594912000016,34.970435985999984],[32.39136698599998,34.970341712999982],[32.391016311999977,34.970197240999994],[32.390877991000025,34.970213134999995],[32.390775006000013,34.970202250999989],[32.390632191000009,34.970153933000006],[32.390514672999984,34.970068598000012],[32.390399376000005,34.970037005999984],[32.390241204000006,34.970013402000006],[32.390201176999994,34.969990482000014],[32.390163910000012,34.969936473000018],[32.389968454999973,34.969861114000025],[32.38976322000002,34.969752528000015],[32.389628150000021,34.969671161000008],[32.389505800999984,34.96990837300001],[32.389057340000022,34.970075699000006],[32.388937242999987,34.970337805999975],[32.388812931000018,34.970498467000027],[32.388772413000027,34.970541717999993],[32.388658984000017,34.970599116000017],[32.388373967999996,34.970736249000026],[32.387907655999982,34.970934494000005],[32.387590181999997,34.971063166000022],[32.387336516999994,34.971041242000013],[32.386922102000028,34.971014357000001],[32.386279023999975,34.970992448000004],[32.385660703999974,34.970691450000004],[32.385748159000002,34.970423051000012],[32.385710758000016,34.970375260000026],[32.385605908000002,34.970275469000001],[32.385554807999995,34.97006632199998],[32.385486298999979,34.969817780000028],[32.385381486000028,34.969567880999989],[32.385639328000025,34.969211180999991],[32.386303790999989,34.969282608000015],[32.386970549000011,34.969046253999977],[32.387911101999975,34.968722565000007],[32.388696686999992,34.968454344999998],[32.389125648999993,34.968296658999975],[32.389229727999975,34.968317918000025],[32.389369800999987,34.968333407999978],[32.38941960599999,34.968401724999978],[32.389609880000023,34.968432252000014],[32.389774865999982,34.968474551999975],[32.389792312999987,34.968545591999998],[32.389863640999977,34.968622943000014],[32.389905477000013,34.968803643000001],[32.389936673000022,34.968957602999978],[32.38988896699999,34.969093497000017],[32.389730389000022,34.969137056000022],[32.389723009000022,34.969157755000026],[32.389819736999982,34.969220357999973],[32.389902209000013,34.969244483000011],[32.390035364000028,34.969218555999987],[32.390135461,34.969290010999998],[32.390290842000013,34.969190178000019],[32.390370490999999,34.969107726000004],[32.390529196999978,34.969034595999972],[32.390770087000021,34.969012093000003],[32.390906090999977,34.969101577999993],[32.390999573999977,34.969090236],[32.391078917000016,34.969061064000016],[32.391191450999997,34.968916568999987],[32.39129275099998,34.968825389000017],[32.391236224000011,34.968700781999985],[32.39128427899999,34.968517648999978],[32.391438627000014,34.968545017999986],[32.391581762999976,34.96862263700001],[32.391714220999972,34.968703177999998],[32.391800240000009,34.968736153999998],[32.391951112000015,34.968769456000018],[32.392054530999985,34.968855801000018],[32.392161790999978,34.968948115999979],[32.392219391000026,34.968927667999992],[32.39227742700001,34.968848080999976],[32.392372223999985,34.968671040999993],[32.392475207000018,34.968363768000017],[32.392592965000006,34.968233182000006],[32.392696247999993,34.968166623000002],[32.392884046000006,34.96793298],[32.393005309999978,34.96780430299998],[32.393200223000008,34.967671218000021],[32.393234402000019,34.967506946000015],[32.393284506999976,34.967290102999982],[32.393361341999992,34.967122888999995],[32.393432361000009,34.966960514999982],[32.393458635999991,34.966802604999998],[32.393428819999997,34.966644415000019],[32.393426370999975,34.966449667999996],[32.393526910999981,34.966485330000012],[32.393594774999997,34.966493603000004],[32.393728859000021,34.966451178],[32.393747877999999,34.966456502000028],[32.393862264999996,34.966488536999975],[32.394093896000015,34.966373212999997],[32.39424776200002,34.966281390999995],[32.394554742000025,34.966445742000019],[32.394846506000022,34.966603614999997],[32.394980072999999,34.966631416999974],[32.395084721999979,34.966636715999982],[32.395163090999972,34.96678874700001],[32.395228060000022,34.96717854000002],[32.395267260000026,34.967387803000008],[32.395329828999991,34.967600430000005],[32.395364040000004,34.967677232000028],[32.395465903000002,34.967803775999982],[32.395604526,34.967930592000016],[32.395745956999974,34.967945629999974],[32.395945747999974,34.967922733000023],[32.396014852999997,34.968032795999989],[32.396397293000007,34.968612138000026],[32.396546152999974,34.968710606000002],[32.396643955000002,34.968775282000024],[32.396830604000002,34.968918834000021],[32.397048241999983,34.969086249999975],[32.39694377699999,34.969326715000022],[32.396889118999979,34.969488271999978],[32.396863114999974,34.969659165999985],[32.396821761000012,34.969817182999975],[32.396850319999999,34.969888997999988],[32.396995468999989,34.970198679000021],[32.397057550999989,34.970268947000022],[32.397166278999975,34.970309875999988],[32.397190690999992,34.970319103000008],[32.397240532000012,34.970358928999985],[32.397281469000006,34.970467498000005],[32.397306861000004,34.970589512999993],[32.397315848999995,34.970632742000021],[32.397283108000011,34.970835608000016],[32.397227986000019,34.970924767999975],[32.397183607999978,34.970989910000014],[32.397179239000025,34.971019097999999],[32.39720274299998,34.971065914999997],[32.397222509000017,34.971105319999992],[32.397321599999998,34.971265747000018],[32.397364644999982,34.971394971999985],[32.397422996999978,34.971691150000026],[32.397463211000002,34.971787634000009],[32.397480613000027,34.971829012000001],[32.397491301000002,34.971849710000015],[32.397560865000003,34.971984205000012],[32.397601538000004,34.972128924999993],[32.397571190999997,34.972288709999987],[32.397519180000018,34.972532681000018]]],[[[32.388954604999981,34.976781700000004],[32.388854680999998,34.976710425000022],[32.388775923000026,34.976659723000012],[32.388364099,34.976450563000014],[32.387873496999987,34.976193584999976],[32.388040084000011,34.97603466999999],[32.388167128000021,34.975872582000022],[32.388262312999984,34.975633340000002],[32.388365137999983,34.975338602000022],[32.388507559000004,34.97503982500001],[32.388657862000002,34.974664817000019],[32.388752824999983,34.974455234999994],[32.388595022000004,34.973918921000006],[32.388713462999988,34.973454951000008],[32.388803429999996,34.973443502999999],[32.388786400000015,34.973316209000018],[32.388999038999998,34.973231451999993],[32.389147664999996,34.973069469999984],[32.389290700000004,34.973173777999989],[32.389414036000005,34.973023479000005],[32.389635812999984,34.972693185000026],[32.389609543999995,34.972349833999999],[32.389688494999973,34.97237394199999],[32.390204411000013,34.972601380000015],[32.390734626999972,34.972849622000012],[32.390842739999982,34.972802833000003],[32.390891891000024,34.972959949000028],[32.390969987999995,34.973087549000013],[32.391069544999993,34.97324482800002],[32.391135949999978,34.973499666999999],[32.391137790000016,34.973739307000017],[32.391115411999976,34.973845757999982],[32.391086230999974,34.973919539000008],[32.391085595999982,34.974005363000003],[32.391124128000001,34.974132764999979],[32.391101773000003,34.974236239999982],[32.391054591,34.974301094999987],[32.390942617999997,34.974368599999991],[32.390852063000011,34.974471734000019],[32.390735489000008,34.974660474000018],[32.390497643999993,34.975245196000003],[32.390435674000003,34.975355052999987],[32.390388318000021,34.975430996999989],[32.390236604999984,34.975533822999978],[32.390070439999988,34.975636575999999],[32.389899716999992,34.975866514000018],[32.389743603999989,34.976087600000028],[32.389562769000008,34.97624356],[32.389457818999972,34.976325884000005],[32.389295554,34.976401969999984],[32.389172916000007,34.976457519999997],[32.389053186000012,34.976596027000028],[32.388954604999981,34.976781700000004]]]]},"properties":{"objectid":1022853,"site_id":344574,"site_pid":"344574","site_type":"PA","name_eng":"Vrahoi Inias","name":"Vrahoi Inias","desig":"Προστατευόμενα Τοπία","desig_eng":"Protected Landscape","desig_type":"National","iucn_cat":"III","int_crit":"Not Applicable","realm":"Terrestrial","rep_m_area":0,"gis_m_area":0,"rep_area":0.99676010000000004,"gis_area":0.99676016000000001,"no_take":"Not Applicable","no_tk_area":0,"status":"Designated","status_yr":1990,"gov_type":"Federal or national ministry or agency","verif":"State Verified","inlnd_wtrs":"Not Reported","own_type":"Not Reported","mang_auth":"Department of Town Planning and Housing","mang_plan":"Not Reported","cons_obj":"Not Applicable","supp_info":"Not Applicable","metadataid":2013,"prnt_iso3":"CYP","iso3":"CYP","govsubtype":"Not Applicable","ownsubtype":"Not Applicable","oecm_asmt":"Not Applicable","Shape__Area":9.8381072370897502e-05,"Shape__Length":0.099859456548337777}}]}