{
  "type": "FeatureCollection",
  "generator": "overpass-turbo",
  "copyright": "The data included in this document is from www.openstreetmap.org. The data is made available under ODbL.",
  "timestamp": "2026-09-02T19:32:00Z",
  "features": [
    {
      "type": "Feature",
      "properties": {
        "@id": "way/396462454",
        "barrier": "fence",
        "landuse": "forest",
        "leisure": "park",
        "name": "Baths of Aphrodite Botanical Garden",
        "name:uk": "Купальня Афродіти Ботанічний Сад"
      },
      "geometry": {
        "type": "Polygon",
        "coordinates": [
          [
            [
              32.3444485,
              35.0567955
            ],
            [
              32.3442685,
              35.0568991
            ],
            [
              32.3441647,
              35.0567199
            ],
            [
              32.3440202,
              35.0566394
            ],
            [
              32.343817,
              35.0566124
            ],
            [
              32.3437168,
              35.0565147
            ],
            [
              32.3435772,
              35.0562434
            ],
            [
              32.3437517,
              35.056121
            ],
            [
              32.3441106,
              35.0560761
            ],
            [
              32.3444022,
              35.0558966
            ],
            [
              32.3445666,
              35.0557252
            ],
            [
              32.3446588,
              35.0553254
            ],
            [
              32.3456191,
              35.055488
            ],
            [
              32.3461253,
              35.0557662
            ],
            [
              32.3463265,
              35.0556477
            ],
            [
              32.3464821,
              35.0558343
            ],
            [
              32.3461253,
              35.0560736
            ],
            [
              32.3459306,
              35.0560287
            ],
            [
              32.3459125,
              35.0560521
            ],
            [
              32.3459032,
              35.0560662
            ],
            [
              32.3458957,
              35.0560778
            ],
            [
              32.3458852,
              35.0560954
            ],
            [
              32.3458692,
              35.0561474
            ],
            [
              32.3457355,
              35.0561609
            ],
            [
              32.3455402,
              35.0562427
            ],
            [
              32.3454711,
              35.0563519
            ],
            [
              32.3456238,
              35.0565539
            ],
            [
              32.3444485,
              35.0567955
            ]
          ]
        ]
      },
      "id": "way/396462454"
    }
  ]
}