{"type":"FeatureCollection","features":[{"type":"Feature","id":1022838,"geometry":{"type":"Polygon","coordinates":[[[33.951284707000013,35.001739768999983],[33.952239081000016,35.001059302999977],[33.953051113000015,34.999816948999978],[33.955101161000016,34.998905267999987],[33.956474378999985,34.999009940000008],[33.957986835999975,34.999338968000018],[33.960327821000021,35.000225863000026],[33.963211563000016,35.000434433000009],[33.963893426000027,34.999980427000025],[33.964561818999982,34.998063720999994],[33.964675974999977,34.995587607999994],[33.965338017000022,34.992995893],[33.966706939999995,34.992650446000027],[33.969175557000028,34.992523661999996],[33.972607803000017,34.992728893999981],[33.97452765700001,34.992605224999977],[33.977271793,34.992589296000006],[33.978786345000003,34.993143066000016],[33.979623478000008,34.994600916000024],[33.981143443999997,34.995717248000005],[33.982511266000017,34.995259123999972],[33.984423626000023,34.994347704000006],[33.987432560999991,34.993317264999973],[33.990856192000024,34.992621797000027],[33.993327027000021,34.99271961300002],[33.996211571999993,34.993039994000014],[33.99882943099999,34.994149431999972],[34.000492281999982,34.995827249000001],[34.000230981000016,34.997179059000018],[33.998043247999988,34.997979851000025],[33.996133145999977,34.999116572999981],[33.994090103000019,35.000704029000019],[33.991771487999983,35.002180652999982],[33.989037783000015,35.003322098000012],[33.987118877,35.003558499999997],[33.985058305999985,35.003345624000019],[33.983270097999991,35.002906121000024],[33.981349036999973,35.00291734000001],[33.978466240999978,35.002821702999995],[33.97545054699998,35.003176922000023],[33.972158201000013,35.003308542000013],[33.970244435999973,35.004107181999984],[33.968332744000008,35.005130973999997],[33.968621935999977,35.006704604999982],[33.969449526999995,35.007149927],[33.971640970999999,35.00668714599999],[33.974242033999985,35.005996919999973],[33.976021742,35.005536462000009],[33.977128049999976,35.006430248000015],[33.977554585000007,35.008003020999979],[33.976750406000008,35.010033124000017],[33.975800307999975,35.011163872999987],[33.973474689,35.011964972999976],[33.971562858000027,35.012988726000003],[33.969090461999997,35.012777975999995],[33.966341436999983,35.012343729000008],[33.964143514,35.012131323999995],[33.962901048999981,35.011350739000022],[33.959734227000013,35.010243608999986],[33.956571553999993,35.009586399999989],[33.953274862000001,35.009267507000004],[33.950250566000022,35.008721916000013],[33.94750074000001,35.008174736000001],[33.946117222999987,35.006944680999993],[33.944861799000023,35.004701206999982],[33.944425688000024,35.002003203000015],[33.946059110000022,35.000531286000012],[33.948394869000026,35.000855815000023],[33.951284707000013,35.001739768999983]]]},"properties":{"objectid":1022838,"site_id":344558,"site_pid":"344558","site_type":"PA","name_eng":"Dasos Sotira","name":"Dasos Sotira","desig":"Περιοχές Εξαιρετικής Φυσικής Καλλονής","desig_eng":"Areas of Special Aesthetic Value","desig_type":"National","iucn_cat":"VI","int_crit":"Not Applicable","realm":"Terrestrial","rep_m_area":0,"gis_m_area":0,"rep_area":5.9382745400000001,"gis_area":5.9382745200000002,"no_take":"Not Applicable","no_tk_area":0,"status":"Designated","status_yr":1990,"gov_type":"Federal or national ministry or agency","verif":"State Verified","inlnd_wtrs":"Not Reported","own_type":"Not Reported","mang_auth":"Department of Town Planning and Housing","mang_plan":"Not Reported","cons_obj":"Not Applicable","supp_info":"Not Applicable","metadataid":2013,"prnt_iso3":"CYP","iso3":"CYP","govsubtype":"Not Applicable","ownsubtype":"Not Applicable","oecm_asmt":"Not Applicable","Shape__Area":0.00058635951177122799,"Shape__Length":0.15475882033375993}}]}