{
  "type": "Feature",
  "properties": {},
  "geometry": {
    "type": "LineString",
    "coordinates": [
      [
        32.84745,
        34.94773
      ],
      [
        32.8479,
        34.94838
      ],
      [
        32.84808,
        34.94877
      ],
      [
        32.84805,
        34.94919
      ],
      [
        32.84825,
        34.949450000000006
      ],
      [
        32.848290000000006,
        34.949780000000004
      ],
      [
        32.848200000000006,
        34.950120000000005
      ],
      [
        32.84884,
        34.94999
      ],
      [
        32.84922,
        34.95008
      ],
      [
        32.849250000000005,
        34.9502
      ],
      [
        32.84908,
        34.950430000000004
      ],
      [
        32.849050000000005,
        34.95082
      ],
      [
        32.849340000000005,
        34.95114
      ],
      [
        32.84976,
        34.951350000000005
      ],
      [
        32.84996,
        34.95178
      ],
      [
        32.84993,
        34.95197
      ],
      [
        32.85007,
        34.95215
      ],
      [
        32.85004,
        34.952200000000005
      ],
      [
        32.84975,
        34.952270000000006
      ],
      [
        32.8496,
        34.95239
      ],
      [
        32.8493,
        34.952450000000006
      ],
      [
        32.84921,
        34.95253
      ],
      [
        32.8492,
        34.952630000000006
      ],
      [
        32.8493,
        34.952890000000004
      ],
      [
        32.84921,
        34.95331
      ],
      [
        32.84931,
        34.953410000000005
      ],
      [
        32.84944,
        34.95367
      ],
      [
        32.849819998195464,
        34.954080000695555
      ],
      [
        32.8502,
        34.95449
      ],
      [
        32.85014,
        34.954730000000005
      ],
      [
        32.85016,
        34.955020000000005
      ],
      [
        32.85036,
        34.95534
      ],
      [
        32.85074,
        34.95566
      ],
      [
        32.85099,
        34.95608
      ],
      [
        32.851350000000004,
        34.956360000000004
      ],
      [
        32.85174,
        34.95653
      ],
      [
        32.85224,
        34.956450000000004
      ],
      [
        32.8525,
        34.956520000000005
      ],
      [
        32.85262,
        34.9566
      ],
      [
        32.852900000000005,
        34.957100000000004
      ],
      [
        32.852880000000006,
        34.95731
      ],
      [
        32.85302,
        34.957480000000004
      ],
      [
        32.85314,
        34.957510000000006
      ],
      [
        32.85333,
        34.957480000000004
      ],
      [
        32.85376,
        34.95729
      ],
      [
        32.85407,
        34.957770000000004
      ],
      [
        32.85408,
        34.95799
      ],
      [
        32.854354998608414,
        34.958420000390134
      ],
      [
        32.85463,
        34.958850000000005
      ],
      [
        32.85499,
        34.959010000000006
      ],
      [
        32.85539,
        34.9591
      ],
      [
        32.85582,
        34.959300000000006
      ],
      [
        32.85611,
        34.959500000000006
      ],
      [
        32.856210000000004,
        34.959500000000006
      ],
      [
        32.85651,
        34.95962
      ],
      [
        32.85661,
        34.95971
      ],
      [
        32.85667,
        34.95984
      ],
      [
        32.85681,
        34.959990000000005
      ],
      [
        32.856860000000005,
        34.96011
      ],
      [
        32.856930000000006,
        34.960150000000006
      ],
      [
        32.85685,
        34.96016
      ],
      [
        32.85683,
        34.9602
      ],
      [
        32.85692,
        34.96034
      ],
      [
        32.8569,
        34.960370000000005
      ],
      [
        32.85725,
        34.960460000000005
      ],
      [
        32.85732,
        34.96061
      ],
      [
        32.857670000000006,
        34.960910000000005
      ],
      [
        32.857890000000005,
        34.96081
      ],
      [
        32.85808,
        34.96087
      ],
      [
        32.85819,
        34.96085
      ],
      [
        32.85821,
        34.960910000000005
      ],
      [
        32.85811,
        34.960930000000005
      ],
      [
        32.85799,
        34.96087
      ],
      [
        32.857850000000006,
        34.960860000000004
      ],
      [
        32.85784,
        34.9609
      ],
      [
        32.85794,
        34.96097
      ],
      [
        32.85808,
        34.96117
      ],
      [
        32.85821,
        34.96121
      ],
      [
        32.858180000000004,
        34.961310000000005
      ],
      [
        32.85831,
        34.961400000000005
      ],
      [
        32.85842,
        34.96157
      ],
      [
        32.85849,
        34.96155
      ],
      [
        32.85858,
        34.96157
      ],
      [
        32.85911,
        34.9622
      ],
      [
        32.8594,
        34.962390000000006
      ],
      [
        32.85953,
        34.962360000000004
      ],
      [
        32.85958,
        34.9624
      ],
      [
        32.86,
        34.963100000000004
      ],
      [
        32.85998,
        34.96316
      ],
      [
        32.860110000000006,
        34.9634
      ],
      [
        32.860290000000006,
        34.963350000000005
      ],
      [
        32.86047,
        34.96334
      ],
      [
        32.860640000000004,
        34.963390000000004
      ],
      [
        32.86079,
        34.963460000000005
      ],
      [
        32.86108,
        34.96367
      ],
      [
        32.861180000000004,
        34.96379
      ],
      [
        32.861470000000004,
        34.96387
      ],
      [
        32.861740000000005,
        34.96406
      ],
      [
        32.861990000000006,
        34.964110000000005
      ],
      [
        32.862210000000005,
        34.96426
      ],
      [
        32.862280000000005,
        34.964330000000004
      ],
      [
        32.86242,
        34.96443
      ],
      [
        32.86283,
        34.96454
      ],
      [
        32.86314,
        34.96454
      ],
      [
        32.86319,
        34.96459
      ],
      [
        32.86329,
        34.964760000000005
      ],
      [
        32.86347,
        34.96497
      ],
      [
        32.86377,
        34.965230000000005
      ],
      [
        32.86394,
        34.96531
      ],
      [
        32.86399,
        34.965320000000006
      ],
      [
        32.864050000000006,
        34.965360000000004
      ],
      [
        32.86394,
        34.96531
      ],
      [
        32.86399,
        34.965320000000006
      ],
      [
        32.86406,
        34.96537
      ],
      [
        32.864200000000004,
        34.9654
      ],
      [
        32.864470000000004,
        34.96558
      ],
      [
        32.86486,
        34.965770000000006
      ],
      [
        32.86551,
        34.966
      ],
      [
        32.86567,
        34.966
      ],
      [
        32.86571,
        34.96623
      ],
      [
        32.865750000000006,
        34.966350000000006
      ],
      [
        32.86587,
        34.966550000000005
      ],
      [
        32.86612,
        34.96679
      ],
      [
        32.86619,
        34.966910000000006
      ],
      [
        32.86647,
        34.96707
      ],
      [
        32.86657,
        34.967150000000004
      ],
      [
        32.866870000000006,
        34.96728
      ],
      [
        32.86704,
        34.967330000000004
      ],
      [
        32.867180000000005,
        34.967310000000005
      ],
      [
        32.86735,
        34.96721
      ],
      [
        32.86746,
        34.96721
      ],
      [
        32.86777,
        34.96716
      ],
      [
        32.86784,
        34.96725
      ],
      [
        32.86815,
        34.967510000000004
      ],
      [
        32.86816,
        34.967560000000006
      ],
      [
        32.86822,
        34.967650000000006
      ],
      [
        32.868390000000005,
        34.967850000000006
      ],
      [
        32.86872,
        34.968070000000004
      ],
      [
        32.86881,
        34.968160000000005
      ],
      [
        32.86883,
        34.96824
      ],
      [
        32.86903,
        34.96847
      ],
      [
        32.86914,
        34.96855
      ],
      [
        32.86927,
        34.96858
      ],
      [
        32.869420000000005,
        34.968680000000006
      ],
      [
        32.86941,
        34.968740000000004
      ],
      [
        32.869490000000006,
        34.96891
      ],
      [
        32.86959,
        34.969060000000006
      ],
      [
        32.86961,
        34.96913
      ],
      [
        32.86968,
        34.9692
      ],
      [
        32.86981,
        34.969260000000006
      ],
      [
        32.870020000000004,
        34.969240000000006
      ],
      [
        32.87006,
        34.969260000000006
      ],
      [
        32.87015,
        34.969480000000004
      ],
      [
        32.87022,
        34.96952
      ],
      [
        32.87033,
        34.969550000000005
      ],
      [
        32.87066,
        34.969570000000004
      ],
      [
        32.871,
        34.969680000000004
      ],
      [
        32.871100000000006,
        34.96987
      ],
      [
        32.87117,
        34.97005
      ],
      [
        32.87111,
        34.970110000000005
      ],
      [
        32.871010000000005,
        34.97017
      ],
      [
        32.87077,
        34.97025
      ],
      [
        32.87062,
        34.970270000000006
      ],
      [
        32.87012,
        34.97045
      ],
      [
        32.86992,
        34.97054
      ],
      [
        32.86927,
        34.970620000000004
      ],
      [
        32.86912,
        34.97068
      ],
      [
        32.86872,
        34.970980000000004
      ],
      [
        32.8686,
        34.97102
      ],
      [
        32.86849,
        34.971090000000004
      ],
      [
        32.868370000000006,
        34.971090000000004
      ],
      [
        32.868190000000006,
        34.97122
      ],
      [
        32.868080000000006,
        34.97126
      ],
      [
        32.867990000000006,
        34.97135
      ],
      [
        32.86759,
        34.971630000000005
      ],
      [
        32.86744,
        34.97171
      ],
      [
        32.86717,
        34.97175
      ],
      [
        32.86706,
        34.971830000000004
      ],
      [
        32.86672,
        34.971920000000004
      ],
      [
        32.866620000000005,
        34.972010000000004
      ],
      [
        32.8667,
        34.972030000000004
      ],
      [
        32.866730000000004,
        34.972210000000004
      ],
      [
        32.86686,
        34.972260000000006
      ],
      [
        32.867050000000006,
        34.97258
      ],
      [
        32.867140000000006,
        34.97263
      ],
      [
        32.86721,
        34.97281
      ],
      [
        32.86726,
        34.97288
      ],
      [
        32.86726,
        34.972970000000004
      ],
      [
        32.86722,
        34.973090000000006
      ],
      [
        32.867070000000005,
        34.9733
      ],
      [
        32.86695,
        34.97343
      ],
      [
        32.86683,
        34.9735
      ],
      [
        32.86666,
        34.9737
      ],
      [
        32.86661,
        34.97383
      ],
      [
        32.86637,
        34.974140000000006
      ],
      [
        32.8662,
        34.974320000000006
      ],
      [
        32.86607,
        34.9744
      ],
      [
        32.8661,
        34.97444
      ],
      [
        32.865970000000004,
        34.97457
      ],
      [
        32.86587,
        34.97464
      ],
      [
        32.86576,
        34.97469
      ],
      [
        32.865590000000005,
        34.974740000000004
      ],
      [
        32.865370000000006,
        34.97468
      ],
      [
        32.86515,
        34.97471
      ],
      [
        32.865100000000005,
        34.97468
      ],
      [
        32.864920000000005,
        34.974720000000005
      ],
      [
        32.86466,
        34.97466
      ],
      [
        32.864540000000005,
        34.97468
      ],
      [
        32.86453,
        34.974500000000006
      ],
      [
        32.864580000000004,
        34.974430000000005
      ],
      [
        32.86482,
        34.974470000000004
      ],
      [
        32.86491,
        34.974430000000005
      ],
      [
        32.865,
        34.974360000000004
      ],
      [
        32.86504,
        34.97429
      ],
      [
        32.86506,
        34.97413
      ],
      [
        32.86525,
        34.974090000000004
      ],
      [
        32.86534,
        34.97404
      ],
      [
        32.865460000000006,
        34.973940000000006
      ],
      [
        32.86542,
        34.9739
      ],
      [
        32.8654,
        34.97381
      ],
      [
        32.86542,
        34.97361
      ],
      [
        32.86547,
        34.973510000000005
      ],
      [
        32.86549,
        34.97339
      ],
      [
        32.86542,
        34.973290000000006
      ],
      [
        32.8654,
        34.97323
      ],
      [
        32.865210000000005,
        34.97303
      ],
      [
        32.86516,
        34.97294
      ],
      [
        32.865140000000004,
        34.9727
      ],
      [
        32.865030000000004,
        34.972640000000006
      ],
      [
        32.864920000000005,
        34.97261
      ],
      [
        32.864650000000005,
        34.972660000000005
      ],
      [
        32.86433,
        34.972750000000005
      ],
      [
        32.86424,
        34.972730000000006
      ],
      [
        32.864110000000004,
        34.972730000000006
      ],
      [
        32.86397,
        34.972660000000005
      ],
      [
        32.863890000000005,
        34.97256
      ],
      [
        32.86386,
        34.97249
      ],
      [
        32.8639,
        34.97247
      ],
      [
        32.86394,
        34.97238
      ],
      [
        32.86399,
        34.972190000000005
      ],
      [
        32.863980000000005,
        34.97214
      ],
      [
        32.86393,
        34.97211
      ],
      [
        32.86372,
        34.97213
      ],
      [
        32.863670000000006,
        34.97216
      ],
      [
        32.863530000000004,
        34.97216
      ],
      [
        32.863400000000006,
        34.97209
      ],
      [
        32.86338,
        34.97205
      ],
      [
        32.86329,
        34.97198
      ],
      [
        32.863310000000006,
        34.97195
      ],
      [
        32.86332,
        34.9718
      ],
      [
        32.86336,
        34.97176
      ],
      [
        32.86336,
        34.97169
      ],
      [
        32.86339,
        34.97164
      ],
      [
        32.863350000000004,
        34.97158
      ],
      [
        32.863260000000004,
        34.97155
      ],
      [
        32.86319,
        34.97138
      ],
      [
        32.86314,
        34.97133
      ],
      [
        32.863080000000004,
        34.971320000000006
      ],
      [
        32.863040000000005,
        34.971340000000005
      ],
      [
        32.863020000000006,
        34.97138
      ],
      [
        32.86294,
        34.9714
      ],
      [
        32.862860000000005,
        34.97139
      ],
      [
        32.862700000000004,
        34.971410000000006
      ]
    ]
  }
}