{
  "type": "Feature",
  "properties": {},
  "geometry": {
    "type": "LineString",
    "coordinates": [
      [
        32.99503,
        34.95613
      ],
      [
        32.9949,
        34.956120000000006
      ],
      [
        32.99501,
        34.956160000000004
      ],
      [
        32.994980000000005,
        34.956210000000006
      ],
      [
        32.994550000000004,
        34.956030000000005
      ],
      [
        32.99459,
        34.956120000000006
      ],
      [
        32.99443,
        34.95604
      ],
      [
        32.994420000000005,
        34.956070000000004
      ],
      [
        32.994350000000004,
        34.95606
      ],
      [
        32.994350000000004,
        34.95608
      ],
      [
        32.99441,
        34.956140000000005
      ],
      [
        32.99418,
        34.956070000000004
      ],
      [
        32.99436,
        34.95627
      ],
      [
        32.99448,
        34.956430000000005
      ],
      [
        32.99447,
        34.956450000000004
      ],
      [
        32.99421,
        34.95631
      ],
      [
        32.994020000000006,
        34.95627
      ],
      [
        32.993900000000004,
        34.95629
      ],
      [
        32.994080000000004,
        34.95647
      ],
      [
        32.994,
        34.95653
      ],
      [
        32.99396,
        34.9566
      ],
      [
        32.993950000000005,
        34.95667
      ],
      [
        32.99398,
        34.95669
      ],
      [
        32.993930000000006,
        34.95669
      ],
      [
        32.99387,
        34.95665
      ],
      [
        32.993860000000005,
        34.95676
      ],
      [
        32.99381,
        34.95671
      ],
      [
        32.993790000000004,
        34.956500000000005
      ],
      [
        32.99374,
        34.95658
      ],
      [
        32.99373,
        34.956520000000005
      ],
      [
        32.99369,
        34.956500000000005
      ],
      [
        32.993660000000006,
        34.95655
      ],
      [
        32.993460000000006,
        34.95658
      ],
      [
        32.993500000000004,
        34.95667
      ],
      [
        32.99354,
        34.956700000000005
      ],
      [
        32.99351,
        34.956720000000004
      ],
      [
        32.99347,
        34.9568
      ],
      [
        32.993430000000004,
        34.95676
      ],
      [
        32.993370000000006,
        34.95676
      ],
      [
        32.993320000000004,
        34.95673
      ],
      [
        32.99331,
        34.95667
      ],
      [
        32.993280000000006,
        34.95664
      ],
      [
        32.99322,
        34.95662
      ],
      [
        32.99309,
        34.956630000000004
      ],
      [
        32.992900000000006,
        34.95667
      ],
      [
        32.99278,
        34.956720000000004
      ],
      [
        32.992720000000006,
        34.956770000000006
      ],
      [
        32.99273,
        34.956830000000004
      ],
      [
        32.99255,
        34.95684
      ],
      [
        32.992490000000004,
        34.956950000000006
      ],
      [
        32.99223,
        34.95698
      ],
      [
        32.992270000000005,
        34.957010000000004
      ],
      [
        32.992380000000004,
        34.95703
      ],
      [
        32.99242,
        34.95712
      ],
      [
        32.99239,
        34.95714
      ],
      [
        32.992000000000004,
        34.95713
      ],
      [
        32.992250000000006,
        34.95725
      ],
      [
        32.99222,
        34.957280000000004
      ],
      [
        32.99197,
        34.95723
      ],
      [
        32.991690000000006,
        34.957240000000006
      ],
      [
        32.99176,
        34.95732
      ],
      [
        32.99141,
        34.95727
      ],
      [
        32.991170000000004,
        34.95721
      ],
      [
        32.99071,
        34.957390000000004
      ],
      [
        32.99058,
        34.9574
      ],
      [
        32.99053,
        34.957420000000006
      ],
      [
        32.990610000000004,
        34.95745
      ],
      [
        32.990500000000004,
        34.957510000000006
      ],
      [
        32.99018,
        34.957570000000004
      ],
      [
        32.98975,
        34.957530000000006
      ],
      [
        32.989540000000005,
        34.95747
      ],
      [
        32.989340000000006,
        34.957390000000004
      ],
      [
        32.9887,
        34.95734
      ],
      [
        32.98807,
        34.957150000000006
      ],
      [
        32.98781,
        34.957040000000006
      ],
      [
        32.987550000000006,
        34.9568
      ],
      [
        32.986920000000005,
        34.956590000000006
      ],
      [
        32.98655,
        34.956500000000005
      ],
      [
        32.98628,
        34.95637
      ],
      [
        32.98604,
        34.95633
      ],
      [
        32.98568,
        34.95611
      ],
      [
        32.985530000000004,
        34.956070000000004
      ],
      [
        32.98541,
        34.95622
      ],
      [
        32.98519,
        34.95669
      ],
      [
        32.98508,
        34.95673
      ],
      [
        32.984680000000004,
        34.956590000000006
      ],
      [
        32.98436,
        34.956520000000005
      ],
      [
        32.984010000000005,
        34.956500000000005
      ],
      [
        32.98396,
        34.95655
      ],
      [
        32.98398,
        34.956680000000006
      ],
      [
        32.984080000000006,
        34.95687
      ],
      [
        32.984170000000006,
        34.95714
      ],
      [
        32.98425,
        34.957480000000004
      ],
      [
        32.98445,
        34.95776
      ],
      [
        32.98458,
        34.95801
      ],
      [
        32.98456,
        34.95812
      ],
      [
        32.984300000000005,
        34.95834
      ],
      [
        32.98433,
        34.95846
      ],
      [
        32.984500000000004,
        34.95862
      ],
      [
        32.98443,
        34.958650000000006
      ],
      [
        32.98462,
        34.9589
      ],
      [
        32.98476,
        34.958920000000006
      ],
      [
        32.98499,
        34.959010000000006
      ],
      [
        32.985220000000005,
        34.959160000000004
      ],
      [
        32.985510000000005,
        34.959300000000006
      ],
      [
        32.985910000000004,
        34.95958
      ],
      [
        32.9859,
        34.95962
      ],
      [
        32.985670000000006,
        34.959500000000006
      ],
      [
        32.98537,
        34.9594
      ],
      [
        32.985350000000004,
        34.95944
      ],
      [
        32.98556,
        34.95956
      ],
      [
        32.985710000000005,
        34.95967
      ],
      [
        32.985730000000004,
        34.959740000000004
      ],
      [
        32.98588,
        34.95987
      ],
      [
        32.98603,
        34.96007
      ],
      [
        32.98613,
        34.960240000000006
      ],
      [
        32.98617,
        34.960370000000005
      ],
      [
        32.986090000000004,
        34.96043
      ],
      [
        32.9861,
        34.9605
      ],
      [
        32.9863,
        34.960660000000004
      ],
      [
        32.98637,
        34.96076
      ],
      [
        32.98649,
        34.960820000000005
      ],
      [
        32.98659,
        34.96097
      ],
      [
        32.986740000000005,
        34.96097
      ],
      [
        32.98688,
        34.96103
      ],
      [
        32.98695,
        34.961270000000006
      ],
      [
        32.986900000000006,
        34.9615
      ],
      [
        32.98695,
        34.96175
      ],
      [
        32.98689,
        34.96191
      ],
      [
        32.986920000000005,
        34.96213
      ],
      [
        32.98698,
        34.9622
      ],
      [
        32.987230000000004,
        34.96238
      ],
      [
        32.987390000000005,
        34.96258
      ],
      [
        32.987460000000006,
        34.962700000000005
      ],
      [
        32.98743,
        34.96278
      ],
      [
        32.987590000000004,
        34.96298
      ],
      [
        32.987750000000005,
        34.963100000000004
      ],
      [
        32.98772,
        34.96313
      ],
      [
        32.98731,
        34.96304
      ],
      [
        32.987280000000005,
        34.96305
      ],
      [
        32.987410000000004,
        34.963100000000004
      ],
      [
        32.9876,
        34.963240000000006
      ],
      [
        32.98772,
        34.96334
      ],
      [
        32.98787,
        34.96352
      ],
      [
        32.98771,
        34.963480000000004
      ],
      [
        32.987700000000004,
        34.96351
      ],
      [
        32.987860000000005,
        34.9636
      ],
      [
        32.988310000000006,
        34.963730000000005
      ],
      [
        32.98848,
        34.96388
      ],
      [
        32.98848,
        34.9639
      ],
      [
        32.9881,
        34.963860000000004
      ],
      [
        32.988130000000005,
        34.96392
      ],
      [
        32.98859,
        34.96405
      ],
      [
        32.98857,
        34.96407
      ],
      [
        32.98814,
        34.96417
      ],
      [
        32.988080000000004,
        34.96423
      ],
      [
        32.988080000000004,
        34.964360000000006
      ],
      [
        32.988,
        34.96446
      ],
      [
        32.988040000000005,
        34.964580000000005
      ],
      [
        32.988080000000004,
        34.96463
      ],
      [
        32.988060000000004,
        34.964670000000005
      ],
      [
        32.988020000000006,
        34.96468
      ],
      [
        32.98796,
        34.96475
      ]
    ]
  }
}