{
  "type": "Feature",
  "properties": {
    "code": "5B/CY-031",
    "summit": "Rock Dhora"
  },
  "geometry": {
    "type": "Polygon",
    "coordinates": [
      [
        [32.7305993079585, 34.7764920415225],
        [32.7308761245675, 34.7764920415225],
        [32.7311529411765, 34.7764920415225],
        [32.7314297577855, 34.7767688581315],
        [32.7317065743945, 34.7767688581315],
        [32.7319833910035, 34.7767688581315],
        [32.7322602076125, 34.7767688581315],
        [32.7325370242215, 34.7770456747405],
        [32.7328138408305, 34.7770456747405],
        [32.7330906574394, 34.7770456747405],
        [32.7333674740484, 34.7773224913495],
        [32.7336442906574, 34.7773224913495],
        [32.7339211072664, 34.7773224913495],
        [32.7341979238754, 34.7773224913495],
        [32.7344747404844, 34.7770456747405],
        [32.7347515570934, 34.7770456747405],
        [32.7350283737024, 34.7770456747405],
        [32.7353051903114, 34.7770456747405],
        [32.7355820069204, 34.7767688581315],
        [32.7358588235294, 34.7770456747405],
        [32.7361356401384, 34.7770456747405],
        [32.7364124567474, 34.7767688581315],
        [32.7364124567474, 34.7764920415225],
        [32.7366892733564, 34.7762152249135],
        [32.7366892733564, 34.7759384083045],
        [32.7366892733564, 34.7756615916955],
        [32.7366892733564, 34.7753847750865],
        [32.7366892733564, 34.7751079584775],
        [32.7366892733564, 34.7748311418685],
        [32.7366892733564, 34.7745543252595],
        [32.7364124567474, 34.7742775086505],
        [32.7361356401384, 34.7740006920415],
        [32.7358588235294, 34.7740006920415],
        [32.7355820069204, 34.7742775086505],
        [32.7353051903114, 34.7742775086505],
        [32.7350283737024, 34.7745543252595],
        [32.7347515570934, 34.7745543252595],
        [32.7344747404844, 34.7745543252595],
        [32.7341979238754, 34.7745543252595],
        [32.7339211072664, 34.7742775086505],
        [32.7336442906574, 34.7740006920415],
        [32.7333674740484, 34.7740006920415],
        [32.7330906574394, 34.7737238754325],
        [32.7328138408305, 34.7737238754325],
        [32.7325370242215, 34.7737238754325],
        [32.7322602076125, 34.7737238754325],
        [32.7319833910035, 34.7737238754325],
        [32.7317065743945, 34.7737238754325],
        [32.7314297577855, 34.7740006920415],
        [32.7311529411765, 34.7742775086505],
        [32.7308761245675, 34.7742775086505],
        [32.7305993079585, 34.7745543252595],
        [32.7303224913495, 34.7742775086505],
        [32.7300456747405, 34.7740006920415],
        [32.7297688581315, 34.7737238754325],
        [32.7294920415225, 34.7737238754325],
        [32.7292152249135, 34.7737238754325],
        [32.7289384083045, 34.7734470588235],
        [32.7286615916955, 34.7731702422145],
        [32.7283847750865, 34.7728934256055],
        [32.7281079584775, 34.7728934256055],
        [32.7278311418685, 34.7728934256055],
        [32.7275543252595, 34.7728934256055],
        [32.7272775086505, 34.7728934256055],
        [32.7270006920415, 34.7726166089965],
        [32.7267238754325, 34.7726166089965],
        [32.7264470588235, 34.7726166089965],
        [32.7261702422145, 34.7726166089965],
        [32.7258934256055, 34.7726166089965],
        [32.7256166089965, 34.7723397923875],
        [32.7253397923875, 34.7720629757785],
        [32.7250629757785, 34.7717861591696],
        [32.7247861591695, 34.7717861591696],
        [32.7245093425606, 34.7715093425606],
        [32.7242325259516, 34.7715093425606],
        [32.7239557093426, 34.7717861591696],
        [32.7236788927336, 34.7720629757785],
        [32.7236788927336, 34.7723397923875],
        [32.7239557093426, 34.7726166089965],
        [32.7239557093426, 34.7728934256055],
        [32.7242325259516, 34.7728934256055],
        [32.7245093425606, 34.7731702422145],
        [32.7247861591695, 34.7731702422145],
        [32.7250629757785, 34.7734470588235],
        [32.7253397923875, 34.7734470588235],
        [32.7256166089965, 34.7737238754325],
        [32.7258934256055, 34.7740006920415],
        [32.7261702422145, 34.7740006920415],
        [32.7264470588235, 34.7742775086505],
        [32.7267238754325, 34.7745543252595],
        [32.7270006920415, 34.7745543252595],
        [32.7272775086505, 34.7748311418685],
        [32.7275543252595, 34.7751079584775],
        [32.7278311418685, 34.7753847750865],
        [32.7281079584775, 34.7756615916955],
        [32.7283847750865, 34.7759384083045],
        [32.7283847750865, 34.7762152249135],
        [32.7286615916955, 34.7762152249135],
        [32.7289384083045, 34.7762152249135],
        [32.7292152249135, 34.7764920415225],
        [32.7294920415225, 34.7764920415225],
        [32.7297688581315, 34.7764920415225],
        [32.7300456747405, 34.7764920415225],
        [32.7303224913495, 34.7764920415225],
        [32.7305993079585, 34.7764920415225],
        [32.7305993079585, 34.7764920415225]
      ]
    ]
  }
}
