{
  "type": "Feature",
  "properties": {
    "code": "5B/CY-030",
    "summit": "Monastron"
  },
  "geometry": {
    "type": "Polygon",
    "coordinates": [
      [
        [32.6738224913495, 34.8158688581315],
        [32.6740993079585, 34.8161456747405],
        [32.6743761245675, 34.8161456747405],
        [32.6746529411765, 34.8161456747405],
        [32.6746529411765, 34.8158688581315],
        [32.6749297577855, 34.8155920415225],
        [32.6749297577855, 34.8153152249135],
        [32.6749297577855, 34.8150384083045],
        [32.6749297577855, 34.8147615916955],
        [32.6746529411765, 34.8147615916955],
        [32.6743761245675, 34.8147615916955],
        [32.6740993079585, 34.8144847750865],
        [32.6740993079585, 34.8142079584775],
        [32.6738224913495, 34.8139311418685],
        [32.6735456747405, 34.8136543252595],
        [32.6732688581315, 34.8139311418685],
        [32.6729920415225, 34.8139311418685],
        [32.6727152249135, 34.8136543252595],
        [32.6727152249135, 34.8133775086505],
        [32.6727152249135, 34.8131006920415],
        [32.6727152249135, 34.8128238754325],
        [32.6727152249135, 34.8125470588235],
        [32.6724384083045, 34.8122702422145],
        [32.6721615916955, 34.8122702422145],
        [32.6718847750865, 34.8125470588235],
        [32.6716079584775, 34.8128238754325],
        [32.6713311418685, 34.8131006920415],
        [32.6710543252595, 34.8133775086505],
        [32.6707775086505, 34.8136543252595],
        [32.6705006920415, 34.8136543252595],
        [32.6702238754325, 34.8133775086505],
        [32.6699470588235, 34.8133775086505],
        [32.6696702422145, 34.8133775086505],
        [32.6693934256055, 34.8133775086505],
        [32.6691166089965, 34.8131006920415],
        [32.6688397923875, 34.8128238754325],
        [32.6685629757785, 34.8125470588235],
        [32.6682861591695, 34.8125470588235],
        [32.6680093425606, 34.8122702422145],
        [32.6677325259516, 34.8122702422145],
        [32.6674557093426, 34.8119934256055],
        [32.6671788927336, 34.8117166089965],
        [32.6669020761246, 34.8117166089965],
        [32.6666252595156, 34.8117166089965],
        [32.6663484429066, 34.8119934256055],
        [32.6666252595156, 34.8122702422145],
        [32.6669020761246, 34.8125470588235],
        [32.6669020761246, 34.8128238754325],
        [32.6669020761246, 34.8131006920415],
        [32.6669020761246, 34.8133775086505],
        [32.6669020761246, 34.8136543252595],
        [32.6671788927336, 34.8139311418685],
        [32.6674557093426, 34.8139311418685],
        [32.6677325259516, 34.8139311418685],
        [32.6680093425606, 34.8139311418685],
        [32.6682861591695, 34.8139311418685],
        [32.6685629757785, 34.8139311418685],
        [32.6688397923875, 34.8142079584775],
        [32.6691166089965, 34.8142079584775],
        [32.6693934256055, 34.8144847750865],
        [32.6696702422145, 34.8144847750865],
        [32.6699470588235, 34.8144847750865],
        [32.6702238754325, 34.8144847750865],
        [32.6705006920415, 34.8147615916955],
        [32.6707775086505, 34.8147615916955],
        [32.6710543252595, 34.8150384083045],
        [32.6713311418685, 34.8150384083045],
        [32.6716079584775, 34.8150384083045],
        [32.6718847750865, 34.8153152249135],
        [32.6721615916955, 34.8153152249135],
        [32.6724384083045, 34.8153152249135],
        [32.6727152249135, 34.8153152249135],
        [32.6729920415225, 34.8155920415225],
        [32.6732688581315, 34.8155920415225],
        [32.6735456747405, 34.8158688581315],
        [32.6738224913495, 34.8158688581315],
        [32.6738224913495, 34.8158688581315]
      ]
    ]
  }
}
