{
  "type": "Feature",
  "properties": {
    "code": "5B/CY-018",
    "summit": "Moutti tous Fitillous"
  },
  "geometry": {
    "type": "Polygon",
    "coordinates": [
      [
        [32.6348311418685, 35.0823920415225],
        [32.6345543252595, 35.0826688581315],
        [32.6348311418685, 35.0826688581315],
        [32.6351079584775, 35.0826688581315],
        [32.6353847750865, 35.0826688581315],
        [32.6356615916955, 35.0823920415225],
        [32.6359384083045, 35.0823920415225],
        [32.6362152249135, 35.0821152249135],
        [32.6364920415225, 35.0818384083045],
        [32.6367688581315, 35.0815615916955],
        [32.6364920415225, 35.0815615916955],
        [32.6362152249135, 35.0812847750865],
        [32.6359384083045, 35.0812847750865],
        [32.6356615916955, 35.0812847750865],
        [32.6353847750865, 35.0815615916955],
        [32.6351079584775, 35.0818384083045],
        [32.6351079584775, 35.0821152249135],
        [32.6348311418685, 35.0823920415225],
        [32.6348311418685, 35.0823920415225]
      ]
    ]
  }
}
