{
  "type": "Feature",
  "properties": {
    "code": "5B/CY-017",
    "summit": "CY017 no name"
  },
  "geometry": {
    "type": "Polygon",
    "coordinates": [
      [
        [33.0454615916955, 34.8234456747405],
        [33.0454615916955, 34.8237224913495],
        [33.0454615916955, 34.8239993079585],
        [33.0457384083045, 34.8239993079585],
        [33.0460152249135, 34.8237224913495],
        [33.0462920415225, 34.8237224913495],
        [33.0465688581315, 34.8234456747405],
        [33.0465688581315, 34.8231688581315],
        [33.0468456747405, 34.8228920415225],
        [33.0468456747405, 34.8226152249135],
        [33.0468456747405, 34.8223384083045],
        [33.0465688581315, 34.8223384083045],
        [33.0462920415225, 34.8220615916955],
        [33.0460152249135, 34.8220615916955],
        [33.0457384083045, 34.8217847750865],
        [33.0454615916955, 34.8217847750865],
        [33.0451847750865, 34.8217847750865],
        [33.0449079584775, 34.8217847750865],
        [33.0446311418685, 34.8217847750865],
        [33.0443543252595, 34.8217847750865],
        [33.0440775086505, 34.8217847750865],
        [33.0438006920415, 34.8217847750865],
        [33.0440775086505, 34.8220615916955],
        [33.0443543252595, 34.8220615916955],
        [33.0446311418685, 34.8223384083045],
        [33.0449079584775, 34.8226152249135],
        [33.0451847750865, 34.8228920415225],
        [33.0451847750865, 34.8231688581315],
        [33.0454615916955, 34.8234456747405],
        [33.0454615916955, 34.8234456747405]
      ]
    ]
  }
}
