{
  "type": "Feature",
  "properties": {
    "code": "5B/CY-028",
    "summit": "Sinoas"
  },
  "geometry": {
    "type": "Polygon",
    "coordinates": [
      [
        [33.1748152249135, 34.8056615916955],
        [33.1745384083045, 34.8056615916955],
        [33.1742615916955, 34.8056615916955],
        [33.1739847750865, 34.8056615916955],
        [33.1737079584775, 34.8059384083045],
        [33.1737079584775, 34.8062152249135],
        [33.1737079584775, 34.8064920415225],
        [33.1739847750865, 34.8064920415225],
        [33.1742615916955, 34.8064920415225],
        [33.1745384083045, 34.8064920415225],
        [33.1748152249135, 34.8064920415225],
        [33.1750920415225, 34.8067688581315],
        [33.1750920415225, 34.8070456747405],
        [33.1753688581315, 34.8073224913495],
        [33.1756456747405, 34.8073224913495],
        [33.1759224913495, 34.8070456747405],
        [33.1759224913495, 34.8067688581315],
        [33.1756456747405, 34.8064920415225],
        [33.1753688581315, 34.8064920415225],
        [33.1750920415225, 34.8062152249135],
        [33.1748152249135, 34.8059384083045],
        [33.1748152249135, 34.8056615916955],
        [33.1748152249135, 34.8056615916955]
      ]
    ]
  }
}
