{
  "type": "Feature",
  "properties": {
    "code": "5B/CY-022",
    "summit": "Chalazis"
  },
  "geometry": {
    "type": "Polygon",
    "coordinates": [
      [
        [33.1137079584775, 34.9792615916955],
        [33.1137079584775, 34.9795384083045],
        [33.1137079584775, 34.9798152249135],
        [33.1139847750865, 34.9798152249135],
        [33.1142615916955, 34.9798152249135],
        [33.1145384083045, 34.9795384083045],
        [33.1142615916955, 34.9792615916955],
        [33.1142615916955, 34.9789847750865],
        [33.1139847750865, 34.9789847750865],
        [33.1137079584775, 34.9792615916955],
        [33.1137079584775, 34.9792615916955]
      ]
    ]
  }
}
