{
  "type": "Feature",
  "properties": {
    "code": "5B/CY-019",
    "summit": "Kalogyria"
  },
  "geometry": {
    "type": "Polygon",
    "coordinates": [
      [
        [32.6092847750865, 34.9659847750865],
        [32.6090079584775, 34.9662615916955],
        [32.6087311418685, 34.9665384083045],
        [32.6087311418685, 34.9668152249135],
        [32.6087311418685, 34.9670920415225],
        [32.6084543252595, 34.9673688581315],
        [32.6084543252595, 34.9676456747405],
        [32.6087311418685, 34.9673688581315],
        [32.6090079584775, 34.9673688581315],
        [32.6090079584775, 34.9670920415225],
        [32.6092847750865, 34.9668152249135],
        [32.6095615916955, 34.9668152249135],
        [32.6098384083045, 34.9665384083045],
        [32.6098384083045, 34.9662615916955],
        [32.6095615916955, 34.9659847750865],
        [32.6092847750865, 34.9657079584775],
        [32.6092847750865, 34.9659847750865],
        [32.6092847750865, 34.9659847750865]
      ]
    ]
  }
}
