{
  "type": "Feature",
  "properties": {
    "code": "5B/CY-011",
    "summit": "Moutti tis Lakeris"
  },
  "geometry": {
    "type": "Polygon",
    "coordinates": [
      [
        [33.1076079584775, 34.9473152249135],
        [33.1078847750865, 34.9475920415225],
        [33.1081615916955, 34.9475920415225],
        [33.1081615916955, 34.9473152249135],
        [33.1081615916955, 34.9470384083045],
        [33.1084384083045, 34.9467615916955],
        [33.1081615916955, 34.9464847750865],
        [33.1078847750865, 34.9464847750865],
        [33.1076079584775, 34.9462079584775],
        [33.1076079584775, 34.9464847750865],
        [33.1076079584775, 34.9467615916955],
        [33.1076079584775, 34.9470384083045],
        [33.1076079584775, 34.9473152249135],
        [33.1076079584775, 34.9473152249135]
      ]
    ]
  }
}
