{
  "type": "Feature",
  "properties": {
    "code": "5B/CY-012",
    "summit": "Moutti tou Afami"
  },
  "geometry": {
    "type": "Polygon",
    "coordinates": [
      [
        [32.8417688581315, 34.8515615916955],
        [32.8414920415225, 34.8515615916955],
        [32.8412152249135, 34.8512847750865],
        [32.8409384083045, 34.8510079584775],
        [32.8406615916955, 34.8510079584775],
        [32.8403847750865, 34.8507311418685],
        [32.8401079584775, 34.8507311418685],
        [32.8398311418685, 34.8510079584775],
        [32.8398311418685, 34.8512847750865],
        [32.8398311418685, 34.8515615916955],
        [32.8398311418685, 34.8518384083045],
        [32.8401079584775, 34.8521152249135],
        [32.8403847750865, 34.8521152249135],
        [32.8406615916955, 34.8521152249135],
        [32.8409384083045, 34.8523920415225],
        [32.8412152249135, 34.8523920415225],
        [32.8414920415225, 34.8526688581315],
        [32.8417688581315, 34.8526688581315],
        [32.8420456747405, 34.8526688581315],
        [32.8423224913495, 34.8523920415225],
        [32.8425993079585, 34.8526688581315],
        [32.8428761245675, 34.8526688581315],
        [32.8428761245675, 34.8523920415225],
        [32.8425993079585, 34.8521152249135],
        [32.8425993079585, 34.8518384083045],
        [32.8423224913495, 34.8518384083045],
        [32.8420456747405, 34.8518384083045],
        [32.8417688581315, 34.8515615916955],
        [32.8417688581315, 34.8515615916955]
      ]
    ]
  }
}
