{
  "type": "Feature",
  "properties": {
    "code": "5B/CY-016",
    "summit": "Moutti tous Anemous"
  },
  "geometry": {
    "type": "Polygon",
    "coordinates": [
      [
        [32.6417152249135, 34.9482920415225],
        [32.6414384083045, 34.9480152249135],
        [32.6414384083045, 34.9477384083045],
        [32.6417152249135, 34.9474615916955],
        [32.6414384083045, 34.9471847750865],
        [32.6411615916955, 34.9471847750865],
        [32.6408847750865, 34.9474615916955],
        [32.6406079584775, 34.9474615916955],
        [32.6403311418685, 34.9477384083045],
        [32.6403311418685, 34.9480152249135],
        [32.6406079584775, 34.9482920415225],
        [32.6408847750865, 34.9485688581315],
        [32.6411615916955, 34.9485688581315],
        [32.6414384083045, 34.9485688581315],
        [32.6417152249135, 34.9482920415225],
        [32.6417152249135, 34.9482920415225]
      ]
    ]
  }
}
