{
  "type": "Feature",
  "properties": {
    "code": "5B/CY-038",
    "summit": "Alestos"
  },
  "geometry": {
    "type": "Polygon",
    "coordinates": [
      [
        [33.0223615916955, 35.0335152249135],
        [33.0226384083045, 35.0335152249135],
        [33.0226384083045, 35.0332384083045],
        [33.0223615916955, 35.0329615916955],
        [33.0220847750865, 35.0326847750865],
        [33.0218079584775, 35.0324079584775],
        [33.0215311418685, 35.0324079584775],
        [33.0212543252595, 35.0324079584775],
        [33.0212543252595, 35.0326847750865],
        [33.0212543252595, 35.0329615916955],
        [33.0215311418685, 35.0332384083045],
        [33.0215311418685, 35.0335152249135],
        [33.0218079584775, 35.0335152249135],
        [33.0220847750865, 35.0335152249135],
        [33.0223615916955, 35.0335152249135],
        [33.0223615916955, 35.0335152249135]
      ]
    ]
  }
}
