{
  "type": "Feature",
  "properties": {
    "code": "5B/CY-044",
    "summit": "Xylias"
  },
  "geometry": {
    "type": "Polygon",
    "coordinates": [
      [
        [33.3781688581315, 34.9367615916955],
        [33.3784456747405, 34.9364847750865],
        [33.3787224913495, 34.9364847750865],
        [33.3789993079585, 34.9362079584775],
        [33.3787224913495, 34.9362079584775],
        [33.3784456747405, 34.9362079584775],
        [33.3781688581315, 34.9362079584775],
        [33.3778920415225, 34.9362079584775],
        [33.3776152249135, 34.9364847750865],
        [33.3773384083045, 34.9364847750865],
        [33.3770615916955, 34.9367615916955],
        [33.3767847750865, 34.9367615916955],
        [33.3765079584775, 34.9367615916955],
        [33.3762311418685, 34.9370384083045],
        [33.3762311418685, 34.9373152249135],
        [33.3765079584775, 34.9375920415225],
        [33.3767847750865, 34.9375920415225],
        [33.3770615916955, 34.9375920415225],
        [33.3773384083045, 34.9373152249135],
        [33.3776152249135, 34.9373152249135],
        [33.3776152249135, 34.9370384083045],
        [33.3778920415225, 34.9367615916955],
        [33.3781688581315, 34.9367615916955],
        [33.3781688581315, 34.9367615916955]
      ]
    ]
  }
}
