{
  "type": "Feature",
  "properties": {
    "code": "5B/CY-002",
    "summit": "Madari"
  },
  "geometry": {
    "type": "Polygon",
    "coordinates": [
      [
        [32.9941847750865, 34.9553152249135],
        [32.9944615916955, 34.9555920415225],
        [32.9947384083045, 34.9555920415225],
        [32.9950152249135, 34.9553152249135],
        [32.9952920415225, 34.9550384083045],
        [32.9952920415225, 34.9547615916955],
        [32.9950152249135, 34.9547615916955],
        [32.9947384083045, 34.9547615916955],
        [32.9944615916955, 34.9547615916955],
        [32.9941847750865, 34.9547615916955],
        [32.9939079584775, 34.9550384083045],
        [32.9936311418685, 34.9553152249135],
        [32.9939079584775, 34.9553152249135],
        [32.9941847750865, 34.9553152249135],
        [32.9941847750865, 34.9553152249135]
      ]
    ]
  }
}
