{
  "type": "Feature",
  "properties": {
    "code": "5B/CY-027",
    "summit": "Moutti tou Khondrou"
  },
  "geometry": {
    "type": "Polygon",
    "coordinates": [
      [
        [32.7717688581315, 35.0865688581315],
        [32.7717688581315, 35.0862920415225],
        [32.7714920415225, 35.0860152249135],
        [32.7712152249135, 35.0857384083045],
        [32.7714920415225, 35.0854615916955],
        [32.7714920415225, 35.0851847750865],
        [32.7714920415225, 35.0849079584775],
        [32.7717688581315, 35.0846311418685],
        [32.7717688581315, 35.0843543252595],
        [32.7717688581315, 35.0840775086505],
        [32.7717688581315, 35.0838006920415],
        [32.7717688581315, 35.0835238754325],
        [32.7714920415225, 35.0835238754325],
        [32.7712152249135, 35.0835238754325],
        [32.7709384083045, 35.0838006920415],
        [32.7709384083045, 35.0840775086505],
        [32.7709384083045, 35.0843543252595],
        [32.7709384083045, 35.0846311418685],
        [32.7709384083045, 35.0849079584775],
        [32.7709384083045, 35.0851847750865],
        [32.7709384083045, 35.0854615916955],
        [32.7706615916955, 35.0857384083045],
        [32.7703847750865, 35.0857384083045],
        [32.7701079584775, 35.0860152249135],
        [32.7703847750865, 35.0862920415225],
        [32.7706615916955, 35.0862920415225],
        [32.7709384083045, 35.0865688581315],
        [32.7712152249135, 35.0868456747405],
        [32.7714920415225, 35.0868456747405],
        [32.7717688581315, 35.0865688581315],
        [32.7717688581315, 35.0865688581315]
      ]
    ]
  }
}
