{
  "type": "Feature",
  "properties": {
    "code": "5B/CY-037",
    "summit": "Stavrovouni"
  },
  "geometry": {
    "type": "Polygon",
    "coordinates": [
      [
        [33.4346079584775, 34.8859384083045],
        [33.4348847750865, 34.8862152249135],
        [33.4351615916955, 34.8862152249135],
        [33.4354384083045, 34.8864920415225],
        [33.4357152249135, 34.8864920415225],
        [33.4359920415225, 34.8867688581315],
        [33.4359920415225, 34.8864920415225],
        [33.4359920415225, 34.8862152249135],
        [33.4357152249135, 34.8859384083045],
        [33.4354384083045, 34.8856615916955],
        [33.4351615916955, 34.8853847750865],
        [33.4348847750865, 34.8853847750865],
        [33.4346079584775, 34.8853847750865],
        [33.4346079584775, 34.8856615916955],
        [33.4346079584775, 34.8859384083045],
        [33.4346079584775, 34.8859384083045]
      ]
    ]
  }
}
