{
  "type": "Feature",
  "properties": {
    "code": "5B/CY-036",
    "summit": "Pachia Moutti"
  },
  "geometry": {
    "type": "Polygon",
    "coordinates": [
      [
        [32.5479615916955, 34.9990311418685],
        [32.5479615916955, 34.9993079584775],
        [32.5476847750865, 34.9995847750865],
        [32.5476847750865, 34.9998615916955],
        [32.5474079584775, 35.0001384083045],
        [32.5474079584775, 35.0004152249135],
        [32.5474079584775, 35.0006920415225],
        [32.5476847750865, 35.0006920415225],
        [32.5479615916955, 35.0006920415225],
        [32.5482384083045, 35.0004152249135],
        [32.5482384083045, 35.0001384083045],
        [32.5485152249135, 34.9998615916955],
        [32.5482384083045, 34.9995847750865],
        [32.5482384083045, 34.9993079584775],
        [32.5482384083045, 34.9990311418685],
        [32.5479615916955, 34.9990311418685],
        [32.5479615916955, 34.9990311418685]
      ]
    ]
  }
}
