{
  "type": "Feature",
  "properties": {
    "code": "5B/CY-041",
    "summit": "Moutti tou Lorovounou"
  },
  "geometry": {
    "type": "Polygon",
    "coordinates": [
      [
        [32.5976152249135, 35.1437615916955],
        [32.5978920415225, 35.1434847750865],
        [32.5976152249135, 35.1432079584775],
        [32.5973384083045, 35.1432079584775],
        [32.5970615916955, 35.1434847750865],
        [32.5967847750865, 35.1434847750865],
        [32.5965079584775, 35.1434847750865],
        [32.5962311418685, 35.1437615916955],
        [32.5959543252595, 35.1440384083045],
        [32.5962311418685, 35.1443152249135],
        [32.5965079584775, 35.1443152249135],
        [32.5967847750865, 35.1443152249135],
        [32.5970615916955, 35.1445920415225],
        [32.5973384083045, 35.1448688581315],
        [32.5976152249135, 35.1451456747405],
        [32.5976152249135, 35.1454224913495],
        [32.5976152249135, 35.1456993079585],
        [32.5978920415225, 35.1456993079585],
        [32.5981688581315, 35.1456993079585],
        [32.5981688581315, 35.1454224913495],
        [32.5981688581315, 35.1451456747405],
        [32.5981688581315, 35.1448688581315],
        [32.5981688581315, 35.1445920415225],
        [32.5978920415225, 35.1443152249135],
        [32.5976152249135, 35.1440384083045],
        [32.5976152249135, 35.1437615916955],
        [32.5976152249135, 35.1437615916955]
      ]
    ]
  }
}
