{
  "type": "Feature",
  "properties": {
    "code": "5B/CY-033",
    "summit": "Vouni"
  },
  "geometry": {
    "type": "Polygon",
    "coordinates": [
      [
        [32.5515311418685, 34.9348602076125],
        [32.5518079584775, 34.9348602076125],
        [32.5520847750865, 34.9351370242215],
        [32.5523615916955, 34.9351370242215],
        [32.5526384083045, 34.9351370242215],
        [32.5529152249135, 34.9351370242215],
        [32.5531920415225, 34.9351370242215],
        [32.5534688581315, 34.9351370242215],
        [32.5537456747405, 34.9351370242215],
        [32.5540224913495, 34.9351370242215],
        [32.5542993079585, 34.9351370242215],
        [32.5545761245675, 34.9351370242215],
        [32.5548529411765, 34.9351370242215],
        [32.5551297577855, 34.9351370242215],
        [32.5554065743945, 34.9348602076125],
        [32.5556833910035, 34.9348602076125],
        [32.5559602076125, 34.9345833910035],
        [32.5562370242215, 34.9343065743945],
        [32.5565138408305, 34.9340297577855],
        [32.5567906574395, 34.9337529411765],
        [32.5570674740484, 34.9334761245675],
        [32.5570674740484, 34.9331993079585],
        [32.5567906574395, 34.9329224913495],
        [32.5565138408305, 34.9326456747405],
        [32.5562370242215, 34.9323688581315],
        [32.5559602076125, 34.9320920415225],
        [32.5556833910035, 34.9318152249135],
        [32.5554065743945, 34.9315384083045],
        [32.5554065743945, 34.9312615916955],
        [32.5554065743945, 34.9309847750865],
        [32.5551297577855, 34.9307079584775],
        [32.5548529411765, 34.9304311418685],
        [32.5545761245675, 34.9301543252595],
        [32.5542993079585, 34.9298775086505],
        [32.5540224913495, 34.9296006920415],
        [32.5537456747405, 34.9296006920415],
        [32.5534688581315, 34.9298775086505],
        [32.5531920415225, 34.9301543252595],
        [32.5529152249135, 34.9301543252595],
        [32.5526384083045, 34.9298775086505],
        [32.5523615916955, 34.9298775086505],
        [32.5520847750865, 34.9298775086505],
        [32.5518079584775, 34.9298775086505],
        [32.5515311418685, 34.9298775086505],
        [32.5512543252595, 34.9298775086505],
        [32.5509775086505, 34.9298775086505],
        [32.5507006920415, 34.9301543252595],
        [32.5504238754325, 34.9301543252595],
        [32.5501470588235, 34.9304311418685],
        [32.5498702422145, 34.9304311418685],
        [32.5495934256055, 34.9307079584775],
        [32.5495934256055, 34.9309847750865],
        [32.5495934256055, 34.9312615916955],
        [32.5498702422145, 34.9315384083045],
        [32.5498702422145, 34.9318152249135],
        [32.5501470588235, 34.9320920415225],
        [32.5504238754325, 34.9320920415225],
        [32.5507006920415, 34.9323688581315],
        [32.5509775086505, 34.9326456747405],
        [32.5507006920415, 34.9329224913495],
        [32.5504238754325, 34.9329224913495],
        [32.5501470588235, 34.9329224913495],
        [32.5498702422145, 34.9329224913495],
        [32.5495934256055, 34.9329224913495],
        [32.5493166089965, 34.9329224913495],
        [32.5490397923875, 34.9329224913495],
        [32.5487629757786, 34.9329224913495],
        [32.5487629757786, 34.9331993079585],
        [32.5487629757786, 34.9334761245675],
        [32.5487629757786, 34.9337529411765],
        [32.5484861591695, 34.9340297577855],
        [32.5490397923875, 34.9345833910035],
        [32.5493166089965, 34.9345833910035],
        [32.5495934256055, 34.9345833910035],
        [32.5498702422145, 34.9345833910035],
        [32.5501470588235, 34.9348602076125],
        [32.5504238754325, 34.9348602076125],
        [32.5507006920415, 34.9348602076125],
        [32.5509775086505, 34.9348602076125],
        [32.5512543252595, 34.9348602076125],
        [32.5515311418685, 34.9348602076125],
        [32.5515311418685, 34.9348602076125]
      ]
    ]
  }
}
