{
  "type": "Feature",
  "properties": {
    "code": "5B/CY-006",
    "summit": "Moutti tous Chillinides"
  },
  "geometry": {
    "type": "Polygon",
    "coordinates": [
      [
        [33.1490384083045, 34.9082384083045],
        [33.1490384083045, 34.9079615916955],
        [33.1487615916955, 34.9079615916955],
        [33.1484847750865, 34.9079615916955],
        [33.1484847750865, 34.9082384083045],
        [33.1484847750865, 34.9085152249135],
        [33.1487615916955, 34.9085152249135],
        [33.1490384083045, 34.9082384083045],
        [33.1490384083045, 34.9082384083045]
      ]
    ]
  }
}
