{
  "type": "Feature",
  "properties": {
    "code": "5B/CY-003",
    "summit": "Papoutsa"
  },
  "geometry": {
    "type": "Polygon",
    "coordinates": [
      [
        [33.0587384083045, 34.9001152249135],
        [33.0590152249135, 34.9001152249135],
        [33.0592920415225, 34.9001152249135],
        [33.0590152249135, 34.8998384083045],
        [33.0587384083045, 34.8998384083045],
        [33.0584615916955, 34.8998384083045],
        [33.0581847750865, 34.8998384083045],
        [33.0579079584775, 34.8998384083045],
        [33.0576311418685, 34.8998384083045],
        [33.0579079584775, 34.9001152249135],
        [33.0581847750865, 34.9001152249135],
        [33.0584615916955, 34.9001152249135],
        [33.0587384083045, 34.9001152249135],
        [33.0587384083045, 34.9001152249135]
      ]
    ]
  }
}
