{
  "type": "Feature",
  "properties": {
    "code": "5B/CY-040",
    "summit": "Koumana"
  },
  "geometry": {
    "type": "Polygon",
    "coordinates": [
      [
        [33.0246152249135, 34.7864847750865],
        [33.0243384083045, 34.7864847750865],
        [33.0240615916955, 34.7864847750865],
        [33.0237847750865, 34.7867615916955],
        [33.0235079584775, 34.7867615916955],
        [33.0232311418685, 34.7870384083045],
        [33.0235079584775, 34.7873152249135],
        [33.0237847750865, 34.7873152249135],
        [33.0240615916955, 34.7873152249135],
        [33.0243384083045, 34.7873152249135],
        [33.0246152249135, 34.7870384083045],
        [33.0248920415225, 34.7867615916955],
        [33.0248920415225, 34.7864847750865],
        [33.0246152249135, 34.7864847750865],
        [33.0246152249135, 34.7864847750865]
      ]
    ]
  }
}
