{
  "type": "Feature",
  "properties": {
    "code": "5B/CY-029",
    "summit": "Tophoulia"
  },
  "geometry": {
    "type": "Polygon",
    "coordinates": [
      [
        [32.7887224913495, 34.7820847750865],
        [32.7884456747405, 34.7820847750865],
        [32.7881688581315, 34.7820847750865],
        [32.7878920415225, 34.7820847750865],
        [32.7876152249135, 34.7820847750865],
        [32.7873384083045, 34.7820847750865],
        [32.7870615916955, 34.7820847750865],
        [32.7867847750865, 34.7820847750865],
        [32.7865079584775, 34.7820847750865],
        [32.7862311418685, 34.7820847750865],
        [32.7859543252595, 34.7820847750865],
        [32.7856775086505, 34.7820847750865],
        [32.7854006920415, 34.7820847750865],
        [32.7851238754325, 34.7820847750865],
        [32.7848470588235, 34.7820847750865],
        [32.7845702422145, 34.7820847750865],
        [32.7848470588235, 34.7823615916955],
        [32.7851238754325, 34.7823615916955],
        [32.7854006920415, 34.7823615916955],
        [32.7856775086505, 34.7826384083045],
        [32.7859543252595, 34.7826384083045],
        [32.7862311418685, 34.7829152249135],
        [32.7865079584775, 34.7829152249135],
        [32.7867847750865, 34.7831920415225],
        [32.7870615916955, 34.7831920415225],
        [32.7873384083045, 34.7831920415225],
        [32.7876152249135, 34.7834688581315],
        [32.7878920415225, 34.7834688581315],
        [32.7881688581315, 34.7831920415225],
        [32.7884456747405, 34.7834688581315],
        [32.7887224913495, 34.7834688581315],
        [32.7889993079585, 34.7834688581315],
        [32.7892761245675, 34.7834688581315],
        [32.7895529411765, 34.7834688581315],
        [32.7898297577855, 34.7831920415225],
        [32.7901065743945, 34.7831920415225],
        [32.7903833910035, 34.7829152249135],
        [32.7906602076125, 34.7829152249135],
        [32.7909370242214, 34.7826384083045],
        [32.7909370242214, 34.7823615916955],
        [32.7906602076125, 34.7823615916955],
        [32.7903833910035, 34.7823615916955],
        [32.7901065743945, 34.7823615916955],
        [32.7898297577855, 34.7820847750865],
        [32.7895529411765, 34.7820847750865],
        [32.7892761245675, 34.7820847750865],
        [32.7889993079585, 34.7820847750865],
        [32.7887224913495, 34.7820847750865],
        [32.7887224913495, 34.7820847750865]
      ]
    ]
  }
}
