{
  "type": "Feature",
  "properties": {
    "summit": "Korfi",
    "code": "5B/CY-048",
    "zone": "activation_25m"
  },
  "geometry": {
    "type": "Polygon",
    "coordinates": [[
      [33.096854325259521, 34.742938408304504],
      [33.097131141868516, 34.742938408304504],
      [33.097407958477511, 34.742938408304504],
      [33.097684775086506, 34.743215224913499],
      [33.097961591695501, 34.743215224913499],
      [33.098238408304503, 34.743215224913499],
      [33.098515224913498, 34.743215224913499],
      [33.098792041522493, 34.742938408304504],
      [33.098792041522493, 34.742661591695501],
      [33.098792041522493, 34.742384775086506],
      [33.099068858131488, 34.742107958477511],
      [33.098792041522493, 34.742107958477511],
      [33.098515224913498, 34.742107958477511],
      [33.098238408304503, 34.742107958477511],
      [33.097961591695501, 34.742107958477511],
      [33.097684775086506, 34.742384775086506],
      [33.097407958477511, 34.742384775086506],
      [33.097131141868516, 34.742384775086506],
      [33.096854325259521, 34.742661591695501],
      [33.096577508650519, 34.742661591695501],
      [33.096854325259521, 34.742938408304504]
    ]]
  }
}

