{
  "type": "Feature",
  "properties": {
    "code": "5B/CY-034",
    "summit": "Atomoutti"
  },
  "geometry": {
    "type": "Polygon",
    "coordinates": [
      [
        [33.3148152249135, 34.9218152249135],
        [33.3150920415225, 34.9220920415225],
        [33.3153688581315, 34.9218152249135],
        [33.3150920415225, 34.9215384083045],
        [33.3148152249135, 34.9212615916955],
        [33.3148152249135, 34.9209847750865],
        [33.3145384083045, 34.9207079584775],
        [33.3142615916955, 34.9209847750865],
        [33.3139847750865, 34.9209847750865],
        [33.3137079584775, 34.9209847750865],
        [33.3134311418685, 34.9209847750865],
        [33.3131543252595, 34.9212615916955],
        [33.3131543252595, 34.9215384083045],
        [33.3134311418685, 34.9215384083045],
        [33.3137079584775, 34.9215384083045],
        [33.3139847750865, 34.9218152249135],
        [33.3142615916955, 34.9218152249135],
        [33.3145384083045, 34.9218152249135],
        [33.3148152249135, 34.9218152249135],
        [33.3148152249135, 34.9218152249135]
      ]
    ]
  }
}
