{
  "type": "Feature",
  "properties": {
    "code": "5B/CY-035",
    "summit": "Mazi"
  },
  "geometry": {
    "type": "Polygon",
    "coordinates": [
      [
        [32.4381311418685, 34.8978761245675],
        [32.4378543252595, 34.8981529411765],
        [32.4375775086505, 34.8981529411765],
        [32.4373006920415, 34.8981529411765],
        [32.4370238754325, 34.8981529411765],
        [32.4367470588235, 34.8978761245675],
        [32.4364702422145, 34.8978761245675],
        [32.4361934256055, 34.8978761245675],
        [32.4359166089965, 34.8975993079585],
        [32.4356397923875, 34.8975993079585],
        [32.4353629757785, 34.8973224913495],
        [32.4350861591696, 34.8973224913495],
        [32.4348093425606, 34.8973224913495],
        [32.4345325259516, 34.8975993079585],
        [32.4342557093426, 34.8975993079585],
        [32.4339788927336, 34.8975993079585],
        [32.4337020761246, 34.8973224913495],
        [32.4334252595156, 34.8973224913495],
        [32.4331484429066, 34.8970456747405],
        [32.4328716262976, 34.8970456747405],
        [32.4325948096886, 34.8970456747405],
        [32.4323179930796, 34.8970456747405],
        [32.4323179930796, 34.8973224913495],
        [32.4323179930796, 34.8975993079585],
        [32.4320411764706, 34.8978761245675],
        [32.4317643598616, 34.8978761245675],
        [32.4314875432526, 34.8975993079585],
        [32.4312107266436, 34.8975993079585],
        [32.4309339100346, 34.8978761245675],
        [32.4306570934256, 34.8978761245675],
        [32.4303802768166, 34.8981529411765],
        [32.4303802768166, 34.8984297577855],
        [32.4303802768166, 34.8987065743945],
        [32.4303802768166, 34.8989833910035],
        [32.4306570934256, 34.8989833910035],
        [32.4309339100346, 34.8989833910035],
        [32.4312107266436, 34.8989833910035],
        [32.4314875432526, 34.8989833910035],
        [32.4317643598616, 34.8989833910035],
        [32.4320411764706, 34.8989833910035],
        [32.4323179930796, 34.8989833910035],
        [32.4325948096886, 34.8989833910035],
        [32.4328716262976, 34.8992602076125],
        [32.4331484429066, 34.8995370242215],
        [32.4334252595156, 34.8998138408305],
        [32.4334252595156, 34.9000906574394],
        [32.4337020761246, 34.9000906574394],
        [32.4339788927336, 34.9000906574394],
        [32.4339788927336, 34.8998138408305],
        [32.4339788927336, 34.8995370242215],
        [32.4342557093426, 34.8992602076125],
        [32.4345325259516, 34.8989833910035],
        [32.4348093425606, 34.8989833910035],
        [32.4350861591696, 34.8989833910035],
        [32.4353629757785, 34.8992602076125],
        [32.4356397923875, 34.8992602076125],
        [32.4359166089965, 34.8992602076125],
        [32.4361934256055, 34.8995370242215],
        [32.4361934256055, 34.8998138408305],
        [32.4361934256055, 34.9000906574394],
        [32.4361934256055, 34.9003674740484],
        [32.4364702422145, 34.9003674740484],
        [32.4367470588235, 34.9006442906574],
        [32.4370238754325, 34.9006442906574],
        [32.4373006920415, 34.9009211072664],
        [32.4373006920415, 34.9011979238754],
        [32.4370238754325, 34.9014747404844],
        [32.4367470588235, 34.9014747404844],
        [32.4364702422145, 34.9017515570934],
        [32.4367470588235, 34.9020283737024],
        [32.4370238754325, 34.9023051903114],
        [32.4373006920415, 34.9023051903114],
        [32.4375775086505, 34.9025820069204],
        [32.4375775086505, 34.9028588235294],
        [32.4378543252595, 34.9031356401384],
        [32.4381311418685, 34.9031356401384],
        [32.4384079584775, 34.9034124567474],
        [32.4384079584775, 34.9036892733564],
        [32.4381311418685, 34.9039660899654],
        [32.4378543252595, 34.9039660899654],
        [32.4375775086505, 34.9042429065744],
        [32.4378543252595, 34.9045197231834],
        [32.4378543252595, 34.9047965397924],
        [32.4381311418685, 34.9050733564014],
        [32.4384079584775, 34.9053501730104],
        [32.4386847750865, 34.9056269896194],
        [32.4386847750865, 34.9059038062284],
        [32.4389615916955, 34.9061806228374],
        [32.4392384083045, 34.9064574394464],
        [32.4395152249135, 34.9064574394464],
        [32.4397920415225, 34.9064574394464],
        [32.4400688581315, 34.9064574394464],
        [32.4403456747405, 34.9064574394464],
        [32.4406224913495, 34.9061806228374],
        [32.4408993079585, 34.9059038062284],
        [32.4411761245675, 34.9059038062284],
        [32.4414529411765, 34.9056269896194],
        [32.4417297577855, 34.9056269896194],
        [32.4420065743945, 34.9056269896194],
        [32.4422833910035, 34.9053501730104],
        [32.4422833910035, 34.9050733564014],
        [32.4422833910035, 34.9047965397924],
        [32.4425602076125, 34.9045197231834],
        [32.4425602076125, 34.9042429065744],
        [32.4428370242215, 34.9039660899654],
        [32.4428370242215, 34.9036892733564],
        [32.4425602076125, 34.9034124567474],
        [32.4428370242215, 34.9031356401384],
        [32.4428370242215, 34.9028588235294],
        [32.4431138408304, 34.9025820069204],
        [32.4431138408304, 34.9023051903114],
        [32.4428370242215, 34.9020283737024],
        [32.4428370242215, 34.9017515570934],
        [32.4425602076125, 34.9014747404844],
        [32.4422833910035, 34.9011979238754],
        [32.4422833910035, 34.9009211072664],
        [32.4420065743945, 34.9006442906574],
        [32.4417297577855, 34.9003674740484],
        [32.4414529411765, 34.9003674740484],
        [32.4411761245675, 34.9000906574394],
        [32.4411761245675, 34.8998138408305],
        [32.4411761245675, 34.8995370242215],
        [32.4408993079585, 34.8992602076125],
        [32.4408993079585, 34.8989833910035],
        [32.4408993079585, 34.8987065743945],
        [32.4408993079585, 34.8984297577855],
        [32.4406224913495, 34.8981529411765],
        [32.4406224913495, 34.8978761245675],
        [32.4406224913495, 34.8975993079585],
        [32.4406224913495, 34.8973224913495],
        [32.4406224913495, 34.8970456747405],
        [32.4406224913495, 34.8967688581315],
        [32.4406224913495, 34.8964920415225],
        [32.4406224913495, 34.8962152249135],
        [32.4403456747405, 34.8959384083045],
        [32.4403456747405, 34.8956615916955],
        [32.4400688581315, 34.8953847750865],
        [32.4400688581315, 34.8951079584775],
        [32.4397920415225, 34.8948311418685],
        [32.4397920415225, 34.8945543252595],
        [32.4397920415225, 34.8942775086505],
        [32.4395152249135, 34.8940006920415],
        [32.4392384083045, 34.8940006920415],
        [32.4389615916955, 34.8937238754325],
        [32.4386847750865, 34.8934470588235],
        [32.4384079584775, 34.8934470588235],
        [32.4381311418685, 34.8934470588235],
        [32.4378543252595, 34.8934470588235],
        [32.4375775086505, 34.8934470588235],
        [32.4373006920415, 34.8934470588235],
        [32.4370238754325, 34.8934470588235],
        [32.4367470588235, 34.8934470588235],
        [32.4367470588235, 34.8937238754325],
        [32.4367470588235, 34.8940006920415],
        [32.4364702422145, 34.8942775086505],
        [32.4364702422145, 34.8945543252595],
        [32.4367470588235, 34.8948311418685],
        [32.4367470588235, 34.8951079584775],
        [32.4367470588235, 34.8953847750865],
        [32.4370238754325, 34.8956615916955],
        [32.4373006920415, 34.8959384083045],
        [32.4373006920415, 34.8962152249135],
        [32.4373006920415, 34.8964920415225],
        [32.4373006920415, 34.8967688581315],
        [32.4375775086505, 34.8970456747405],
        [32.4375775086505, 34.8973224913495],
        [32.4378543252595, 34.8975993079585],
        [32.4381311418685, 34.8978761245675],
        [32.4381311418685, 34.8978761245675]
      ]
    ]
  }
}
