{
  "type": "FeatureCollection",
  "generator": "overpass-turbo",
  "copyright": "The data included in this document is from www.openstreetmap.org. The data is made available under ODbL.",
  "timestamp": "2026-08-26T21:20:23Z",
  "features": [
    {
      "type": "Feature",
      "properties": {
        "@id": "relation/14999128",
        "boundary": "protected_area",
        "fixme": "Cross reference nature reserve outline with other sources (now overlaps with buildings, tracks, scrubs etc)",
        "leisure": "nature_reserve",
        "name:en": "Polemidion National Forest Park",
        "operator": "Department of Forests",
        "protect_class": "7",
        "type": "multipolygon"
      },
      "geometry": {
        "type": "MultiPolygon",
        "coordinates": [
          [
            [
              [
                32.9939284,
                34.7161637
              ],
              [
                32.9938855,
                34.7162186
              ],
              [
                32.9938435,
                34.7162431
              ],
              [
                32.9938826,
                34.7162111
              ],
              [
                32.9939675,
                34.7160018
              ],
              [
                32.9940216,
                34.7159275
              ],
              [
                32.9941815,
                34.7157949
              ],
              [
                32.9939284,
                34.7161637
              ]
            ]
          ],
          [
            [
              [
                32.997364,
                34.7125823
              ],
              [
                32.9973883,
                34.712618
              ],
              [
                32.9973853,
                34.7126655
              ],
              [
                32.9973491,
                34.7127515
              ],
              [
                32.9963924,
                34.7142547
              ],
              [
                32.996221,
                34.7140345
              ],
              [
                32.9962098,
                34.7139375
              ],
              [
                32.9962619,
                34.7135995
              ],
              [
                32.9963161,
                34.71347
              ],
              [
                32.996787,
                34.7128221
              ],
              [
                32.9970689,
                34.7126586
              ],
              [
                32.9972572,
                34.7125954
              ],
              [
                32.997364,
                34.7125823
              ]
            ]
          ],
          [
            [
              [
                32.9967618,
                34.7169152
              ],
              [
                32.9968398,
                34.7171125
              ],
              [
                32.9964263,
                34.7171397
              ],
              [
                32.9959376,
                34.7174635
              ],
              [
                32.9956349,
                34.7173058
              ],
              [
                32.9953448,
                34.717297
              ],
              [
                32.995366,
                34.7170947
              ],
              [
                32.9953354,
                34.7168057
              ],
              [
                32.9950084,
                34.716801
              ],
              [
                32.9950111,
                34.716992
              ],
              [
                32.9946679,
                34.7168927
              ],
              [
                32.9943153,
                34.7168017
              ],
              [
                32.993772,
                34.7166882
              ],
              [
                32.9938662,
                34.7166776
              ],
              [
                32.9940578,
                34.7166388
              ],
              [
                32.994271,
                34.7165735
              ],
              [
                32.9944437,
                34.7164893
              ],
              [
                32.9946379,
                34.7163875
              ],
              [
                32.9949041,
                34.7162664
              ],
              [
                32.9952671,
                34.7162154
              ],
              [
                32.995413,
                34.7163227
              ],
              [
                32.9955319,
                34.7161403
              ],
              [
                32.9957638,
                34.7161241
              ],
              [
                32.9958819,
                34.7160276
              ],
              [
                32.9962778,
                34.7160786
              ],
              [
                32.9961734,
                34.7163459
              ],
              [
                32.9961955,
                34.7167009
              ],
              [
                32.9967618,
                34.7169152
              ]
            ]
          ],
          [
            [
              [
                32.998015,
                34.7161109
              ],
              [
                32.9977627,
                34.7163124
              ],
              [
                32.9973466,
                34.7159422
              ],
              [
                32.997053,
                34.7159909
              ],
              [
                32.996823,
                34.7155805
              ],
              [
                32.9968602,
                34.7154176
              ],
              [
                32.9972471,
                34.7155028
              ],
              [
                32.9973763,
                34.715603
              ],
              [
                32.9976071,
                34.7156748
              ],
              [
                32.998015,
                34.7161109
              ]
            ]
          ],
          [
            [
              [
                33.0041284,
                34.7195836
              ],
              [
                33.0040715,
                34.7196345
              ],
              [
                33.0036451,
                34.7199688
              ],
              [
                33.0033328,
                34.72022
              ],
              [
                33.0030536,
                34.7204392
              ],
              [
                33.0027969,
                34.7206333
              ],
              [
                33.0027353,
                34.7206912
              ],
              [
                33.0025391,
                34.7206913
              ],
              [
                33.0025955,
                34.7206254
              ],
              [
                33.0025704,
                34.7201148
              ],
              [
                33.0024075,
                34.7192415
              ],
              [
                33.0023438,
                34.7192591
              ],
              [
                33.0023071,
                34.7192802
              ],
              [
                33.0011404,
                34.7201249
              ],
              [
                33.0011407,
                34.7191725
              ],
              [
                33.000936,
                34.7176174
              ],
              [
                33.0004908,
                34.7174589
              ],
              [
                33.0004665,
                34.7173216
              ],
              [
                33.0003523,
                34.7172896
              ],
              [
                33.0002351,
                34.7169759
              ],
              [
                32.999536,
                34.7161259
              ],
              [
                32.999535,
                34.7160513
              ],
              [
                32.9994189,
                34.7160517
              ],
              [
                32.9994046,
                34.7163215
              ],
              [
                32.999237,
                34.7162825
              ],
              [
                32.9988616,
                34.7158588
              ],
              [
                32.9986708,
                34.7155578
              ],
              [
                32.9983159,
                34.7153939
              ],
              [
                32.9980019,
                34.7152605
              ],
              [
                32.9978843,
                34.7151777
              ],
              [
                32.9975146,
                34.7149816
              ],
              [
                32.9974053,
                34.7149066
              ],
              [
                32.9972374,
                34.7148187
              ],
              [
                32.996789,
                34.7146258
              ],
              [
                32.9972988,
                34.7138651
              ],
              [
                32.9976317,
                34.7133179
              ],
              [
                32.9979116,
                34.7128409
              ],
              [
                32.9982392,
                34.7123001
              ],
              [
                33.0002111,
                34.7112138
              ],
              [
                33.0012513,
                34.7106023
              ],
              [
                33.0015044,
                34.7097994
              ],
              [
                33.0016279,
                34.7089713
              ],
              [
                33.0018435,
                34.7085772
              ],
              [
                33.0021932,
                34.7083962
              ],
              [
                33.0026287,
                34.7081513
              ],
              [
                33.0027192,
                34.7087782
              ],
              [
                33.0028491,
                34.7096777
              ],
              [
                33.002897,
                34.7099981
              ],
              [
                33.0042521,
                34.7098834
              ],
              [
                33.0038046,
                34.710719
              ],
              [
                33.0047192,
                34.7109593
              ],
              [
                33.0051199,
                34.7099746
              ],
              [
                33.0051719,
                34.7099961
              ],
              [
                33.0053018,
                34.709938
              ],
              [
                33.0055864,
                34.7096961
              ],
              [
                33.0057129,
                34.7095857
              ],
              [
                33.0058345,
                34.7094457
              ],
              [
                33.0059232,
                34.7092828
              ],
              [
                33.0060191,
                34.7089608
              ],
              [
                33.0060662,
                34.7087624
              ],
              [
                33.0060832,
                34.7085655
              ],
              [
                33.0061153,
                34.7083669
              ],
              [
                33.006172,
                34.7079382
              ],
              [
                33.0072449,
                34.708693
              ],
              [
                33.0073468,
                34.7087605
              ],
              [
                33.0073661,
                34.7085357
              ],
              [
                33.0078604,
                34.7085691
              ],
              [
                33.0077611,
                34.70863
              ],
              [
                33.0071226,
                34.7090693
              ],
              [
                33.0070383,
                34.7092734
              ],
              [
                33.0070298,
                34.7095813
              ],
              [
                33.0070084,
                34.7097928
              ],
              [
                33.0070121,
                34.7100049
              ],
              [
                33.0070066,
                34.7102554
              ],
              [
                33.0080792,
                34.7100377
              ],
              [
                33.0084086,
                34.7099459
              ],
              [
                33.0083658,
                34.7096394
              ],
              [
                33.0083386,
                34.7093965
              ],
              [
                33.0082731,
                34.7091823
              ],
              [
                33.0082058,
                34.7089914
              ],
              [
                33.0081477,
                34.7087671
              ],
              [
                33.0088848,
                34.7084326
              ],
              [
                33.0086617,
                34.7086749
              ],
              [
                33.0085175,
                34.708887
              ],
              [
                33.0084332,
                34.7089563
              ],
              [
                33.0083868,
                34.7090489
              ],
              [
                33.0085002,
                34.7090779
              ],
              [
                33.0087237,
                34.7091188
              ],
              [
                33.009051,
                34.7094876
              ],
              [
                33.0087827,
                34.7096368
              ],
              [
                33.0084997,
                34.7097547
              ],
              [
                33.0090238,
                34.7099204
              ],
              [
                33.009311,
                34.7097879
              ],
              [
                33.0107603,
                34.709094
              ],
              [
                33.0108241,
                34.7091237
              ],
              [
                33.0108743,
                34.709044
              ],
              [
                33.0110868,
                34.7089463
              ],
              [
                33.0114794,
                34.7091808
              ],
              [
                33.0119869,
                34.7090522
              ],
              [
                33.0120046,
                34.708911
              ],
              [
                33.0119053,
                34.7088108
              ],
              [
                33.0120178,
                34.708473
              ],
              [
                33.0122565,
                34.7085164
              ],
              [
                33.0123758,
                34.7084789
              ],
              [
                33.0131337,
                34.7084904
              ],
              [
                33.013753,
                34.7084882
              ],
              [
                33.0141614,
                34.7084996
              ],
              [
                33.0153644,
                34.7085492
              ],
              [
                33.0162945,
                34.7086064
              ],
              [
                33.0167387,
                34.7086263
              ],
              [
                33.0174244,
                34.7086289
              ],
              [
                33.0178188,
                34.7086922
              ],
              [
                33.0178126,
                34.7090825
              ],
              [
                33.017662,
                34.7094758
              ],
              [
                33.0175637,
                34.7099144
              ],
              [
                33.0175335,
                34.7102805
              ],
              [
                33.017434,
                34.7106484
              ],
              [
                33.0173416,
                34.7110281
              ],
              [
                33.0172789,
                34.7113315
              ],
              [
                33.0170617,
                34.7114896
              ],
              [
                33.0169997,
                34.712236
              ],
              [
                33.0170947,
                34.7122772
              ],
              [
                33.0170333,
                34.7131825
              ],
              [
                33.0153793,
                34.7133401
              ],
              [
                33.0149565,
                34.7133864
              ],
              [
                33.0149039,
                34.7134375
              ],
              [
                33.0147788,
                34.7134535
              ],
              [
                33.0146766,
                34.71341
              ],
              [
                33.0140503,
                34.7135021
              ],
              [
                33.013628,
                34.7135378
              ],
              [
                33.0130362,
                34.7137143
              ],
              [
                33.0124424,
                34.7139419
              ],
              [
                33.0121175,
                34.7140578
              ],
              [
                33.0114141,
                34.7145667
              ],
              [
                33.0106228,
                34.7149279
              ],
              [
                33.0086257,
                34.7160855
              ],
              [
                33.0073545,
                34.7167736
              ],
              [
                33.0058277,
                34.7185641
              ],
              [
                33.0041284,
                34.7195836
              ]
            ],
            [
              [
                33.009224,
                34.7152301
              ],
              [
                33.0086987,
                34.7150824
              ],
              [
                33.0088235,
                34.7147652
              ],
              [
                33.0084172,
                34.7146508
              ],
              [
                33.0082698,
                34.7150086
              ],
              [
                33.0079964,
                34.7149259
              ],
              [
                33.0078717,
                34.7150052
              ],
              [
                33.0078167,
                34.7150339
              ],
              [
                33.0076665,
                34.7150141
              ],
              [
                33.0076236,
                34.7150725
              ],
              [
                33.00735,
                34.7149909
              ],
              [
                33.0072585,
                34.7150238
              ],
              [
                33.0071603,
                34.7148952
              ],
              [
                33.0071359,
                34.7148639
              ],
              [
                33.0070598,
                34.7147323
              ],
              [
                33.0070358,
                34.7147002
              ],
              [
                33.0069176,
                34.7147379
              ],
              [
                33.0068061,
                34.7147468
              ],
              [
                33.0062149,
                34.7146296
              ],
              [
                33.0061227,
                34.7150582
              ],
              [
                33.0062045,
                34.7156074
              ],
              [
                33.0080867,
                34.7163133
              ],
              [
                33.0091198,
                34.7157119
              ],
              [
                33.009224,
                34.7152301
              ]
            ],
            [
              [
                32.9981635,
                34.7126519
              ],
              [
                32.998311,
                34.713148
              ],
              [
                32.9985068,
                34.7133531
              ],
              [
                32.9986275,
                34.7135559
              ],
              [
                32.9985766,
                34.7136617
              ],
              [
                32.9984746,
                34.7136838
              ],
              [
                32.9984666,
                34.7140409
              ],
              [
                32.9980395,
                34.7146095
              ],
              [
                32.9980298,
                34.7148059
              ],
              [
                32.9981036,
                34.7150045
              ],
              [
                32.9982902,
                34.7151922
              ],
              [
                32.9989762,
                34.7154277
              ],
              [
                32.9994858,
                34.7140365
              ],
              [
                33.0004434,
                34.7133597
              ],
              [
                32.9990996,
                34.7120941
              ],
              [
                32.9981635,
                34.7126519
              ]
            ],
            [
              [
                33.0097047,
                34.7108198
              ],
              [
                33.0064872,
                34.7103252
              ],
              [
                33.0062416,
                34.7111276
              ],
              [
                33.0061457,
                34.7111865
              ],
              [
                33.0059318,
                34.7119978
              ],
              [
                33.0060718,
                34.7121092
              ],
              [
                33.0065433,
                34.7121588
              ],
              [
                33.0075124,
                34.7122838
              ],
              [
                33.0075034,
                34.7124271
              ],
              [
                33.008143,
                34.7125331
              ],
              [
                33.0081628,
                34.7125376
              ],
              [
                33.0081786,
                34.7124969
              ],
              [
                33.0091173,
                34.712716
              ],
              [
                33.0097047,
                34.7108198
              ]
            ]
          ]
        ]
      },
      "id": "relation/14999128"
    }
  ]
}
