{
  "type": "FeatureCollection",
  "generator": "overpass-turbo",
  "copyright": "The data included in this document is from www.openstreetmap.org. The data is made available under ODbL.",
  "timestamp": "2026-08-26T21:11:15Z",
  "features": [
    {
      "type": "Feature",
      "properties": {
        "@id": "way/1121185782",
        "boundary": "protected_area",
        "leisure": "nature_reserve",
        "name:en": "Petra tou Romiou National Forest Park",
        "operator": "Department of Forests"
      },
      "geometry": {
        "type": "Polygon",
        "coordinates": [
          [
            [
              32.5988969,
              34.6869082
            ],
            [
              32.5991434,
              34.6871803
            ],
            [
              32.5992217,
              34.6873191
            ],
            [
              32.5984542,
              34.6869598
            ],
            [
              32.5979567,
              34.6867351
            ],
            [
              32.5978363,
              34.6866856
            ],
            [
              32.5977042,
              34.6866369
            ],
            [
              32.5975596,
              34.6865905
            ],
            [
              32.5971767,
              34.6864019
            ],
            [
              32.5955573,
              34.6856254
            ],
            [
              32.5940015,
              34.684797
            ],
            [
              32.593944,
              34.6847608
            ],
            [
              32.5936947,
              34.6846242
            ],
            [
              32.5928998,
              34.6841998
            ],
            [
              32.5924033,
              34.6839237
            ],
            [
              32.5922135,
              34.6838342
            ],
            [
              32.5917249,
              34.6835641
            ],
            [
              32.5917158,
              34.6832801
            ],
            [
              32.5917281,
              34.683151
            ],
            [
              32.5917317,
              34.6831132
            ],
            [
              32.5917584,
              34.6820611
            ],
            [
              32.5920157,
              34.6818383
            ],
            [
              32.592335,
              34.6815505
            ],
            [
              32.5925059,
              34.6813757
            ],
            [
              32.5926569,
              34.6812528
            ],
            [
              32.5929935,
              34.6809331
            ],
            [
              32.5932131,
              34.6807106
            ],
            [
              32.593445,
              34.6804683
            ],
            [
              32.5935472,
              34.680393
            ],
            [
              32.5936128,
              34.6803594
            ],
            [
              32.5937219,
              34.6803381
            ],
            [
              32.5940783,
              34.6802343
            ],
            [
              32.5943983,
              34.6801523
            ],
            [
              32.5944759,
              34.6801268
            ],
            [
              32.5950062,
              34.6797783
            ],
            [
              32.5951277,
              34.6797111
            ],
            [
              32.5952151,
              34.6796757
            ],
            [
              32.5952925,
              34.6796681
            ],
            [
              32.5956625,
              34.6796763
            ],
            [
              32.5958323,
              34.6796094
            ],
            [
              32.5961682,
              34.6793677
            ],
            [
              32.5962876,
              34.6792625
            ],
            [
              32.5967026,
              34.6788214
            ],
            [
              32.5967907,
              34.67871
            ],
            [
              32.596998,
              34.6785115
            ],
            [
              32.5972494,
              34.6782532
            ],
            [
              32.5973249,
              34.6781817
            ],
            [
              32.5973863,
              34.6780842
            ],
            [
              32.5974793,
              34.6779569
            ],
            [
              32.597604,
              34.6778038
            ],
            [
              32.5977697,
              34.6776529
            ],
            [
              32.5979329,
              34.67752
            ],
            [
              32.598128,
              34.6773394
            ],
            [
              32.5982428,
              34.6772082
            ],
            [
              32.5984648,
              34.6769837
            ],
            [
              32.5986159,
              34.6768567
            ],
            [
              32.598847,
              34.6765836
            ],
            [
              32.5991647,
              34.6762302
            ],
            [
              32.5993287,
              34.6760271
            ],
            [
              32.5994576,
              34.6758294
            ],
            [
              32.5995786,
              34.6756752
            ],
            [
              32.5996561,
              34.6756121
            ],
            [
              32.5997501,
              34.6755624
            ],
            [
              32.5999013,
              34.6755529
            ],
            [
              32.6006287,
              34.6755255
            ],
            [
              32.6009397,
              34.6755418
            ],
            [
              32.6013421,
              34.6755037
            ],
            [
              32.6016923,
              34.6754336
            ],
            [
              32.6018607,
              34.675371
            ],
            [
              32.6020188,
              34.6752766
            ],
            [
              32.6026334,
              34.6749539
            ],
            [
              32.6027777,
              34.6748421
            ],
            [
              32.6031545,
              34.6745295
            ],
            [
              32.603285,
              34.6743974
            ],
            [
              32.6033911,
              34.6742594
            ],
            [
              32.6035079,
              34.6740926
            ],
            [
              32.6037375,
              34.6738137
            ],
            [
              32.6038328,
              34.6737161
            ],
            [
              32.6039839,
              34.6736188
            ],
            [
              32.6042647,
              34.6734905
            ],
            [
              32.6045383,
              34.6733823
            ],
            [
              32.6048468,
              34.6732917
            ],
            [
              32.6051034,
              34.6731286
            ],
            [
              32.6055154,
              34.6727815
            ],
            [
              32.6058505,
              34.6724398
            ],
            [
              32.6060536,
              34.6722007
            ],
            [
              32.6066984,
              34.6713841
            ],
            [
              32.6068484,
              34.6712022
            ],
            [
              32.606958,
              34.671032
            ],
            [
              32.6071165,
              34.670906
            ],
            [
              32.6074243,
              34.6707434
            ],
            [
              32.6074992,
              34.6707176
            ],
            [
              32.6078661,
              34.6705532
            ],
            [
              32.6080059,
              34.6704619
            ],
            [
              32.608107,
              34.6703852
            ],
            [
              32.6083172,
              34.6702814
            ],
            [
              32.6084666,
              34.6701738
            ],
            [
              32.6087344,
              34.6698691
            ],
            [
              32.6088029,
              34.6697845
            ],
            [
              32.609121,
              34.6695124
            ],
            [
              32.6094007,
              34.669424
            ],
            [
              32.6095476,
              34.6693993
            ],
            [
              32.6097268,
              34.6694124
            ],
            [
              32.6099244,
              34.6693863
            ],
            [
              32.6104153,
              34.6690777
            ],
            [
              32.610714,
              34.6688721
            ],
            [
              32.6108277,
              34.6688139
            ],
            [
              32.6110204,
              34.6686569
            ],
            [
              32.6111706,
              34.6685543
            ],
            [
              32.6113224,
              34.6684666
            ],
            [
              32.6115621,
              34.6682327
            ],
            [
              32.6117148,
              34.6681265
            ],
            [
              32.6122272,
              34.6678187
            ],
            [
              32.6124293,
              34.667766
            ],
            [
              32.6127702,
              34.6677322
            ],
            [
              32.6130276,
              34.6676366
            ],
            [
              32.6133242,
              34.6674618
            ],
            [
              32.6134323,
              34.667424
            ],
            [
              32.6136438,
              34.6674146
            ],
            [
              32.6138987,
              34.6674121
            ],
            [
              32.6141325,
              34.6674196
            ],
            [
              32.6144286,
              34.6674008
            ],
            [
              32.6149611,
              34.6673921
            ],
            [
              32.6150951,
              34.6673744
            ],
            [
              32.6156306,
              34.6674231
            ],
            [
              32.6158625,
              34.6674939
            ],
            [
              32.6162002,
              34.6674886
            ],
            [
              32.6164352,
              34.6674443
            ],
            [
              32.6165329,
              34.667469
            ],
            [
              32.6166617,
              34.667457
            ],
            [
              32.6171522,
              34.6672812
            ],
            [
              32.6173722,
              34.6672485
            ],
            [
              32.6175768,
              34.6671986
            ],
            [
              32.6178059,
              34.6671064
            ],
            [
              32.6182109,
              34.6668932
            ],
            [
              32.6189046,
              34.6666506
            ],
            [
              32.6192848,
              34.6665408
            ],
            [
              32.6194997,
              34.6664938
            ],
            [
              32.6198056,
              34.6664453
            ],
            [
              32.6202061,
              34.6663576
            ],
            [
              32.620328,
              34.6663583
            ],
            [
              32.6204261,
              34.6663516
            ],
            [
              32.6207526,
              34.6663483
            ],
            [
              32.6211197,
              34.6663381
            ],
            [
              32.6212194,
              34.6663485
            ],
            [
              32.6213752,
              34.6663273
            ],
            [
              32.6218279,
              34.666346
            ],
            [
              32.6221685,
              34.6664379
            ],
            [
              32.622458,
              34.6664064
            ],
            [
              32.6230202,
              34.6662162
            ],
            [
              32.6234704,
              34.6660489
            ],
            [
              32.6245187,
              34.6653183
            ],
            [
              32.6246503,
              34.6652661
            ],
            [
              32.6248615,
              34.6651503
            ],
            [
              32.6251503,
              34.6649645
            ],
            [
              32.6259277,
              34.6646817
            ],
            [
              32.6261815,
              34.6645309
            ],
            [
              32.6264212,
              34.6644178
            ],
            [
              32.6266918,
              34.6642442
            ],
            [
              32.6266597,
              34.6641602
            ],
            [
              32.6266781,
              34.6641012
            ],
            [
              32.6267952,
              34.6640009
            ],
            [
              32.6269477,
              34.6639451
            ],
            [
              32.6270671,
              34.6639384
            ],
            [
              32.6271593,
              34.6639562
            ],
            [
              32.6273019,
              34.664021
            ],
            [
              32.6273336,
              34.6640271
            ],
            [
              32.6273618,
              34.6640372
            ],
            [
              32.6273899,
              34.6640528
            ],
            [
              32.6274118,
              34.6640705
            ],
            [
              32.6274342,
              34.6640978
            ],
            [
              32.6274486,
              34.6641286
            ],
            [
              32.6274583,
              34.664219
            ],
            [
              32.6274453,
              34.6642596
            ],
            [
              32.6274225,
              34.6642991
            ],
            [
              32.6273942,
              34.6643312
            ],
            [
              32.6273557,
              34.6643613
            ],
            [
              32.627691,
              34.6646493
            ],
            [
              32.6280566,
              34.664859
            ],
            [
              32.628606,
              34.6650561
            ],
            [
              32.6288068,
              34.6652895
            ],
            [
              32.6291064,
              34.6654778
            ],
            [
              32.6292998,
              34.6655214
            ],
            [
              32.6295532,
              34.6655321
            ],
            [
              32.6300216,
              34.6654985
            ],
            [
              32.6308238,
              34.6653097
            ],
            [
              32.6309166,
              34.6652684
            ],
            [
              32.6312226,
              34.6652233
            ],
            [
              32.6315268,
              34.6652133
            ],
            [
              32.632141,
              34.6652144
            ],
            [
              32.6325563,
              34.6651207
            ],
            [
              32.6332015,
              34.664847
            ],
            [
              32.6334447,
              34.664691
            ],
            [
              32.6337477,
              34.6645296
            ],
            [
              32.6342834,
              34.6641432
            ],
            [
              32.634449,
              34.6639603
            ],
            [
              32.6347347,
              34.6637023
            ],
            [
              32.6348934,
              34.6635125
            ],
            [
              32.6349747,
              34.6634326
            ],
            [
              32.6350263,
              34.6634133
            ],
            [
              32.6352016,
              34.6635533
            ],
            [
              32.6353665,
              34.6636402
            ],
            [
              32.6355255,
              34.6636864
            ],
            [
              32.6358132,
              34.6637179
            ],
            [
              32.6360344,
              34.6636915
            ],
            [
              32.6364709,
              34.6635346
            ],
            [
              32.6367655,
              34.6633813
            ],
            [
              32.6372135,
              34.6631282
            ],
            [
              32.6375281,
              34.6629839
            ],
            [
              32.6377767,
              34.6628758
            ],
            [
              32.6380069,
              34.6627266
            ],
            [
              32.638628,
              34.6622852
            ],
            [
              32.6388951,
              34.6620499
            ],
            [
              32.6391003,
              34.6618485
            ],
            [
              32.639307,
              34.6616251
            ],
            [
              32.6394055,
              34.6615382
            ],
            [
              32.6396156,
              34.6613944
            ],
            [
              32.6402578,
              34.6609786
            ],
            [
              32.6406123,
              34.6607589
            ],
            [
              32.6414376,
              34.6603201
            ],
            [
              32.6417207,
              34.6600927
            ],
            [
              32.6419521,
              34.6599678
            ],
            [
              32.6420568,
              34.6599308
            ],
            [
              32.6427804,
              34.6595552
            ],
            [
              32.6429257,
              34.6594686
            ],
            [
              32.643391,
              34.6592344
            ],
            [
              32.643606,
              34.6591371
            ],
            [
              32.6437607,
              34.6590572
            ],
            [
              32.6439891,
              34.658971
            ],
            [
              32.6442708,
              34.6589029
            ],
            [
              32.6447441,
              34.6588281
            ],
            [
              32.645277,
              34.6586839
            ],
            [
              32.6459828,
              34.6585074
            ],
            [
              32.646337,
              34.658423
            ],
            [
              32.6465251,
              34.6583455
            ],
            [
              32.6470296,
              34.65822
            ],
            [
              32.6472589,
              34.6581825
            ],
            [
              32.6473827,
              34.6581146
            ],
            [
              32.6474606,
              34.6580884
            ],
            [
              32.6476893,
              34.6581185
            ],
            [
              32.6478543,
              34.6587844
            ],
            [
              32.6482821,
              34.6605834
            ],
            [
              32.6481989,
              34.6668818
            ],
            [
              32.6480278,
              34.6668872
            ],
            [
              32.6479757,
              34.666883
            ],
            [
              32.647915,
              34.6667421
            ],
            [
              32.6479003,
              34.6666938
            ],
            [
              32.6478767,
              34.6666742
            ],
            [
              32.647751,
              34.6666518
            ],
            [
              32.6477169,
              34.6667202
            ],
            [
              32.6476697,
              34.6667798
            ],
            [
              32.6476283,
              34.6668699
            ],
            [
              32.6476192,
              34.6668749
            ],
            [
              32.6476063,
              34.6668755
            ],
            [
              32.647422,
              34.6668397
            ],
            [
              32.6472769,
              34.6668308
            ],
            [
              32.6471852,
              34.6668327
            ],
            [
              32.6470774,
              34.6668429
            ],
            [
              32.6468531,
              34.6668536
            ],
            [
              32.646715,
              34.6668501
            ],
            [
              32.6466441,
              34.6668469
            ],
            [
              32.6465084,
              34.6668176
            ],
            [
              32.646385,
              34.6668011
            ],
            [
              32.6463148,
              34.6667999
            ],
            [
              32.6462517,
              34.6668039
            ],
            [
              32.646211,
              34.6668071
            ],
            [
              32.6461514,
              34.6668189
            ],
            [
              32.6461022,
              34.6668342
            ],
            [
              32.6460279,
              34.6668673
            ],
            [
              32.6459771,
              34.6668957
            ],
            [
              32.6457868,
              34.6669586
            ],
            [
              32.6457122,
              34.6669908
            ],
            [
              32.6456742,
              34.6670168
            ],
            [
              32.645649,
              34.6670182
            ],
            [
              32.6456197,
              34.6669929
            ],
            [
              32.6455093,
              34.6669245
            ],
            [
              32.6454442,
              34.6668931
            ],
            [
              32.6453651,
              34.6668639
            ],
            [
              32.6452908,
              34.6668453
            ],
            [
              32.645159,
              34.6668278
            ],
            [
              32.6450911,
              34.6668266
            ],
            [
              32.6447751,
              34.6668403
            ],
            [
              32.6444871,
              34.6668269
            ],
            [
              32.6440179,
              34.6668318
            ],
            [
              32.6438828,
              34.6668481
            ],
            [
              32.6438264,
              34.6668479
            ],
            [
              32.6437893,
              34.6668552
            ],
            [
              32.6437745,
              34.6668625
            ],
            [
              32.6437298,
              34.666853
            ],
            [
              32.6436578,
              34.6668549
            ],
            [
              32.6435762,
              34.666872
            ],
            [
              32.6434551,
              34.6669469
            ],
            [
              32.6434011,
              34.6669912
            ],
            [
              32.6433564,
              34.6670386
            ],
            [
              32.643305,
              34.6671112
            ],
            [
              32.6432406,
              34.6671879
            ],
            [
              32.6432071,
              34.6672065
            ],
            [
              32.6431667,
              34.6672166
            ],
            [
              32.6431005,
              34.6672204
            ],
            [
              32.6430458,
              34.6672192
            ],
            [
              32.6430027,
              34.667205
            ],
            [
              32.6428942,
              34.6671561
            ],
            [
              32.6428223,
              34.6671559
            ],
            [
              32.6427636,
              34.6671615
            ],
            [
              32.6427051,
              34.6671908
            ],
            [
              32.6426632,
              34.6672308
            ],
            [
              32.6426359,
              34.6672767
            ],
            [
              32.6425864,
              34.6674072
            ],
            [
              32.6425471,
              34.6674605
            ],
            [
              32.6424419,
              34.667574
            ],
            [
              32.6423893,
              34.6676195
            ],
            [
              32.6423398,
              34.6676505
            ],
            [
              32.6423014,
              34.6676708
            ],
            [
              32.6422485,
              34.6676794
            ],
            [
              32.6422024,
              34.6676725
            ],
            [
              32.64213,
              34.6676523
            ],
            [
              32.6420426,
              34.6676392
            ],
            [
              32.6419699,
              34.6676363
            ],
            [
              32.6419022,
              34.6676441
            ],
            [
              32.6418484,
              34.6676612
            ],
            [
              32.641813,
              34.6676632
            ],
            [
              32.6417173,
              34.6676355
            ],
            [
              32.6416362,
              34.6676381
            ],
            [
              32.6415758,
              34.6676628
            ],
            [
              32.6415091,
              34.6677071
            ],
            [
              32.6414102,
              34.6677984
            ],
            [
              32.6413242,
              34.6678965
            ],
            [
              32.6412385,
              34.6680045
            ],
            [
              32.6411317,
              34.6681653
            ],
            [
              32.6409842,
              34.6681628
            ],
            [
              32.6408857,
              34.6681809
            ],
            [
              32.6406035,
              34.668299
            ],
            [
              32.6404469,
              34.6683896
            ],
            [
              32.6402967,
              34.6684977
            ],
            [
              32.6400553,
              34.6687208
            ],
            [
              32.6399342,
              34.6688563
            ],
            [
              32.639771,
              34.6689927
            ],
            [
              32.6395912,
              34.6691677
            ],
            [
              32.6394273,
              34.6693369
            ],
            [
              32.639255,
              34.669503
            ],
            [
              32.6391245,
              34.6696126
            ],
            [
              32.6389987,
              34.6697384
            ],
            [
              32.6389293,
              34.6698269
            ],
            [
              32.6389033,
              34.6699164
            ],
            [
              32.638903,
              34.6699939
            ],
            [
              32.6382937,
              34.6704921
            ],
            [
              32.638064,
              34.6706631
            ],
            [
              32.6375236,
              34.6710263
            ],
            [
              32.6371502,
              34.6712637
            ],
            [
              32.6368232,
              34.6714548
            ],
            [
              32.6361459,
              34.6718137
            ],
            [
              32.6357923,
              34.6719796
            ],
            [
              32.635326,
              34.6721753
            ],
            [
              32.6352945,
              34.6721274
            ],
            [
              32.635184,
              34.6721565
            ],
            [
              32.6347397,
              34.6722948
            ],
            [
              32.6344963,
              34.6723461
            ],
            [
              32.6340253,
              34.6724245
            ],
            [
              32.6338248,
              34.6724535
            ],
            [
              32.6334839,
              34.6724927
            ],
            [
              32.6331126,
              34.6725275
            ],
            [
              32.6327994,
              34.6725518
            ],
            [
              32.6325332,
              34.672547
            ],
            [
              32.6323384,
              34.672519
            ],
            [
              32.6320866,
              34.6724672
            ],
            [
              32.63145,
              34.6723514
            ],
            [
              32.6311767,
              34.6723093
            ],
            [
              32.6311424,
              34.6722069
            ],
            [
              32.6311118,
              34.6721322
            ],
            [
              32.6310574,
              34.6720731
            ],
            [
              32.6309602,
              34.6720198
            ],
            [
              32.630851,
              34.6719724
            ],
            [
              32.6307394,
              34.6719485
            ],
            [
              32.6306402,
              34.6719428
            ],
            [
              32.6305573,
              34.6719462
            ],
            [
              32.6304443,
              34.6719691
            ],
            [
              32.6303775,
              34.6719944
            ],
            [
              32.6302978,
              34.6720365
            ],
            [
              32.6301614,
              34.6721314
            ],
            [
              32.630115,
              34.6721863
            ],
            [
              32.6300487,
              34.6722874
            ],
            [
              32.6300356,
              34.6722785
            ],
            [
              32.6300097,
              34.6722204
            ],
            [
              32.629997,
              34.6721269
            ],
            [
              32.6299675,
              34.6720639
            ],
            [
              32.6299211,
              34.6720106
            ],
            [
              32.6298503,
              34.671898
            ],
            [
              32.6298076,
              34.6718429
            ],
            [
              32.629761,
              34.6717671
            ],
            [
              32.6297117,
              34.6717225
            ],
            [
              32.629658,
              34.6716658
            ],
            [
              32.6295993,
              34.671623
            ],
            [
              32.6294591,
              34.6715551
            ],
            [
              32.6293214,
              34.6714793
            ],
            [
              32.6290817,
              34.6713745
            ],
            [
              32.6290181,
              34.6713545
            ],
            [
              32.628981,
              34.6713355
            ],
            [
              32.6288894,
              34.6713021
            ],
            [
              32.6288523,
              34.6712683
            ],
            [
              32.6288356,
              34.6712375
            ],
            [
              32.6288298,
              34.6711958
            ],
            [
              32.628236,
              34.6710701
            ],
            [
              32.6282284,
              34.6710902
            ],
            [
              32.6282095,
              34.6711095
            ],
            [
              32.628191,
              34.6711232
            ],
            [
              32.6281504,
              34.6711376
            ],
            [
              32.6281055,
              34.6711418
            ],
            [
              32.6279991,
              34.6711328
            ],
            [
              32.6279605,
              34.6711225
            ],
            [
              32.6279183,
              34.6711035
            ],
            [
              32.6278736,
              34.6710728
            ],
            [
              32.6278271,
              34.6710487
            ],
            [
              32.6277726,
              34.6710304
            ],
            [
              32.6275278,
              34.670999
            ],
            [
              32.6274363,
              34.6709922
            ],
            [
              32.6273721,
              34.6709782
            ],
            [
              32.6273124,
              34.6709577
            ],
            [
              32.6272334,
              34.6709226
            ],
            [
              32.6271287,
              34.6708566
            ],
            [
              32.6270559,
              34.6707975
            ],
            [
              32.6268516,
              34.6706516
            ],
            [
              32.6266588,
              34.6705773
            ],
            [
              32.6264183,
              34.6704654
            ],
            [
              32.6262476,
              34.6703949
            ],
            [
              32.6260472,
              34.6703383
            ],
            [
              32.6259989,
              34.6703222
            ],
            [
              32.6259462,
              34.670298
            ],
            [
              32.6258137,
              34.6702257
            ],
            [
              32.6256702,
              34.6701596
            ],
            [
              32.6255876,
              34.670126
            ],
            [
              32.6254726,
              34.6700689
            ],
            [
              32.6253566,
              34.6700258
            ],
            [
              32.6251942,
              34.6699241
            ],
            [
              32.6250504,
              34.6698277
            ],
            [
              32.6249925,
              34.6697941
            ],
            [
              32.6249222,
              34.6697619
            ],
            [
              32.6248558,
              34.6697337
            ],
            [
              32.624659,
              34.6696728
            ],
            [
              32.6245932,
              34.6696479
            ],
            [
              32.6245326,
              34.6696186
            ],
            [
              32.6242795,
              34.6695345
            ],
            [
              32.6242156,
              34.6695182
            ],
            [
              32.624093,
              34.6694649
            ],
            [
              32.6240934,
              34.6693949
            ],
            [
              32.6240776,
              34.6692808
            ],
            [
              32.6240791,
              34.6692156
            ],
            [
              32.62407,
              34.6691676
            ],
            [
              32.6240492,
              34.6691278
            ],
            [
              32.6240171,
              34.6690414
            ],
            [
              32.624,
              34.6689569
            ],
            [
              32.6239828,
              34.6689272
            ],
            [
              32.6239458,
              34.6688935
            ],
            [
              32.6239064,
              34.6688675
            ],
            [
              32.6238298,
              34.6688036
            ],
            [
              32.6237374,
              34.6687026
            ],
            [
              32.6236483,
              34.66864
            ],
            [
              32.6234609,
              34.6684831
            ],
            [
              32.6233981,
              34.6684489
            ],
            [
              32.6231435,
              34.6682592
            ],
            [
              32.6229764,
              34.6681482
            ],
            [
              32.6229266,
              34.6681097
            ],
            [
              32.6228618,
              34.6680702
            ],
            [
              32.6228397,
              34.6680615
            ],
            [
              32.6228119,
              34.6680643
            ],
            [
              32.622763,
              34.6680843
            ],
            [
              32.6227082,
              34.668148
            ],
            [
              32.6226247,
              34.6682712
            ],
            [
              32.6225458,
              34.6683728
            ],
            [
              32.6224756,
              34.6684741
            ],
            [
              32.6224256,
              34.6685315
            ],
            [
              32.6223254,
              34.6686628
            ],
            [
              32.6222886,
              34.6687189
            ],
            [
              32.6222201,
              34.6688106
            ],
            [
              32.6221296,
              34.6689216
            ],
            [
              32.6221129,
              34.6689312
            ],
            [
              32.6220466,
              34.6689241
            ],
            [
              32.6220001,
              34.6689144
            ],
            [
              32.6218335,
              34.6688957
            ],
            [
              32.6216938,
              34.6688671
            ],
            [
              32.6215595,
              34.6688267
            ],
            [
              32.6214287,
              34.6687952
            ],
            [
              32.6213462,
              34.6687846
            ],
            [
              32.6212711,
              34.6687562
            ],
            [
              32.62111,
              34.6686728
            ],
            [
              32.6209861,
              34.6686203
            ],
            [
              32.6208994,
              34.6685956
            ],
            [
              32.6207106,
              34.6685306
            ],
            [
              32.6206423,
              34.6685198
            ],
            [
              32.6205334,
              34.6685209
            ],
            [
              32.6204834,
              34.6685315
            ],
            [
              32.6204391,
              34.6685283
            ],
            [
              32.6204023,
              34.6685129
            ],
            [
              32.6203562,
              34.6684823
            ],
            [
              32.6201575,
              34.6683199
            ],
            [
              32.6200672,
              34.6682586
            ],
            [
              32.6199843,
              34.6682172
            ],
            [
              32.6199161,
              34.6681911
            ],
            [
              32.6198644,
              34.6681772
            ],
            [
              32.6198164,
              34.6681724
            ],
            [
              32.619761,
              34.6681784
            ],
            [
              32.6197074,
              34.6681965
            ],
            [
              32.6194778,
              34.6683056
            ],
            [
              32.6194167,
              34.6683405
            ],
            [
              32.6192769,
              34.6684029
            ],
            [
              32.6191419,
              34.6684452
            ],
            [
              32.6189954,
              34.6685637
            ],
            [
              32.6188935,
              34.6686259
            ],
            [
              32.6188528,
              34.6686426
            ],
            [
              32.6188066,
              34.6686516
            ],
            [
              32.6186338,
              34.6686604
            ],
            [
              32.6185026,
              34.6686738
            ],
            [
              32.6183381,
              34.6687068
            ],
            [
              32.6179056,
              34.668768
            ],
            [
              32.6177429,
              34.6687965
            ],
            [
              32.6176742,
              34.6687979
            ],
            [
              32.617567,
              34.6688159
            ],
            [
              32.617275,
              34.6688531
            ],
            [
              32.6171586,
              34.6688589
            ],
            [
              32.6170086,
              34.6688599
            ],
            [
              32.616837,
              34.6688319
            ],
            [
              32.6167632,
              34.6688149
            ],
            [
              32.6166839,
              34.6687826
            ],
            [
              32.6166268,
              34.6687489
            ],
            [
              32.6165715,
              34.6687014
            ],
            [
              32.6165208,
              34.6686483
            ],
            [
              32.6165092,
              34.6686308
            ],
            [
              32.6165064,
              34.6686163
            ],
            [
              32.6165096,
              34.6686014
            ],
            [
              32.6165632,
              34.66857
            ],
            [
              32.616752,
              34.6684918
            ],
            [
              32.6167407,
              34.6684555
            ],
            [
              32.6166349,
              34.6684788
            ],
            [
              32.6164992,
              34.6685214
            ],
            [
              32.6162933,
              34.6685996
            ],
            [
              32.6161199,
              34.6686774
            ],
            [
              32.6161451,
              34.6687921
            ],
            [
              32.6161757,
              34.6688253
            ],
            [
              32.616207,
              34.6688483
            ],
            [
              32.6163028,
              34.6689019
            ],
            [
              32.6163691,
              34.6689494
            ],
            [
              32.61645,
              34.6690275
            ],
            [
              32.6165089,
              34.6690872
            ],
            [
              32.6165695,
              34.6691606
            ],
            [
              32.6166006,
              34.6692232
            ],
            [
              32.6166005,
              34.6692446
            ],
            [
              32.6165451,
              34.6692444
            ],
            [
              32.6163492,
              34.6692545
            ],
            [
              32.6161218,
              34.6692882
            ],
            [
              32.6160228,
              34.6693172
            ],
            [
              32.6159441,
              34.6693442
            ],
            [
              32.6158526,
              34.6693858
            ],
            [
              32.6156646,
              34.6694815
            ],
            [
              32.6153928,
              34.6696021
            ],
            [
              32.6153039,
              34.6696374
            ],
            [
              32.6151107,
              34.6697561
            ],
            [
              32.6147783,
              34.669843
            ],
            [
              32.6145811,
              34.6699001
            ],
            [
              32.6145142,
              34.6699283
            ],
            [
              32.6144283,
              34.6699501
            ],
            [
              32.6143347,
              34.669986
            ],
            [
              32.6142583,
              34.6700031
            ],
            [
              32.6141971,
              34.6700218
            ],
            [
              32.614155,
              34.6700438
            ],
            [
              32.6140823,
              34.6701069
            ],
            [
              32.6140012,
              34.6701541
            ],
            [
              32.6137199,
              34.6703332
            ],
            [
              32.613407,
              34.6705184
            ],
            [
              32.6132047,
              34.6706232
            ],
            [
              32.6131889,
              34.6706231
            ],
            [
              32.6130426,
              34.6704296
            ],
            [
              32.6129981,
              34.670389
            ],
            [
              32.6129246,
              34.6703092
            ],
            [
              32.6129199,
              34.6702613
            ],
            [
              32.6129449,
              34.6702285
            ],
            [
              32.6125915,
              34.6703307
            ],
            [
              32.6126126,
              34.6703471
            ],
            [
              32.6127138,
              34.6704851
            ],
            [
              32.6127446,
              34.6705378
            ],
            [
              32.6127501,
              34.6705623
            ],
            [
              32.6127481,
              34.6705685
            ],
            [
              32.6126689,
              34.6706227
            ],
            [
              32.6124156,
              34.6707762
            ],
            [
              32.6122653,
              34.6708848
            ],
            [
              32.6121784,
              34.6709379
            ],
            [
              32.6121104,
              34.6709936
            ],
            [
              32.6120392,
              34.6710441
            ],
            [
              32.6119681,
              34.6711037
            ],
            [
              32.6117387,
              34.6712014
            ],
            [
              32.6115988,
              34.6712461
            ],
            [
              32.6115575,
              34.6712673
            ],
            [
              32.6114433,
              34.6713928
            ],
            [
              32.611389,
              34.6714589
            ],
            [
              32.6113509,
              34.6714961
            ],
            [
              32.6112507,
              34.6716593
            ],
            [
              32.6112097,
              34.6717001
            ],
            [
              32.6111083,
              34.6718516
            ],
            [
              32.6109903,
              34.672043
            ],
            [
              32.6109901,
              34.6720754
            ],
            [
              32.6109818,
              34.6720852
            ],
            [
              32.6109012,
              34.6720986
            ],
            [
              32.610862,
              34.67211
            ],
            [
              32.6108428,
              34.6721219
            ],
            [
              32.6107701,
              34.6722491
            ],
            [
              32.6107095,
              34.6723273
            ],
            [
              32.6105603,
              34.6724647
            ],
            [
              32.6104483,
              34.6725487
            ],
            [
              32.6103782,
              34.6726239
            ],
            [
              32.6103041,
              34.6727158
            ],
            [
              32.6102455,
              34.6727965
            ],
            [
              32.6102176,
              34.672824
            ],
            [
              32.6101476,
              34.6728871
            ],
            [
              32.6100567,
              34.6729558
            ],
            [
              32.609903,
              34.6730565
            ],
            [
              32.6098311,
              34.6731114
            ],
            [
              32.6095988,
              34.6733095
            ],
            [
              32.6095318,
              34.6733722
            ],
            [
              32.6094235,
              34.673491
            ],
            [
              32.6093166,
              34.6736386
            ],
            [
              32.6092899,
              34.6736678
            ],
            [
              32.6091231,
              34.6737985
            ],
            [
              32.6089459,
              34.6739515
            ],
            [
              32.6088082,
              34.6740589
            ],
            [
              32.60875,
              34.6741156
            ],
            [
              32.6086299,
              34.674253
            ],
            [
              32.6086052,
              34.6743189
            ],
            [
              32.6084658,
              34.6743873
            ],
            [
              32.6081783,
              34.6745077
            ],
            [
              32.608068,
              34.6745504
            ],
            [
              32.6079975,
              34.6745852
            ],
            [
              32.6079637,
              34.674596
            ],
            [
              32.6078724,
              34.6746371
            ],
            [
              32.6078142,
              34.6746717
            ],
            [
              32.6077877,
              34.674681
            ],
            [
              32.6077623,
              34.674684
            ],
            [
              32.6076327,
              34.6746854
            ],
            [
              32.6075941,
              34.6746953
            ],
            [
              32.6075603,
              34.6747138
            ],
            [
              32.6075391,
              34.6747258
            ],
            [
              32.6074838,
              34.6747796
            ],
            [
              32.6074602,
              34.6748635
            ],
            [
              32.6074255,
              34.6749065
            ],
            [
              32.6073535,
              34.674975
            ],
            [
              32.6070591,
              34.6751569
            ],
            [
              32.6068486,
              34.6752747
            ],
            [
              32.6067288,
              34.6753487
            ],
            [
              32.6065662,
              34.6754606
            ],
            [
              32.6065311,
              34.67548
            ],
            [
              32.6063432,
              34.6756892
            ],
            [
              32.6063988,
              34.6757299
            ],
            [
              32.6067072,
              34.6758997
            ],
            [
              32.6068106,
              34.6759791
            ],
            [
              32.6071604,
              34.6763192
            ],
            [
              32.6075147,
              34.6766724
            ],
            [
              32.6080466,
              34.6786927
            ],
            [
              32.607844,
              34.6790518
            ],
            [
              32.6071903,
              34.6788692
            ],
            [
              32.6070319,
              34.6788587
            ],
            [
              32.6069758,
              34.6793756
            ],
            [
              32.6067627,
              34.6797239
            ],
            [
              32.6063394,
              34.6797245
            ],
            [
              32.6059684,
              34.679738
            ],
            [
              32.6058181,
              34.6802223
            ],
            [
              32.6056924,
              34.6805266
            ],
            [
              32.6054617,
              34.6805126
            ],
            [
              32.605093,
              34.6804443
            ],
            [
              32.6049958,
              34.6806471
            ],
            [
              32.6050974,
              34.680996
            ],
            [
              32.6052404,
              34.6815409
            ],
            [
              32.6057317,
              34.6824866
            ],
            [
              32.6054815,
              34.68277
            ],
            [
              32.6046469,
              34.682562
            ],
            [
              32.6044562,
              34.682543
            ],
            [
              32.6042777,
              34.6825471
            ],
            [
              32.6042699,
              34.683447
            ],
            [
              32.6040494,
              34.6836745
            ],
            [
              32.6042664,
              34.6842046
            ],
            [
              32.6038704,
              34.6844412
            ],
            [
              32.603544,
              34.6844673
            ],
            [
              32.6033377,
              34.6844788
            ],
            [
              32.6031407,
              34.6844852
            ],
            [
              32.6030238,
              34.6844718
            ],
            [
              32.6029774,
              34.6845021
            ],
            [
              32.6027643,
              34.6845873
            ],
            [
              32.6026255,
              34.6846271
            ],
            [
              32.6024657,
              34.6846007
            ],
            [
              32.6024092,
              34.684725
            ],
            [
              32.6026443,
              34.6849399
            ],
            [
              32.6023095,
              34.6852202
            ],
            [
              32.6024219,
              34.6853886
            ],
            [
              32.6022605,
              34.6855478
            ],
            [
              32.600987,
              34.6854742
            ],
            [
              32.6003488,
              34.6852492
            ],
            [
              32.5994751,
              34.6848602
            ],
            [
              32.5989902,
              34.6850683
            ],
            [
              32.5988162,
              34.6852503
            ],
            [
              32.5988811,
              34.6855761
            ],
            [
              32.5992825,
              34.6857717
            ],
            [
              32.5992768,
              34.6860742
            ],
            [
              32.5990716,
              34.6863069
            ],
            [
              32.5991443,
              34.6864421
            ],
            [
              32.5992542,
              34.686552
            ],
            [
              32.5990971,
              34.6867371
            ],
            [
              32.59899,
              34.6867527
            ],
            [
              32.5990108,
              34.6867639
            ],
            [
              32.5990038,
              34.6867829
            ],
            [
              32.5988364,
              34.6868155
            ],
            [
              32.5988535,
              34.6868258
            ],
            [
              32.5989106,
              34.6868159
            ],
            [
              32.5988969,
              34.6869082
            ]
          ]
        ]
      },
      "id": "way/1121185782"
    }
  ]
}
