{
  "type": "FeatureCollection",
  "generator": "overpass-turbo",
  "copyright": "The data included in this document is from www.openstreetmap.org. The data is made available under ODbL.",
  "timestamp": "2026-08-25T23:09:14Z",
  "features": [
    {
      "type": "Feature",
      "properties": {
        "@id": "way/1096328185",
        "leisure": "park",
        "name:en": "Ioannis Hadjipavlou Ioannides Park"
      },
      "geometry": {
        "type": "Polygon",
        "coordinates": [
          [
            [
              33.3450857,
              35.1662418
            ],
            [
              33.3453968,
              35.1666726
            ],
            [
              33.3453016,
              35.1667033
            ],
            [
              33.3451959,
              35.1667311
            ],
            [
              33.3450374,
              35.166756
            ],
            [
              33.3448966,
              35.1667417
            ],
            [
              33.3447773,
              35.1667184
            ],
            [
              33.344741,
              35.1667078
            ],
            [
              33.3445868,
              35.1666518
            ],
            [
              33.3445022,
              35.1666047
            ],
            [
              33.3444942,
              35.1665498
            ],
            [
              33.3445251,
              35.1665115
            ],
            [
              33.3450857,
              35.1662418
            ]
          ]
        ]
      },
      "id": "way/1096328185"
    }
  ]
}
