{
  "type": "FeatureCollection",
  "generator": "overpass-turbo",
  "copyright": "The data included in this document is from www.openstreetmap.org. The data is made available under ODbL.",
  "timestamp": "2026-08-25T23:36:39Z",
  "features": [
    {
      "type": "Feature",
      "properties": {
        "@id": "way/1044509810",
        "leisure": "park",
        "name:en": "Pyla Beach Park"
      },
      "geometry": {
        "type": "Polygon",
        "coordinates": [
          [
            [
              33.6857598,
              34.9769748
            ],
            [
              33.6852063,
              34.9767921
            ],
            [
              33.6851853,
              34.9767541
            ],
            [
              33.6851855,
              34.9767123
            ],
            [
              33.6852274,
              34.9766257
            ],
            [
              33.6855497,
              34.9767336
            ],
            [
              33.6856423,
              34.9765457
            ],
            [
              33.6853171,
              34.9764407
            ],
            [
              33.6858291,
              34.9753838
            ],
            [
              33.6858862,
              34.9753479
            ],
            [
              33.6859544,
              34.9753514
            ],
            [
              33.6864546,
              34.9755158
            ],
            [
              33.6857598,
              34.9769748
            ]
          ]
        ]
      },
      "id": "way/1044509810"
    }
  ]
}
