{
  "type": "FeatureCollection",
  "generator": "overpass-turbo",
  "copyright": "The data included in this document is from www.openstreetmap.org. The data is made available under ODbL.",
  "timestamp": "2026-08-25T23:39:50Z",
  "features": [
    {
      "type": "Feature",
      "properties": {
        "@id": "way/21164138",
        "leisure": "park",
        "name": "Pattihio Forest Park"
      },
      "geometry": {
        "type": "Polygon",
        "coordinates": [
          [
            [
              33.6200904,
              34.9061577
            ],
            [
              33.6205217,
              34.9059074
            ],
            [
              33.6210618,
              34.9057032
            ],
            [
              33.6211311,
              34.9056751
            ],
            [
              33.6217319,
              34.9052387
            ],
            [
              33.622102,
              34.9048888
            ],
            [
              33.6223671,
              34.9046403
            ],
            [
              33.6232597,
              34.9040983
            ],
            [
              33.6239239,
              34.903721
            ],
            [
              33.624161,
              34.9035774
            ],
            [
              33.625061,
              34.9031107
            ],
            [
              33.6252625,
              34.9030307
            ],
            [
              33.6252711,
              34.9030799
            ],
            [
              33.6254874,
              34.9032824
            ],
            [
              33.6258135,
              34.9036055
            ],
            [
              33.6265385,
              34.9041969
            ],
            [
              33.6269762,
              34.9046685
            ],
            [
              33.627474,
              34.9047741
            ],
            [
              33.6278688,
              34.9047319
            ],
            [
              33.6283409,
              34.9046474
            ],
            [
              33.6288709,
              34.9045189
            ],
            [
              33.6289986,
              34.9040308
            ],
            [
              33.6294216,
              34.9038407
            ],
            [
              33.6301466,
              34.9027399
            ],
            [
              33.6301519,
              34.9033311
            ],
            [
              33.630006,
              34.9040772
            ],
            [
              33.6296627,
              34.906196
            ],
            [
              33.6292781,
              34.9061785
            ],
            [
              33.6291019,
              34.9060171
            ],
            [
              33.6285272,
              34.9058378
            ],
            [
              33.6277744,
              34.9055836
            ],
            [
              33.627349,
              34.9052188
            ],
            [
              33.6273363,
              34.9052079
            ],
            [
              33.6269386,
              34.9051663
            ],
            [
              33.6269214,
              34.9054582
            ],
            [
              33.6267962,
              34.9061415
            ],
            [
              33.6266844,
              34.906752
            ],
            [
              33.6264594,
              34.9067209
            ],
            [
              33.6262552,
              34.9068435
            ],
            [
              33.6259462,
              34.9084413
            ],
            [
              33.6244013,
              34.9083428
            ],
            [
              33.6241867,
              34.908385
            ],
            [
              33.6240322,
              34.9085258
            ],
            [
              33.6240242,
              34.9089342
            ],
            [
              33.6244765,
              34.9089727
            ],
            [
              33.6244745,
              34.9093447
            ],
            [
              33.6241481,
              34.9094173
            ],
            [
              33.6240161,
              34.9096309
            ],
            [
              33.6241048,
              34.9102268
            ],
            [
              33.6238195,
              34.9103069
            ],
            [
              33.6237291,
              34.909532
            ],
            [
              33.6234422,
              34.909542
            ],
            [
              33.6232679,
              34.9089359
            ],
            [
              33.6231224,
              34.9086173
            ],
            [
              33.6232712,
              34.9083906
            ],
            [
              33.6222272,
              34.9074471
            ],
            [
              33.6218885,
              34.907679
            ],
            [
              33.6210095,
              34.907046
            ],
            [
              33.620602,
              34.9067288
            ],
            [
              33.620233,
              34.9063756
            ],
            [
              33.6200904,
              34.9061577
            ]
          ]
        ]
      },
      "id": "way/21164138"
    }
  ]
}
