{
  "type": "FeatureCollection",
  "generator": "overpass-turbo",
  "copyright": "The data included in this document is from www.openstreetmap.org. The data is made available under ODbL.",
  "timestamp": "2026-08-25T23:05:09Z",
  "features": [
    {
      "type": "Feature",
      "properties": {
        "@id": "way/372969413",
        "dog": "no",
        "leisure": "park",
        "name:en": "Metochi of Kykkos"
      },
      "geometry": {
        "type": "Polygon",
        "coordinates": [
          [
            [
              33.3396977,
              35.1627585
            ],
            [
              33.339359,
              35.1622646
            ],
            [
              33.3395317,
              35.1622057
            ],
            [
              33.3400938,
              35.162017
            ],
            [
              33.3401242,
              35.1620621
            ],
            [
              33.3403063,
              35.1619961
            ],
            [
              33.3401443,
              35.161694
            ],
            [
              33.3400898,
              35.1615923
            ],
            [
              33.3400592,
              35.1615352
            ],
            [
              33.3398769,
              35.1611849
            ],
            [
              33.3402567,
              35.1610694
            ],
            [
              33.3404671,
              35.1610135
            ],
            [
              33.340438,
              35.1609131
            ],
            [
              33.3405514,
              35.160901
            ],
            [
              33.3408466,
              35.1608813
            ],
            [
              33.3413569,
              35.1608737
            ],
            [
              33.3419687,
              35.1609274
            ],
            [
              33.3422352,
              35.1609675
            ],
            [
              33.3422061,
              35.1610881
            ],
            [
              33.3422453,
              35.1612379
            ],
            [
              33.3423381,
              35.1613191
            ],
            [
              33.3424316,
              35.16137
            ],
            [
              33.3425804,
              35.1614174
            ],
            [
              33.3428196,
              35.1614497
            ],
            [
              33.3430104,
              35.1615184
            ],
            [
              33.3437672,
              35.1624806
            ],
            [
              33.3420561,
              35.1633913
            ],
            [
              33.3412724,
              35.1637635
            ],
            [
              33.3404134,
              35.1640887
            ],
            [
              33.3403481,
              35.1639608
            ],
            [
              33.3403521,
              35.1639079
            ],
            [
              33.3402025,
              35.1636102
            ],
            [
              33.3401209,
              35.163503
            ],
            [
              33.3396977,
              35.1627585
            ]
          ]
        ]
      },
      "id": "way/372969413"
    }
  ]
}
