{
  "type": "FeatureCollection",
  "generator": "overpass-turbo",
  "copyright": "The data included in this document is from www.openstreetmap.org. The data is made available under ODbL.",
  "timestamp": "2026-08-26T20:52:53Z",
  "features": [
    {
      "type": "Feature",
      "properties": {
        "@id": "relation/2540221",
        "landuse": "forest",
        "name:en": "Akamas Forest",
        "type": "multipolygon"
      },
      "geometry": {
        "type": "MultiPolygon",
        "coordinates": [
          [
            [
              [
                32.2863972,
                35.0381545
              ],
              [
                32.2881138,
                35.0366787
              ],
              [
                32.2891438,
                35.0365381
              ],
              [
                32.287985,
                35.0376274
              ],
              [
                32.2870409,
                35.0384356
              ],
              [
                32.2863972,
                35.0381545
              ]
            ]
          ],
          [
            [
              [
                32.3485805,
                35.0155566
              ],
              [
                32.3473652,
                35.0170038
              ],
              [
                32.3460593,
                35.0177811
              ],
              [
                32.345535,
                35.0176605
              ],
              [
                32.3440676,
                35.0199548
              ],
              [
                32.3428883,
                35.0221659
              ],
              [
                32.3421153,
                35.0238712
              ],
              [
                32.3422073,
                35.0245368
              ],
              [
                32.3414601,
                35.0258357
              ],
              [
                32.340544,
                35.0250899
              ],
              [
                32.3412487,
                35.0242248
              ],
              [
                32.3409103,
                35.0241515
              ],
              [
                32.3400927,
                35.0239743
              ],
              [
                32.339541,
                35.0239743
              ],
              [
                32.3388479,
                35.0235692
              ],
              [
                32.3384568,
                35.0234032
              ],
              [
                32.3380839,
                35.0234389
              ],
              [
                32.3373051,
                35.0237572
              ],
              [
                32.3373714,
                35.0240364
              ],
              [
                32.3378795,
                35.0243619
              ],
              [
                32.3375662,
                35.0247471
              ],
              [
                32.3382997,
                35.0251933
              ],
              [
                32.3388734,
                35.0249386
              ],
              [
                32.3391478,
                35.0252854
              ],
              [
                32.3394493,
                35.0263342
              ],
              [
                32.3394398,
                35.0275204
              ],
              [
                32.3400293,
                35.028885
              ],
              [
                32.3408729,
                35.0286727
              ],
              [
                32.3417312,
                35.0295214
              ],
              [
                32.3407605,
                35.030224
              ],
              [
                32.3402746,
                35.0308968
              ],
              [
                32.3426864,
                35.0316158
              ],
              [
                32.3428554,
                35.032142
              ],
              [
                32.3438838,
                35.0319166
              ],
              [
                32.3435196,
                35.030863
              ],
              [
                32.3438997,
                35.0308256
              ],
              [
                32.3453113,
                35.0306869
              ],
              [
                32.3454456,
                35.0326206
              ],
              [
                32.3446103,
                35.0325644
              ],
              [
                32.3444046,
                35.0330593
              ],
              [
                32.3394899,
                35.0333902
              ],
              [
                32.3393013,
                35.032862
              ],
              [
                32.3370732,
                35.0331242
              ],
              [
                32.3372604,
                35.035214
              ],
              [
                32.3333014,
                35.0352246
              ],
              [
                32.3330393,
                35.0358164
              ],
              [
                32.3359468,
                35.0366844
              ],
              [
                32.3360235,
                35.038929
              ],
              [
                32.3380239,
                35.0397396
              ],
              [
                32.3375948,
                35.044685
              ],
              [
                32.3342517,
                35.0502959
              ],
              [
                32.3357956,
                35.0540242
              ],
              [
                32.3379188,
                35.0550404
              ],
              [
                32.3381429,
                35.0543961
              ],
              [
                32.3397802,
                35.0547075
              ],
              [
                32.3387627,
                35.0538387
              ],
              [
                32.3391687,
                35.0534735
              ],
              [
                32.3420891,
                35.0545486
              ],
              [
                32.3426097,
                35.054958
              ],
              [
                32.3434838,
                35.0547659
              ],
              [
                32.3442617,
                35.0559314
              ],
              [
                32.3434908,
                35.0561505
              ],
              [
                32.3429319,
                35.0560661
              ],
              [
                32.3423069,
                35.0561294
              ],
              [
                32.3415237,
                35.0553618
              ],
              [
                32.3404658,
                35.0552152
              ],
              [
                32.3401805,
                35.0553084
              ],
              [
                32.3385872,
                35.0558291
              ],
              [
                32.3381194,
                35.0557856
              ],
              [
                32.3363846,
                35.0556244
              ],
              [
                32.3362357,
                35.0556496
              ],
              [
                32.3326252,
                35.0562612
              ],
              [
                32.3297981,
                35.0582943
              ],
              [
                32.3322583,
                35.0579878
              ],
              [
                32.3365337,
                35.056039
              ],
              [
                32.3386891,
                35.0567064
              ],
              [
                32.3409553,
                35.0562733
              ],
              [
                32.342183,
                35.0570687
              ],
              [
                32.3429133,
                35.0571498
              ],
              [
                32.3434326,
                35.0571598
              ],
              [
                32.3441341,
                35.0570803
              ],
              [
                32.3442338,
                35.0571671
              ],
              [
                32.3422988,
                35.0585955
              ],
              [
                32.3435144,
                35.0592362
              ],
              [
                32.3434423,
                35.0595079
              ],
              [
                32.3431948,
                35.0595888
              ],
              [
                32.3424545,
                35.0596898
              ],
              [
                32.3414144,
                35.0600794
              ],
              [
                32.3413736,
                35.0610686
              ],
              [
                32.3412031,
                35.0612878
              ],
              [
                32.3410785,
                35.0614637
              ],
              [
                32.3400915,
                35.0621356
              ],
              [
                32.3392837,
                35.0623539
              ],
              [
                32.3380154,
                35.0622936
              ],
              [
                32.337566,
                35.0623179
              ],
              [
                32.3374361,
                35.0624868
              ],
              [
                32.3374146,
                35.0626998
              ],
              [
                32.3374951,
                35.0630489
              ],
              [
                32.3371732,
                35.0635362
              ],
              [
                32.3367002,
                35.0639592
              ],
              [
                32.336449,
                35.0641619
              ],
              [
                32.3360789,
                35.06396
              ],
              [
                32.3354502,
                35.0640189
              ],
              [
                32.3349336,
                35.0647262
              ],
              [
                32.3344374,
                35.0649106
              ],
              [
                32.3341446,
                35.0652804
              ],
              [
                32.334035,
                35.0659951
              ],
              [
                32.3340592,
                35.0663464
              ],
              [
                32.3339465,
                35.0666296
              ],
              [
                32.3340914,
                35.0668732
              ],
              [
                32.3337802,
                35.0669918
              ],
              [
                32.3337024,
                35.0672047
              ],
              [
                32.3335388,
                35.0672399
              ],
              [
                32.3329403,
                35.0672734
              ],
              [
                32.3321682,
                35.0678633
              ],
              [
                32.3316153,
                35.0674329
              ],
              [
                32.3310723,
                35.0677722
              ],
              [
                32.3308993,
                35.0679396
              ],
              [
                32.3305796,
                35.0679703
              ],
              [
                32.3300988,
                35.0683514
              ],
              [
                32.3296528,
                35.0692918
              ],
              [
                32.3284587,
                35.0695592
              ],
              [
                32.3272971,
                35.0701125
              ],
              [
                32.3269759,
                35.0698729
              ],
              [
                32.3263525,
                35.069753
              ],
              [
                32.3260782,
                35.0697792
              ],
              [
                32.3255509,
                35.0700238
              ],
              [
                32.3251356,
                35.0701416
              ],
              [
                32.3241829,
                35.0702879
              ],
              [
                32.3237388,
                35.0702003
              ],
              [
                32.3221694,
                35.0703135
              ],
              [
                32.3189611,
                35.0698462
              ],
              [
                32.3186951,
                35.0719133
              ],
              [
                32.3164871,
                35.0704925
              ],
              [
                32.3159862,
                35.0715523
              ],
              [
                32.3176084,
                35.074363
              ],
              [
                32.317434,
                35.0744108
              ],
              [
                32.3165497,
                35.0744045
              ],
              [
                32.3158616,
                35.0743054
              ],
              [
                32.3148889,
                35.0742535
              ],
              [
                32.3139624,
                35.0742
              ],
              [
                32.3134934,
                35.0743321
              ],
              [
                32.3131086,
                35.0744882
              ],
              [
                32.3130935,
                35.0749079
              ],
              [
                32.3128783,
                35.0756976
              ],
              [
                32.3125863,
                35.0765076
              ],
              [
                32.312144,
                35.0768838
              ],
              [
                32.3118979,
                35.0772362
              ],
              [
                32.3105701,
                35.0785969
              ],
              [
                32.3094155,
                35.0790223
              ],
              [
                32.3093721,
                35.0798978
              ],
              [
                32.3090616,
                35.0808455
              ],
              [
                32.3087838,
                35.0820676
              ],
              [
                32.3073043,
                35.0818833
              ],
              [
                32.3056605,
                35.0827425
              ],
              [
                32.3047057,
                35.0832415
              ],
              [
                32.3039998,
                35.0846199
              ],
              [
                32.3040019,
                35.0863108
              ],
              [
                32.3031586,
                35.0875056
              ],
              [
                32.3011577,
                35.0878691
              ],
              [
                32.3005215,
                35.0895029
              ],
              [
                32.3012082,
                35.0901015
              ],
              [
                32.3016859,
                35.0906814
              ],
              [
                32.3023007,
                35.091131
              ],
              [
                32.302502,
                35.0914245
              ],
              [
                32.3021674,
                35.0917897
              ],
              [
                32.3014713,
                35.0921387
              ],
              [
                32.3008039,
                35.0927035
              ],
              [
                32.2997573,
                35.0931801
              ],
              [
                32.2988609,
                35.0940331
              ],
              [
                32.2984526,
                35.0941315
              ],
              [
                32.2977088,
                35.0943947
              ],
              [
                32.2968716,
                35.0950877
              ],
              [
                32.2965261,
                35.0957058
              ],
              [
                32.2940874,
                35.0973737
              ],
              [
                32.2935832,
                35.099074
              ],
              [
                32.2920114,
                35.1007584
              ],
              [
                32.288267,
                35.1025447
              ],
              [
                32.2819915,
                35.1001416
              ],
              [
                32.2795311,
                35.0987615
              ],
              [
                32.2806855,
                35.0957752
              ],
              [
                32.2832749,
                35.0922248
              ],
              [
                32.2777427,
                35.0934831
              ],
              [
                32.2765955,
                35.0873148
              ],
              [
                32.2815261,
                35.0880298
              ],
              [
                32.2817155,
                35.0872748
              ],
              [
                32.2807692,
                35.0863723
              ],
              [
                32.2762177,
                35.0852833
              ],
              [
                32.2762883,
                35.0846902
              ],
              [
                32.2777549,
                35.0845365
              ],
              [
                32.278735,
                35.0848034
              ],
              [
                32.2796142,
                35.0844307
              ],
              [
                32.2807247,
                35.0849882
              ],
              [
                32.2817198,
                35.08494
              ],
              [
                32.2795724,
                35.0835387
              ],
              [
                32.2773204,
                35.0837354
              ],
              [
                32.275636,
                35.0800773
              ],
              [
                32.2757416,
                35.0789605
              ],
              [
                32.2768768,
                35.0782643
              ],
              [
                32.2720268,
                35.070245
              ],
              [
                32.2734622,
                35.0632422
              ],
              [
                32.2798755,
                35.0628431
              ],
              [
                32.2746407,
                35.0574924
              ],
              [
                32.2777047,
                35.0425413
              ],
              [
                32.2780233,
                35.0409523
              ],
              [
                32.2781378,
                35.0406259
              ],
              [
                32.278516,
                35.040459
              ],
              [
                32.2777883,
                35.0399566
              ],
              [
                32.2773989,
                35.0398292
              ],
              [
                32.2774002,
                35.039159
              ],
              [
                32.2775638,
                35.038935
              ],
              [
                32.2776189,
                35.0385533
              ],
              [
                32.27795,
                35.0380719
              ],
              [
                32.2781317,
                35.0381492
              ],
              [
                32.2786429,
                35.0377395
              ],
              [
                32.2786199,
                35.0376068
              ],
              [
                32.2781888,
                35.0374723
              ],
              [
                32.278339,
                35.0371407
              ],
              [
                32.2781317,
                35.0369194
              ],
              [
                32.2779125,
                35.0369057
              ],
              [
                32.2779661,
                35.0367498
              ],
              [
                32.2781746,
                35.0364977
              ],
              [
                32.2790114,
                35.0361112
              ],
              [
                32.2798778,
                35.0357532
              ],
              [
                32.2803461,
                35.0355191
              ],
              [
                32.280904,
                35.0348866
              ],
              [
                32.2807495,
                35.0339326
              ],
              [
                32.2806208,
                35.0330892
              ],
              [
                32.2817366,
                35.0318242
              ],
              [
                32.2829811,
                35.0309456
              ],
              [
                32.2847664,
                35.0300021
              ],
              [
                32.2858135,
                35.0290832
              ],
              [
                32.286586,
                35.0277478
              ],
              [
                32.2868006,
                35.0260258
              ],
              [
                32.2870152,
                35.025358
              ],
              [
                32.2880451,
                35.0243389
              ],
              [
                32.289118,
                35.0230034
              ],
              [
                32.2890751,
                35.0224411
              ],
              [
                32.289633,
                35.0221248
              ],
              [
                32.290663,
                35.0221951
              ],
              [
                32.2910063,
                35.0216328
              ],
              [
                32.2915041,
                35.0214272
              ],
              [
                32.2923796,
                35.0221599
              ],
              [
                32.2933666,
                35.0215625
              ],
              [
                32.292165,
                35.020719
              ],
              [
                32.2915213,
                35.0198404
              ],
              [
                32.2914354,
                35.0189617
              ],
              [
                32.2925512,
                35.0198052
              ],
              [
                32.293564,
                35.0195293
              ],
              [
                32.2922508,
                35.0189969
              ],
              [
                32.2913925,
                35.0184697
              ],
              [
                32.2905771,
                35.0177316
              ],
              [
                32.2910921,
                35.0176613
              ],
              [
                32.2928946,
                35.0189266
              ],
              [
                32.2935812,
                35.0189266
              ],
              [
                32.2944395,
                35.0188914
              ],
              [
                32.2949889,
                35.0190734
              ],
              [
                32.2956841,
                35.0193132
              ],
              [
                32.2960703,
                35.0187157
              ],
              [
                32.2964995,
                35.0183642
              ],
              [
                32.2958563,
                35.0177048
              ],
              [
                32.295867,
                35.0172303
              ],
              [
                32.2960386,
                35.017037
              ],
              [
                32.296736,
                35.0170106
              ],
              [
                32.2970012,
                35.0170348
              ],
              [
                32.2973154,
                35.0170634
              ],
              [
                32.297244,
                35.0168147
              ],
              [
                32.2971153,
                35.0163661
              ],
              [
                32.2975621,
                35.0161056
              ],
              [
                32.2986887,
                35.0159562
              ],
              [
                32.2990535,
                35.0154817
              ],
              [
                32.2989998,
                35.0148052
              ],
              [
                32.2994719,
                35.0142779
              ],
              [
                32.3003302,
                35.0143043
              ],
              [
                32.3009417,
                35.0143394
              ],
              [
                32.301439,
                35.0133874
              ],
              [
                32.3007416,
                35.0121659
              ],
              [
                32.3020291,
                35.0119726
              ],
              [
                32.3030226,
                35.0117916
              ],
              [
                32.3042242,
                35.0118619
              ],
              [
                32.3147803,
                35.0083812
              ],
              [
                32.3165827,
                35.0059206
              ],
              [
                32.3157244,
                35.0043739
              ],
              [
                32.3171835,
                35.0024054
              ],
              [
                32.3207026,
                35.0003665
              ],
              [
                32.3201018,
                34.9979057
              ],
              [
                32.3175268,
                34.9956557
              ],
              [
                32.3195868,
                34.9926322
              ],
              [
                32.3201876,
                34.9907337
              ],
              [
                32.3195868,
                34.9882023
              ],
              [
                32.3182135,
                34.986374
              ],
              [
                32.3182135,
                34.9847566
              ],
              [
                32.3186426,
                34.9832095
              ],
              [
                32.3200159,
                34.9829985
              ],
              [
                32.32199,
                34.9837721
              ],
              [
                32.3260241,
                34.9851785
              ],
              [
                32.328876,
                34.9867751
              ],
              [
                32.3308233,
                34.9883375
              ],
              [
                32.3308797,
                34.9891001
              ],
              [
                32.3315823,
                34.9892741
              ],
              [
                32.3314767,
                34.9903596
              ],
              [
                32.3309164,
                34.9917884
              ],
              [
                32.3304001,
                34.9983434
              ],
              [
                32.3312276,
                35.0000841
              ],
              [
                32.3381854,
                35.0001611
              ],
              [
                32.3395582,
                34.9958786
              ],
              [
                32.3365808,
                34.9939409
              ],
              [
                32.3370948,
                34.9927514
              ],
              [
                32.3384299,
                34.9923662
              ],
              [
                32.336697,
                34.9901428
              ],
              [
                32.3380162,
                34.9884223
              ],
              [
                32.3382607,
                34.9862653
              ],
              [
                32.3403856,
                34.9872976
              ],
              [
                32.3436531,
                34.9914172
              ],
              [
                32.3436348,
                34.9950008
              ],
              [
                32.3454066,
                34.9968029
              ],
              [
                32.3478251,
                34.9965698
              ],
              [
                32.3488103,
                34.9970494
              ],
              [
                32.3481077,
                34.9985364
              ],
              [
                32.3475676,
                35.0005774
              ],
              [
                32.3466234,
                35.0037412
              ],
              [
                32.352932,
                35.0073442
              ],
              [
                32.3511081,
                35.0073618
              ],
              [
                32.3577386,
                35.0104726
              ],
              [
                32.3499571,
                35.0095169
              ],
              [
                32.3438769,
                35.0093654
              ],
              [
                32.3408281,
                35.0105993
              ],
              [
                32.3465874,
                35.0111933
              ],
              [
                32.3474149,
                35.0130049
              ],
              [
                32.3465627,
                35.0156847
              ],
              [
                32.3471874,
                35.0155161
              ],
              [
                32.3476414,
                35.0150171
              ],
              [
                32.3485805,
                35.0155566
              ]
            ],
            [
              [
                32.299741,
                35.0874888
              ],
              [
                32.2998784,
                35.0875331
              ],
              [
                32.3000991,
                35.0872437
              ],
              [
                32.3003852,
                35.08717
              ],
              [
                32.3003176,
                35.086783
              ],
              [
                32.3003086,
                35.0866466
              ],
              [
                32.2998086,
                35.0863867
              ],
              [
                32.2996712,
                35.0860107
              ],
              [
                32.2993919,
                35.0860402
              ],
              [
                32.2993761,
                35.0862448
              ],
              [
                32.2993469,
                35.0866318
              ],
              [
                32.2995406,
                35.0869101
              ],
              [
                32.299741,
                35.0874888
              ]
            ],
            [
              [
                32.2961434,
                35.0226921
              ],
              [
                32.2970026,
                35.0229714
              ],
              [
                32.2971791,
                35.0228861
              ],
              [
                32.2973191,
                35.022666
              ],
              [
                32.2961819,
                35.0218489
              ],
              [
                32.2961434,
                35.0226921
              ]
            ],
            [
              [
                32.2962248,
                35.0195118
              ],
              [
                32.2984242,
                35.0214887
              ],
              [
                32.2985422,
                35.0219016
              ],
              [
                32.2986628,
                35.0220743
              ],
              [
                32.2987224,
                35.0224815
              ],
              [
                32.2986711,
                35.0227968
              ],
              [
                32.2987207,
                35.0230982
              ],
              [
                32.2988809,
                35.0232468
              ],
              [
                32.2990297,
                35.0233533
              ],
              [
                32.299072,
                35.0233657
              ],
              [
                32.2992445,
                35.0233271
              ],
              [
                32.2992965,
                35.0225973
              ],
              [
                32.2993286,
                35.0222648
              ],
              [
                32.2991688,
                35.0218101
              ],
              [
                32.2989166,
                35.0214131
              ],
              [
                32.2986062,
                35.020879
              ],
              [
                32.2979849,
                35.0203549
              ],
              [
                32.2975113,
                35.0200641
              ],
              [
                32.297318,
                35.0197884
              ],
              [
                32.2966754,
                35.0192218
              ],
              [
                32.2962725,
                35.0194811
              ],
              [
                32.2962248,
                35.0195118
              ]
            ],
            [
              [
                32.311449,
                35.0191603
              ],
              [
                32.3117172,
                35.018844
              ],
              [
                32.309314,
                35.0177193
              ],
              [
                32.3086166,
                35.0182377
              ],
              [
                32.311449,
                35.0191603
              ]
            ],
            [
              [
                32.2825348,
                35.0398411
              ],
              [
                32.2882855,
                35.0391735
              ],
              [
                32.2893154,
                35.0387167
              ],
              [
                32.2906887,
                35.0368192
              ],
              [
                32.2909033,
                35.0363976
              ],
              [
                32.2883713,
                35.035238
              ],
              [
                32.2878134,
                35.0353083
              ],
              [
                32.2874271,
                35.0364327
              ],
              [
                32.2851956,
                35.0379085
              ],
              [
                32.2828352,
                35.0390329
              ],
              [
                32.2822344,
                35.0394194
              ],
              [
                32.2825348,
                35.0398411
              ]
            ],
            [
              [
                32.2905171,
                35.0358353
              ],
              [
                32.2915899,
                35.0355191
              ],
              [
                32.2932636,
                35.0316186
              ],
              [
                32.292062,
                35.0320754
              ],
              [
                32.2914183,
                35.0335513
              ],
              [
                32.2915899,
                35.032216
              ],
              [
                32.290045,
                35.0323565
              ],
              [
                32.2896158,
                35.0327782
              ],
              [
                32.2906458,
                35.0348515
              ],
              [
                32.2905171,
                35.0358353
              ]
            ],
            [
              [
                32.2931778,
                35.0326025
              ],
              [
                32.2947228,
                35.0332702
              ],
              [
                32.2955381,
                35.0328485
              ],
              [
                32.2949373,
                35.0316889
              ],
              [
                32.293607,
                35.0313375
              ],
              [
                32.2931778,
                35.0326025
              ]
            ],
            [
              [
                32.2838223,
                35.03197
              ],
              [
                32.2851956,
                35.033235
              ],
              [
                32.2885859,
                35.0347109
              ],
              [
                32.2886511,
                35.0346175
              ],
              [
                32.2887575,
                35.0344649
              ],
              [
                32.2857534,
                35.0329891
              ],
              [
                32.2841227,
                35.0317943
              ],
              [
                32.2838223,
                35.03197
              ]
            ],
            [
              [
                32.2968256,
                35.0276125
              ],
              [
                32.2975123,
                35.0272962
              ],
              [
                32.2992718,
                35.0298967
              ],
              [
                32.300173,
                35.0304238
              ],
              [
                32.3010313,
                35.0292641
              ],
              [
                32.2999584,
                35.0276476
              ],
              [
                32.2985851,
                35.0256093
              ],
              [
                32.2980366,
                35.0252029
              ],
              [
                32.2976839,
                35.0249416
              ],
              [
                32.296124,
                35.0254498
              ],
              [
                32.2957089,
                35.0258809
              ],
              [
                32.2960588,
                35.0262159
              ],
              [
                32.2963124,
                35.0268487
              ],
              [
                32.2962548,
                35.0270911
              ],
              [
                32.2964277,
                35.0271824
              ],
              [
                32.2965892,
                35.027672
              ],
              [
                32.2968256,
                35.0276125
              ]
            ],
            [
              [
                32.2940361,
                35.0294398
              ],
              [
                32.2941477,
                35.0296612
              ],
              [
                32.2942936,
                35.0298264
              ],
              [
                32.2957098,
                35.0295453
              ],
              [
                32.2951948,
                35.0287721
              ],
              [
                32.2940361,
                35.0294398
              ]
            ],
            [
              [
                32.2937357,
                35.0383302
              ],
              [
                32.2944653,
                35.0385761
              ],
              [
                32.2950232,
                35.0384356
              ],
              [
                32.2960102,
                35.0383653
              ],
              [
                32.2968685,
                35.0383653
              ],
              [
                32.2974264,
                35.0384004
              ],
              [
                32.2978985,
                35.0379788
              ],
              [
                32.2975552,
                35.0373463
              ],
              [
                32.297247,
                35.0368102
              ],
              [
                32.2972118,
                35.036749
              ],
              [
                32.2965681,
                35.0361516
              ],
              [
                32.2962034,
                35.0359152
              ],
              [
                32.2964344,
                35.0355572
              ],
              [
                32.2965252,
                35.0349217
              ],
              [
                32.2963944,
                35.0348228
              ],
              [
                32.2960531,
                35.0348866
              ],
              [
                32.2954094,
                35.0359056
              ],
              [
                32.2941219,
                35.0371355
              ],
              [
                32.2937357,
                35.0383302
              ]
            ],
            [
              [
                32.2898733,
                35.0401573
              ],
              [
                32.2919333,
                35.0413871
              ],
              [
                32.2924912,
                35.0409303
              ],
              [
                32.2917616,
                35.0402627
              ],
              [
                32.291075,
                35.0397357
              ],
              [
                32.2905373,
                35.0395772
              ],
              [
                32.2900021,
                35.0397708
              ],
              [
                32.2898733,
                35.0401573
              ]
            ]
          ]
        ]
      },
      "id": "relation/2540221"
    }
  ]
}
